{"type":"FeatureCollection","features":[{"type":"Feature","geometry":{"type":"LineString","coordinates":[[25.9773083,43.8321646],[25.973674,43.8327206],[25.9634965,43.8277362],[25.9602041,43.8301522],[25.9622303,43.8339895],[25.9621243,43.8341989],[25.9562084,43.8321231],[25.9533752,43.8309918],[25.9499402,43.8285614],[25.9517631,43.8320343],[25.9546607,43.8344108],[25.9510177,43.8379029],[25.9490434,43.8376385],[25.9420553,43.8341914],[25.9389496,43.8312884],[25.9349129,43.8257345],[25.9327943,43.8227678],[25.9273513,43.8146947]]},"properties":{"line":"А3","dir":"Метро","mode":"bus"}},{"type":"Feature","geometry":{"type":"LineString","coordinates":[[25.9742688,43.8236141],[25.9716679,43.820641],[25.9685224,43.8236111],[25.9688569,43.8252661],[25.9721445,43.8272019],[25.9703999,43.8292971],[25.9742053,43.8327306],[25.9773083,43.8321646],[25.9773083,43.8321646],[25.9757062,43.8393646],[25.9749543,43.8379349],[25.9757062,43.8393646],[25.9653678,43.8418354],[25.9707705,43.8441715],[25.9758796,43.8459051],[25.979074,43.8494883],[25.9790382,43.8523454],[25.9759705,43.8567759],[25.9744117,43.858828],[25.9781808,43.8606846],[25.9842492,43.8646986],[25.9882774,43.8667134],[25.9923364,43.8683409],[26.0035767,43.8722581],[26.0114126,43.8736737],[26.0156611,43.8752996],[26.0153083,43.8693768],[26.0145503,43.861407]]},"properties":{"line":"А4","dir":"0","mode":"bus"}},{"type":"Feature","geometry":{"type":"LineString","coordinates":[[26.0152567,43.8622711],[26.01594,43.8692538],[26.0156611,43.8752996],[26.0099212,43.8737336],[26.0034027,43.8724719],[25.9918512,43.868418],[25.9879,43.8668324],[25.9844584,43.8650624],[25.9776349,43.8616416],[25.9751525,43.8570413],[25.9787263,43.8523259],[25.9788358,43.8494982],[25.9749259,43.8453787],[25.97002,43.8441044],[25.9653678,43.8418354],[25.9757062,43.8393646],[25.9749543,43.8379349],[25.9735674,43.8358987],[25.9773083,43.8321646],[25.9773083,43.8321646],[25.973674,43.8327206],[25.9702177,43.8292053],[25.970883,43.8258423],[25.9681115,43.8251562],[25.9685456,43.8233863],[25.9715308,43.8205621],[25.9742688,43.8236141]]},"properties":{"line":"А4","dir":"1","mode":"bus"}},{"type":"Feature","geometry":{"type":"LineString","coordinates":[[25.9546607,43.8344108],[25.9510177,43.8379029],[25.9481706,43.8406406],[25.9513521,43.8438087],[25.9566908,43.8448854],[25.9616165,43.8460496],[25.966737,43.8470616],[25.9735677,43.84903],[25.977918,43.850244],[25.9827452,43.8508515],[25.9898454,43.8517587],[25.9920717,43.8494328],[25.9875448,43.8476149],[25.9815146,43.8448163],[25.9774611,43.8438345],[25.9732943,43.8422233],[25.9704818,43.8414129],[25.9653678,43.8418354]]},"properties":{"line":"А5","dir":"0","mode":"bus"}},{"type":"Feature","geometry":{"type":"LineString","coordinates":[[25.9653678,43.8418354],[25.9707705,43.8441715],[25.9741859,43.8418644],[25.9776788,43.843769],[25.9815146,43.8448163],[25.9880073,43.8477042],[25.9922085,43.8493107],[25.9898454,43.8517587],[25.9847063,43.8514098],[25.9786506,43.8505474],[25.9733607,43.849229],[25.9620279,43.8463935],[25.9569194,43.8452796],[25.9523605,43.8445775],[25.948231,43.8424184],[25.9490434,43.8376385],[25.9494551,43.8365453],[25.9501889,43.8328332],[25.9517631,43.8320343],[25.9546607,43.8344108]]},"properties":{"line":"А5","dir":"1","mode":"bus"}},{"type":"Feature","geometry":{"type":"LineString","coordinates":[[25.9621797,43.855869],[25.9592178,43.848681],[25.9569194,43.8452796],[25.9523605,43.8445775],[25.948231,43.8424184],[25.9490434,43.8376385],[25.9420553,43.8341914],[25.9389496,43.8312884],[25.9349129,43.8257345],[25.9327943,43.8227678],[25.9273513,43.8146947],[25.92351,43.8081729],[25.9175137,43.7969283],[25.9223308,43.7946083],[25.9299581,43.7959198],[25.9319013,43.7977445],[25.9303243,43.8058135],[25.9371879,43.8066217],[25.9412184,43.806487],[25.9430058,43.8067724],[25.9460018,43.8034242]]},"properties":{"line":"А6","dir":"0","mode":"bus"}},{"type":"Feature","geometry":{"type":"LineString","coordinates":[[25.9459789,43.8042695],[25.9431481,43.8068894],[25.9411908,43.806664],[25.9370566,43.8067096],[25.9302532,43.805922],[25.9316244,43.7977035],[25.9289436,43.7955154],[25.9223945,43.7946735],[25.9181053,43.7968686],[25.9247363,43.8086718],[25.9281442,43.8137873],[25.9325261,43.8220564],[25.9356361,43.8262708],[25.9391644,43.8312448],[25.942206,43.8341249],[25.9510177,43.8379029],[25.9481706,43.8406406],[25.9513521,43.8438087],[25.9566908,43.8448854],[25.9603969,43.8470074],[25.9591298,43.8496903],[25.9621797,43.855869]]},"properties":{"line":"А6","dir":"1","mode":"bus"}},{"type":"Feature","geometry":{"type":"LineString","coordinates":[[25.9621797,43.855869],[25.9592178,43.848681],[25.9601649,43.8449517],[25.9600029,43.84116],[25.970883,43.8258423],[25.9508967,43.8404043],[25.9490434,43.8376385],[25.9452904,43.8351386],[25.9457508,43.8301645],[25.9430465,43.8273807],[25.9370522,43.8215663],[25.9398779,43.8160716],[25.9422101,43.8124992],[25.9431481,43.8068894],[25.9459789,43.8042695],[25.9457462,43.7981421],[25.9457462,43.7981421]]},"properties":{"line":"А8","dir":"0","mode":"bus"}},{"type":"Feature","geometry":{"type":"LineString","coordinates":[[25.9460719,43.7982314],[25.9460719,43.7982314],[25.9460018,43.8034242],[25.9430058,43.8067724],[25.9415949,43.8133745],[25.9400044,43.8162425],[25.937084,43.8214841],[25.9428487,43.8270842],[25.9463783,43.8307745],[25.945449,43.8351632],[25.9510177,43.8379029],[25.9548277,43.8409082],[25.9565233,43.8423662],[25.9606796,43.8427829],[25.9603969,43.8470074],[25.9591298,43.8496903],[25.9621797,43.855869]]},"properties":{"line":"А8","dir":"1","mode":"bus"}},{"type":"Feature","geometry":{"type":"LineString","coordinates":[[25.9621797,43.855869],[25.9592178,43.848681],[25.9601649,43.8449517],[25.9600029,43.84116],[25.9694235,43.8328749],[25.9742053,43.8327306],[25.9757062,43.8393646],[25.9749543,43.8379349],[25.9787307,43.8384369],[25.9857671,43.8403464],[25.9900895,43.8402202],[26.0001032,43.8379034],[26.0056073,43.8366721],[26.0153519,43.8340169],[26.0181398,43.8303543],[26.0243994,43.8273033],[26.0317731,43.8262657]]},"properties":{"line":"А10","dir":"0","mode":"bus"}},{"type":"Feature","geometry":{"type":"LineString","coordinates":[[26.0317731,43.8262657],[26.0239323,43.8276486],[26.0182323,43.8304171],[26.0153451,43.8340845],[26.0053477,43.8367699],[25.9998131,43.8380612],[25.9900531,43.8403115],[25.9859886,43.8405061],[25.9789451,43.8385496],[25.9749543,43.8379349],[25.9735674,43.8358987],[25.973674,43.8327206],[25.9693878,43.8333381],[25.9604963,43.8407041],[25.9603969,43.8470074],[25.9591298,43.8496903],[25.9621797,43.855869]]},"properties":{"line":"А10","dir":"1","mode":"bus"}},{"type":"Feature","geometry":{"type":"LineString","coordinates":[[25.9533779,43.8269773],[25.9533779,43.8269773],[25.9587,43.8286377],[25.9602041,43.8301522],[25.9622303,43.8339895],[25.9621243,43.8341989],[25.9562084,43.8321231],[25.9533752,43.8309918],[25.9499402,43.8285614],[25.9517631,43.8320343],[25.9559346,43.8348114],[25.9553586,43.838226],[25.9548277,43.8409082],[25.9543539,43.8440251],[25.9566908,43.8448854],[25.9603969,43.8470074],[25.9591298,43.8496903],[25.9627048,43.8537299],[25.9657783,43.8546432],[25.9690685,43.8562543],[25.9734617,43.8583708],[25.9781808,43.8606846],[25.9842492,43.8646986],[25.9882774,43.8667134],[25.9923364,43.8683409],[26.0035767,43.8722581],[26.0114126,43.8736737],[26.0156611,43.8752996]]},"properties":{"line":"А11","dir":"0","mode":"bus"}},{"type":"Feature","geometry":{"type":"LineString","coordinates":[[26.0156611,43.8752996],[26.0099212,43.8737336],[26.0034027,43.8724719],[25.9918512,43.868418],[25.9879,43.8668324],[25.9844584,43.8650624],[25.9776349,43.8616416],[25.9721341,43.8590006],[25.9677635,43.8568727],[25.9636494,43.8551424],[25.9592178,43.848681],[25.9569194,43.8452796],[25.9540064,43.8445517],[25.9546968,43.8407184],[25.955218,43.8378078],[25.955264,43.8342052],[25.9516196,43.8321864],[25.9500859,43.8283531],[25.9534042,43.8307505],[25.9564397,43.8318991],[25.959983,43.8302016],[25.9587,43.8287375],[25.9536367,43.8271428],[25.9536367,43.8271428]]},"properties":{"line":"А11","dir":"1","mode":"bus"}},{"type":"Feature","geometry":{"type":"LineString","coordinates":[[25.9559346,43.8348114],[25.9553586,43.838226],[25.9548277,43.8409082],[25.9543539,43.8440251],[25.9566908,43.8448854],[25.9616165,43.8460496],[25.966737,43.8470616],[25.9735677,43.84903],[25.977918,43.850244],[25.9827452,43.8508515],[25.9898454,43.8517587],[26.0035983,43.8535373],[26.0145002,43.8603923],[26.0152567,43.8622711],[26.01594,43.8692538],[26.0156611,43.8752996],[26.0099212,43.8737336],[26.0034027,43.8724719],[25.9918512,43.868418]]},"properties":{"line":"А12","dir":"0","mode":"bus"}},{"type":"Feature","geometry":{"type":"LineString","coordinates":[[26.0026468,43.8536635],[25.9972169,43.8529658],[25.9903358,43.8521146],[25.9847063,43.8514098],[25.9786506,43.8505474],[25.9733607,43.849229],[25.9620279,43.8463935],[25.9569194,43.8452796],[25.9540064,43.8445517],[25.9546968,43.8407184],[25.955218,43.8378078],[25.9557473,43.8347747]]},"properties":{"line":"А12","dir":"1","mode":"bus"}},{"type":"Feature","geometry":{"type":"LineString","coordinates":[[26.0026468,43.8536635],[25.9972169,43.8529658],[25.9903358,43.8521146],[25.9847063,43.8514098],[25.9786506,43.8505474],[25.9733607,43.849229],[25.9620279,43.8463935],[25.9601649,43.8449517],[25.9600029,43.84116],[25.955264,43.8342052],[25.9516196,43.8321864],[25.9500859,43.8283531],[25.9398779,43.8160716],[25.9422101,43.8124992],[25.9411908,43.806664],[25.9370566,43.8067096],[25.9302532,43.805922],[25.9316244,43.7977035],[25.9289436,43.7955154],[25.9224717,43.7889889],[25.9208571,43.7841402]]},"properties":{"line":"А15","dir":"0","mode":"bus"}},{"type":"Feature","geometry":{"type":"LineString","coordinates":[[25.9208571,43.7841402],[25.9227678,43.7891308],[25.9299581,43.7959198],[25.9319013,43.7977445],[25.9303243,43.8058135],[25.9371879,43.8066217],[25.9412184,43.806487],[25.9415949,43.8133745],[25.9400044,43.8162425],[25.9499402,43.8285614],[25.9517631,43.8320343],[25.955264,43.8342052],[25.9604963,43.8407041],[25.9616165,43.8460496],[25.966737,43.8470616],[25.9735677,43.84903],[25.977918,43.850244],[25.9827452,43.8508515],[25.9898454,43.8517587],[26.0035983,43.8535373]]},"properties":{"line":"А15","dir":"1","mode":"bus"}},{"type":"Feature","geometry":{"type":"LineString","coordinates":[[25.997469,43.8576557],[25.997213,43.8549777],[25.9972169,43.8529658],[25.9903358,43.8521146],[25.9847063,43.8514098],[25.9790382,43.8523454],[25.9751525,43.8570413],[25.9721341,43.8590006],[25.9677635,43.8568727],[25.9636494,43.8551424],[25.9592178,43.848681],[25.9569194,43.8452796],[25.9523605,43.8445775],[25.948231,43.8424184],[25.9490434,43.8376385],[25.9420553,43.8341914],[25.9389496,43.8312884],[25.9349129,43.8257345],[25.9327943,43.8227678],[25.9273513,43.8146947],[25.92351,43.8081729],[25.9175137,43.7969283],[25.9138963,43.788773],[25.8973296,43.774289],[25.8871234,43.7661514],[25.8871234,43.7661514],[25.8871234,43.7661514],[25.887147,43.7659989],[25.887147,43.7659989],[25.9025542,43.7633751]]},"properties":{"line":"А16","dir":"0","mode":"bus"}},{"type":"Feature","geometry":{"type":"LineString","coordinates":[[25.9025542,43.7633751],[25.8976295,43.7748421],[25.9143498,43.7895775],[25.9181053,43.7968686],[25.9247363,43.8086718],[25.9281442,43.8137873],[25.9325261,43.8220564],[25.9356361,43.8262708],[25.9391644,43.8312448],[25.942206,43.8341249],[25.9510177,43.8379029],[25.9481706,43.8406406],[25.9513521,43.8438087],[25.9566908,43.8448854],[25.9603969,43.8470074],[25.9591298,43.8496903],[25.9627048,43.8537299],[25.9657783,43.8546432],[25.9690685,43.8562543],[25.9734617,43.8583708],[25.9751525,43.8570413],[25.9787263,43.8523259],[25.9827452,43.8508515],[25.9898454,43.8517587],[25.9970898,43.8526983],[25.9972467,43.8555766],[25.997469,43.8576557]]},"properties":{"line":"А16","dir":"1","mode":"bus"}},{"type":"Feature","geometry":{"type":"LineString","coordinates":[[25.9742688,43.8236141],[25.9716679,43.820641],[25.9685224,43.8236111],[25.9633779,43.8276935],[25.9602041,43.8301522],[25.9622303,43.8339895],[25.9621243,43.8341989],[25.9562084,43.8321231],[25.9533752,43.8309918],[25.9499402,43.8285614],[25.9517631,43.8320343],[25.9546607,43.8344108],[25.9510177,43.8379029],[25.9548277,43.8409082],[25.9543539,43.8440251],[25.9566908,43.8448854],[25.9603969,43.8470074],[25.9591298,43.8496903],[25.9627048,43.8537299],[25.9657783,43.8546432],[25.9690685,43.8562543],[25.9734617,43.8583708],[25.9751525,43.8570413],[25.9787263,43.8523259],[25.9827452,43.8508515],[25.9898454,43.8517587],[26.0035983,43.8535373]]},"properties":{"line":"А18","dir":"0","mode":"bus"}},{"type":"Feature","geometry":{"type":"LineString","coordinates":[[26.0026468,43.8536635],[25.9972169,43.8529658],[25.9903358,43.8521146],[25.9847063,43.8514098],[25.9790382,43.8523454],[25.9751525,43.8570413],[25.9721341,43.8590006],[25.9677635,43.8568727],[25.9636494,43.8551424],[25.9592178,43.848681],[25.9569194,43.8452796],[25.9540064,43.8445517],[25.9546968,43.8407184],[25.955218,43.8378078],[25.955264,43.8342052],[25.9516196,43.8321864],[25.9500859,43.8283531],[25.9534042,43.8307505],[25.9564397,43.8318991],[25.959983,43.8302016],[25.9633779,43.8276935],[25.9685456,43.8233863],[25.9715308,43.8205621],[25.9742688,43.8236141]]},"properties":{"line":"А18","dir":"1","mode":"bus"}},{"type":"Feature","geometry":{"type":"LineString","coordinates":[[25.9653678,43.8418354],[25.9707705,43.8441715],[25.9758796,43.8459051],[25.979074,43.8494883],[25.9790382,43.8523454],[25.9751525,43.8570413],[25.9721341,43.8590006],[25.9677635,43.8568727],[25.9636494,43.8551424],[25.9592178,43.848681],[25.9571691,43.8467651],[25.9502965,43.8463687],[25.9477776,43.8445892],[25.947547,43.8409043],[25.9490434,43.8376385],[25.9420553,43.8341914],[25.9389496,43.8312884],[25.9349129,43.8257345],[25.9327943,43.8227678],[25.9273513,43.8146947]]},"properties":{"line":"А19","dir":"0","mode":"bus"}},{"type":"Feature","geometry":{"type":"LineString","coordinates":[[25.9273513,43.8146947],[25.9325261,43.8220564],[25.9356361,43.8262708],[25.9391644,43.8312448],[25.942206,43.8341249],[25.9510177,43.8379029],[25.9481706,43.8406406],[25.9513521,43.8438087],[25.9566908,43.8448854],[25.9603969,43.8470074],[25.9591298,43.8496903],[25.9627048,43.8537299],[25.9657783,43.8546432],[25.9690685,43.8562543],[25.9734617,43.8583708],[25.9751525,43.8570413],[25.9787263,43.8523259],[25.9788358,43.8494982],[25.9749259,43.8453787],[25.97002,43.8441044],[25.9653678,43.8418354]]},"properties":{"line":"А19","dir":"1","mode":"bus"}},{"type":"Feature","geometry":{"type":"LineString","coordinates":[[25.9957974,43.8507809],[25.9920717,43.8494328],[25.9875448,43.8476149],[25.9847063,43.8514098],[25.9790382,43.8523454],[25.9751525,43.8570413],[25.9721341,43.8590006],[25.9677635,43.8568727],[25.9636494,43.8551424],[25.9592178,43.848681],[25.9569194,43.8452796],[25.9523605,43.8445775],[25.948231,43.8424184],[25.9490434,43.8376385]]},"properties":{"line":"А20","dir":"0","mode":"bus"}},{"type":"Feature","geometry":{"type":"LineString","coordinates":[[25.9510177,43.8379029],[25.9481706,43.8406406],[25.9513521,43.8438087],[25.9566908,43.8448854],[25.9603969,43.8470074],[25.9591298,43.8496903],[25.9627048,43.8537299],[25.9657783,43.8546432],[25.9690685,43.8562543],[25.9734617,43.8583708],[25.9751525,43.8570413],[25.9787263,43.8523259],[25.9823033,43.8503469],[25.983717,43.8463665],[25.9880073,43.8477042],[25.9922085,43.8493107],[25.9962922,43.8508548]]},"properties":{"line":"А20","dir":"1","mode":"bus"}},{"type":"Feature","geometry":{"type":"LineString","coordinates":[[25.9742688,43.8236141],[25.9716679,43.820641],[25.9685224,43.8236111],[25.9688569,43.8252661],[25.9721445,43.8272019],[25.9704323,43.8305847],[25.9694235,43.8328749],[25.9590832,43.8385678],[25.9559346,43.8348114],[25.9553586,43.838226],[25.9548277,43.8409082],[25.9543539,43.8440251],[25.9541619,43.8452825],[25.9502965,43.8463687],[25.9491382,43.8507914],[25.9533607,43.8524519],[25.9585489,43.8541222],[25.9598567,43.8577046],[25.9621797,43.855869]]},"properties":{"line":"А23","dir":"0","mode":"bus"}},{"type":"Feature","geometry":{"type":"LineString","coordinates":[[25.9621797,43.855869],[25.9592178,43.848681],[25.9569194,43.8452796],[25.9540064,43.8445517],[25.9546968,43.8407184],[25.955218,43.8378078],[25.955264,43.8342052],[25.9516196,43.8321864],[25.9500859,43.8283531],[25.9534042,43.8307505],[25.9564397,43.8318991],[25.959983,43.8302016],[25.9634965,43.8277362],[25.9702177,43.8292053],[25.970883,43.8258423],[25.9681115,43.8251562],[25.9685456,43.8233863],[25.9715308,43.8205621],[25.9742688,43.8236141]]},"properties":{"line":"А23","dir":"1","mode":"bus"}},{"type":"Feature","geometry":{"type":"LineString","coordinates":[[26.0385662,43.8703312],[26.026365,43.879213],[26.019904,43.878626],[26.0155149,43.8756254],[26.0099212,43.8737336],[26.0034027,43.8724719],[25.9918512,43.868418],[25.9879,43.8668324],[25.9844584,43.8650624],[25.9776349,43.8616416],[25.9721341,43.8590006],[25.9677635,43.8568727],[25.9636494,43.8551424],[25.9592178,43.848681],[25.9601649,43.8449517],[25.9600029,43.84116],[25.9694235,43.8328749],[25.9702177,43.8292053],[25.970883,43.8258423],[25.9681115,43.8251562],[25.9685456,43.8233863],[25.9715308,43.8205621],[25.9742688,43.8236141]]},"properties":{"line":"А28","dir":"0","mode":"bus"}},{"type":"Feature","geometry":{"type":"LineString","coordinates":[[25.9742688,43.8236141],[25.9716679,43.820641],[25.9685224,43.8236111],[25.9688569,43.8252661],[25.9721445,43.8272019],[25.9704323,43.8305847],[25.9694235,43.8328749],[25.9604963,43.8407041],[25.9603969,43.8470074],[25.9591298,43.8496903],[25.9627048,43.8537299],[25.9657783,43.8546432],[25.9690685,43.8562543],[25.9734617,43.8583708],[25.9781808,43.8606846],[25.9842492,43.8646986],[25.9882774,43.8667134],[25.9923364,43.8683409],[26.0035767,43.8722581],[26.0114126,43.8736737],[26.0156611,43.8752996],[26.0201927,43.8784094],[26.0264015,43.8790082],[26.0385662,43.8703312]]},"properties":{"line":"А28","dir":"1","mode":"bus"}},{"type":"Feature","geometry":{"type":"LineString","coordinates":[[25.9773083,43.8321646],[25.9757062,43.8393646],[25.9749543,43.8379349],[25.9757062,43.8393646],[25.9653678,43.8418354],[25.9707705,43.8441715],[25.9741859,43.8418644],[25.9776788,43.843769],[25.9815146,43.8448163],[25.9799595,43.8489444],[25.9790382,43.8523454],[25.9751525,43.8570413],[25.9721341,43.8590006],[25.9677635,43.8568727],[25.9636494,43.8551424],[25.9573945,43.8518272],[25.9533607,43.8524519]]},"properties":{"line":"А30","dir":"0","mode":"bus"}},{"type":"Feature","geometry":{"type":"LineString","coordinates":[[25.9533607,43.8524519],[25.9569279,43.8516476],[25.9627048,43.8537299],[25.9657783,43.8546432],[25.9690685,43.8562543],[25.9734617,43.8583708],[25.9751525,43.8570413],[25.9787263,43.8523259],[25.9823033,43.8503469],[25.983717,43.8463665],[25.9815146,43.8448163],[25.9774611,43.8438345],[25.9732943,43.8422233],[25.9704818,43.8414129],[25.9653678,43.8418354],[25.9757062,43.8393646],[25.9749543,43.8379349],[25.9735674,43.8358987],[25.9773083,43.8321646]]},"properties":{"line":"А30","dir":"1","mode":"bus"}},{"type":"Feature","geometry":{"type":"LineString","coordinates":[[25.997469,43.8576557],[25.997213,43.8549777],[25.9972169,43.8529658],[25.9903358,43.8521146],[25.9847063,43.8514098],[25.9786506,43.8505474],[25.9733607,43.849229],[25.9620279,43.8463935],[25.9601649,43.8449517],[25.9600029,43.84116],[25.9694235,43.8328749],[25.9759846,43.8287337],[25.9803015,43.8234505],[25.9820009,43.8141905],[25.9846988,43.804814],[26.0148116,43.783625],[26.0187571,43.7878214],[26.0319321,43.7937899],[26.0319321,43.7937899]]},"properties":{"line":"А33","dir":"0","mode":"bus"}},{"type":"Feature","geometry":{"type":"LineString","coordinates":[[26.0319321,43.7937899],[26.0319321,43.7937899],[26.0186981,43.7878581],[26.0148116,43.783625],[25.9846988,43.804814],[25.9816336,43.8132115],[25.9805579,43.8236003],[25.9751001,43.8296601],[25.9693878,43.8333381],[25.9604963,43.8407041],[25.9616165,43.8460496],[25.966737,43.8470616],[25.9735677,43.84903],[25.977918,43.850244],[25.9827452,43.8508515],[25.9898454,43.8517587],[25.9970898,43.8526983],[25.9972467,43.8555766],[25.997469,43.8576557]]},"properties":{"line":"А33","dir":"1","mode":"bus"}},{"type":"Feature","geometry":{"type":"LineString","coordinates":[[25.9975488,43.8539449],[25.9972169,43.8529658],[25.9903358,43.8521146],[25.9847063,43.8514098],[25.9786506,43.8505474],[25.9733607,43.849229],[25.9620279,43.8463935],[25.9569194,43.8452796],[25.9523605,43.8445775],[25.948231,43.8424184],[25.9490434,43.8376385],[25.9452904,43.8351386],[25.9430465,43.8273807],[25.9370522,43.8215663],[25.9422101,43.8124992],[25.9431481,43.8068894],[25.9457462,43.7981421]]},"properties":{"line":"А50","dir":"0","mode":"bus"}},{"type":"Feature","geometry":{"type":"LineString","coordinates":[[25.9460719,43.7982314],[25.9430058,43.8067724],[25.9415949,43.8133745],[25.937084,43.8214841],[25.9428487,43.8270842],[25.945449,43.8351632],[25.9510177,43.8379029],[25.9481706,43.8406406],[25.9513521,43.8438087],[25.9566908,43.8448854],[25.9616165,43.8460496],[25.966737,43.8470616],[25.9735677,43.84903],[25.977918,43.850244],[25.9827452,43.8508515],[25.9898454,43.8517587],[25.9970898,43.8526983],[25.9972467,43.8555766]]},"properties":{"line":"А50","dir":"1","mode":"bus"}},{"type":"Feature","geometry":{"type":"LineString","coordinates":[[25.9325261,43.8220564],[25.9356361,43.8262708],[25.9391644,43.8312448],[25.942206,43.8341249],[25.9510177,43.8379029],[25.9481706,43.8406406],[25.9513521,43.8438087],[25.9566908,43.8448854],[25.9616165,43.8460496],[25.966737,43.8470616],[25.9735677,43.84903],[25.977918,43.850244],[25.9827452,43.8508515],[25.9898454,43.8517587],[26.0035983,43.8535373]]},"properties":{"line":"Т2","dir":"0","mode":"bus"}},{"type":"Feature","geometry":{"type":"LineString","coordinates":[[26.0026468,43.8536635],[25.9972169,43.8529658],[25.9903358,43.8521146],[25.9847063,43.8514098],[25.9786506,43.8505474],[25.9733607,43.849229],[25.9620279,43.8463935],[25.9569194,43.8452796],[25.9523605,43.8445775],[25.948231,43.8424184],[25.9490434,43.8376385],[25.9420553,43.8341914],[25.9389496,43.8312884],[25.9349129,43.8257345],[25.9327943,43.8227678]]},"properties":{"line":"Т2","dir":"1","mode":"bus"}},{"type":"Feature","geometry":{"type":"LineString","coordinates":[[25.9325261,43.8220564],[25.9356361,43.8262708],[25.9391644,43.8312448],[25.942206,43.8341249],[25.9510177,43.8379029],[25.9481706,43.8406406],[25.9513521,43.8438087],[25.9566908,43.8448854],[25.9601649,43.8449517],[25.9600029,43.84116],[25.9694235,43.8328749],[25.9742053,43.8327306],[25.9773083,43.8321646]]},"properties":{"line":"Т9","dir":"0","mode":"bus"}},{"type":"Feature","geometry":{"type":"LineString","coordinates":[[25.9773083,43.8321646],[25.973674,43.8327206],[25.9693878,43.8333381],[25.9604963,43.8407041],[25.9566908,43.8448854],[25.9523605,43.8445775],[25.948231,43.8424184],[25.9490434,43.8376385],[25.9420553,43.8341914],[25.9389496,43.8312884],[25.9349129,43.8257345],[25.9327943,43.8227678]]},"properties":{"line":"Т9","dir":"1","mode":"bus"}},{"type":"Feature","geometry":{"type":"LineString","coordinates":[[25.9688569,43.8252661],[25.9721445,43.8272019],[25.9704323,43.8305847],[25.9694235,43.8328749],[25.9604963,43.8407041],[25.9616165,43.8460496],[25.966737,43.8470616],[25.9735677,43.84903],[25.977918,43.850244],[25.9827452,43.8508515],[25.9898454,43.8517587],[25.9970898,43.8526983],[25.9972467,43.8555766],[25.997469,43.8576557]]},"properties":{"line":"Т13","dir":"0","mode":"bus"}},{"type":"Feature","geometry":{"type":"LineString","coordinates":[[25.997469,43.8576557],[25.997213,43.8549777],[25.9972169,43.8529658],[25.9903358,43.8521146],[25.9847063,43.8514098],[25.9786506,43.8505474],[25.9733607,43.849229],[25.9620279,43.8463935],[25.9601649,43.8449517],[25.9600029,43.84116],[25.9694235,43.8328749],[25.9702177,43.8292053],[25.970883,43.8258423],[25.9681115,43.8251562]]},"properties":{"line":"Т13","dir":"1","mode":"bus"}},{"type":"Feature","geometry":{"type":"LineString","coordinates":[[25.9773083,43.8321646],[25.973674,43.8327206],[25.9693878,43.8333381],[25.9604963,43.8407041],[25.9616165,43.8460496],[25.966737,43.8470616],[25.9735677,43.84903],[25.977918,43.850244],[25.9827452,43.8508515],[25.9898454,43.8517587],[25.9970898,43.8526983],[25.9972467,43.8555766],[25.997469,43.8576557]]},"properties":{"line":"Т21","dir":"0","mode":"bus"}},{"type":"Feature","geometry":{"type":"LineString","coordinates":[[25.997469,43.8576557],[25.997213,43.8549777],[25.9972169,43.8529658],[25.9903358,43.8521146],[25.9847063,43.8514098],[25.9786506,43.8505474],[25.9733607,43.849229],[25.9620279,43.8463935],[25.9601649,43.8449517],[25.9600029,43.84116],[25.9694235,43.8328749],[25.9742053,43.8327306],[25.9773083,43.8321646]]},"properties":{"line":"Т21","dir":"1","mode":"bus"}},{"type":"Feature","geometry":{"type":"LineString","coordinates":[[25.9325261,43.8220564],[25.9356361,43.8262708],[25.9391644,43.8312448],[25.942206,43.8341249],[25.9510177,43.8379029],[25.9481706,43.8406406],[25.9513521,43.8438087],[25.9566908,43.8448854],[25.9601649,43.8449517],[25.9600029,43.84116],[25.9694235,43.8328749],[25.9702177,43.8292053],[25.970883,43.8258423],[25.9681115,43.8251562]]},"properties":{"line":"Т24","dir":"0","mode":"bus"}},{"type":"Feature","geometry":{"type":"LineString","coordinates":[[25.9688569,43.8252661],[25.9721445,43.8272019],[25.9704323,43.8305847],[25.9694235,43.8328749],[25.9604963,43.8407041],[25.9566908,43.8448854],[25.9523605,43.8445775],[25.948231,43.8424184],[25.9490434,43.8376385],[25.9420553,43.8341914],[25.9389496,43.8312884],[25.9349129,43.8257345],[25.9327943,43.8227678]]},"properties":{"line":"Т24","dir":"1","mode":"bus"}},{"type":"Feature","geometry":{"type":"LineString","coordinates":[[25.9742688,43.8236141],[25.9716679,43.820641],[25.9685224,43.8236111],[25.9688569,43.8252661],[25.9721445,43.8272019],[25.9704323,43.8305847],[25.9694235,43.8328749],[25.9604963,43.8407041],[25.9603969,43.8470074],[25.9591298,43.8496903],[25.9627048,43.8537299],[25.9657783,43.8546432],[25.9690685,43.8562543],[25.9734617,43.8583708],[25.9781808,43.8606846],[25.9842492,43.8646986],[25.9882774,43.8667134],[25.9923364,43.8683409]]},"properties":{"line":"Т27","dir":"0","mode":"bus"}},{"type":"Feature","geometry":{"type":"LineString","coordinates":[[25.9918512,43.868418],[25.9879,43.8668324],[25.9844584,43.8650624],[25.9776349,43.8616416],[25.9721341,43.8590006],[25.9677635,43.8568727],[25.9636494,43.8551424],[25.9592178,43.848681],[25.9601649,43.8449517],[25.9600029,43.84116],[25.9694235,43.8328749],[25.9702177,43.8292053],[25.970883,43.8258423],[25.9681115,43.8251562],[25.9685456,43.8233863],[25.9715308,43.8205621],[25.9742688,43.8236141]]},"properties":{"line":"Т27","dir":"1","mode":"bus"}},{"type":"Feature","geometry":{"type":"LineString","coordinates":[[25.9773083,43.8321646],[25.973674,43.8327206],[25.9693878,43.8333381],[25.9604963,43.8407041],[25.9603969,43.8470074],[25.9591298,43.8496903],[25.9627048,43.8537299],[25.9657783,43.8546432],[25.9690685,43.8562543],[25.9734617,43.8583708],[25.9781808,43.8606846],[25.9842492,43.8646986],[25.9882774,43.8667134],[25.9923364,43.8683409]]},"properties":{"line":"Т29","dir":"0","mode":"bus"}},{"type":"Feature","geometry":{"type":"LineString","coordinates":[[25.9918512,43.868418],[25.9879,43.8668324],[25.9844584,43.8650624],[25.9776349,43.8616416],[25.9721341,43.8590006],[25.9677635,43.8568727],[25.9636494,43.8551424],[25.9592178,43.848681],[25.9601649,43.8449517],[25.9600029,43.84116],[25.9694235,43.8328749],[25.9742053,43.8327306],[25.9773083,43.8321646]]},"properties":{"line":"Т29","dir":"1","mode":"bus"}},{"type":"Feature","geometry":{"type":"LineString","coordinates":[[25.97945,43.9047],[25.976192,43.899514],[25.971129,43.896064],[25.96668,43.89146],[25.964915,43.882852],[25.966193,43.878802],[25.96733,43.87346]]},"properties":{"line":"G1","dir":"0","mode":"bus"}},{"type":"Feature","geometry":{"type":"LineString","coordinates":[[25.96733,43.87346],[25.966193,43.878802],[25.964915,43.882852],[25.96668,43.89146],[25.971129,43.896064],[25.976192,43.899514],[25.97945,43.9047]]},"properties":{"line":"G1","dir":"1","mode":"bus"}},{"type":"Feature","geometry":{"type":"LineString","coordinates":[[25.973612,43.922298],[25.971889,43.911755],[25.971303,43.908555],[25.971433,43.906856],[25.969766,43.90215],[25.967961,43.898641],[25.96668,43.89146],[25.962163,43.886774],[25.959358,43.886337],[25.954255,43.886149],[25.948076,43.886238],[25.942212,43.883597],[25.937823,43.880433],[25.92712,43.883866]]},"properties":{"line":"G2","dir":"0","mode":"bus"}},{"type":"Feature","geometry":{"type":"LineString","coordinates":[[25.92712,43.883866],[25.937823,43.880433],[25.942212,43.883597],[25.948076,43.886238],[25.954255,43.886149],[25.959358,43.886337],[25.962163,43.886774],[25.96668,43.89146],[25.967961,43.898641],[25.969766,43.90215],[25.971433,43.906856],[25.971303,43.908555],[25.971889,43.911755],[25.973612,43.922298]]},"properties":{"line":"G2","dir":"1","mode":"bus"}},{"type":"Feature","geometry":{"type":"LineString","coordinates":[[25.97945,43.9047],[25.976192,43.899514],[25.971129,43.896064],[25.96668,43.89146],[25.961694,43.894004],[25.958816,43.895066],[25.957186,43.894829],[25.953555,43.894782],[25.94588,43.894646],[25.93156,43.89434]]},"properties":{"line":"G3","dir":"0","mode":"bus"}},{"type":"Feature","geometry":{"type":"LineString","coordinates":[[25.93156,43.89434],[25.94588,43.894646],[25.953555,43.894782],[25.957186,43.894829],[25.958816,43.895066],[25.961694,43.894004],[25.96668,43.89146],[25.971129,43.896064],[25.976192,43.899514],[25.97945,43.9047]]},"properties":{"line":"G3","dir":"1","mode":"bus"}},{"type":"Feature","geometry":{"type":"LineString","coordinates":[[25.950294,43.914651],[25.95356,43.89478],[25.9551,43.89167],[25.955219,43.891398],[25.96668,43.89146],[25.9712,43.89595],[25.976192,43.899514],[25.97945,43.9047],[25.977394,43.907376],[25.97273,43.90804],[25.971303,43.908555],[25.971889,43.911755],[25.969536,43.913651],[25.9669,43.91614]]},"properties":{"line":"G4","dir":"0","mode":"bus"}},{"type":"Feature","geometry":{"type":"LineString","coordinates":[[25.9669,43.91614],[25.969536,43.913651],[25.971889,43.911755],[25.971303,43.908555],[25.97273,43.90804],[25.977394,43.907376],[25.97945,43.9047],[25.976192,43.899514],[25.9712,43.89595],[25.96668,43.89146],[25.955219,43.891398],[25.9551,43.89167],[25.95356,43.89478],[25.950294,43.914651]]},"properties":{"line":"G4","dir":"1","mode":"bus"}},{"type":"Feature","geometry":{"type":"LineString","coordinates":[[25.95137,43.91228],[25.94071,43.90716],[25.95876,43.8953],[25.96668,43.89146],[25.9712,43.89595],[25.97619,43.89951],[25.97945,43.9047],[25.977394,43.907376],[25.97273,43.90804],[25.971303,43.908555],[25.971889,43.911755],[25.969536,43.913651]]},"properties":{"line":"G5","dir":"0","mode":"bus"}},{"type":"Feature","geometry":{"type":"LineString","coordinates":[[25.969536,43.913651],[25.971889,43.911755],[25.971303,43.908555],[25.97273,43.90804],[25.977394,43.907376],[25.97945,43.9047],[25.97619,43.89951],[25.9712,43.89595],[25.96668,43.89146],[25.95876,43.8953],[25.94071,43.90716],[25.95137,43.91228]]},"properties":{"line":"G5","dir":"1","mode":"bus"}},{"type":"Feature","geometry":{"type":"LineString","coordinates":[[25.98149,43.90254],[25.971129,43.896064],[25.96668,43.89146]]},"properties":{"line":"G6","dir":"0","mode":"bus"}},{"type":"Feature","geometry":{"type":"LineString","coordinates":[[25.96668,43.89146],[25.971129,43.896064],[25.98149,43.90254]]},"properties":{"line":"G6","dir":"1","mode":"bus"}},{"type":"Feature","geometry":{"type":"LineString","coordinates":[[25.98127,43.90778],[25.97945,43.9047],[25.976192,43.899514],[25.971129,43.896064],[25.96668,43.89146]]},"properties":{"line":"G7","dir":"0","mode":"bus"}},{"type":"Feature","geometry":{"type":"LineString","coordinates":[[25.96668,43.89146],[25.971129,43.896064],[25.976192,43.899514],[25.97945,43.9047],[25.98127,43.90778]]},"properties":{"line":"G7","dir":"1","mode":"bus"}},{"type":"Feature","geometry":{"type":"LineString","coordinates":[[25.990856,43.989677],[25.990856,43.989677],[25.989042,43.98851],[25.987448,43.987488],[25.98653,43.986893],[25.98583,43.986404],[25.985735,43.98632],[25.984781,43.985588],[25.983795,43.984715],[25.983246,43.984177],[25.982641,43.983524],[25.981901,43.982658],[25.981308,43.981853],[25.978851,43.978287],[25.977188,43.975945],[25.97559,43.973602],[25.974434,43.971962],[25.973169,43.970074],[25.972567,43.968929],[25.972101,43.967896],[25.971909,43.967373],[25.971687,43.966618],[25.971531,43.966038],[25.971462,43.965717],[25.971252,43.9646],[25.971184,43.964077],[25.971184,43.964077],[25.971035,43.963039],[25.970684,43.960804],[25.970274,43.957344],[25.970165,43.956738],[25.970133,43.956482],[25.970053,43.956039],[25.969025,43.949085],[25.968678,43.946663],[25.96813,43.942966],[25.967819,43.941105],[25.967485,43.938652],[25.967232,43.936985],[25.967026,43.935505],[25.966713,43.933395],[25.966568,43.93224],[25.96637,43.930981],[25.966173,43.92984],[25.966038,43.929008],[25.965796,43.927402],[25.965651,43.926571],[25.965437,43.925167],[25.965256,43.923874],[25.965256,43.923874],[25.963566,43.912037],[25.963409,43.910995],[25.963081,43.908916],[25.962822,43.906986],[25.962353,43.903931],[25.962172,43.902603],[25.962027,43.901398],[25.961596,43.898464],[25.961433,43.897503],[25.961321,43.896767],[25.961201,43.896111],[25.96113,43.895569],[25.96113,43.895569],[25.961201,43.896111],[25.961321,43.896767],[25.961433,43.897503],[25.961596,43.898464],[25.962027,43.901398],[25.962172,43.902603],[25.962353,43.903931],[25.962822,43.906986],[25.963081,43.908916],[25.963409,43.910995],[25.963566,43.912037],[25.965256,43.923874],[25.965256,43.923874],[25.964636,43.919567],[25.964642,43.919167],[25.964518,43.918179],[25.964449,43.917728],[25.964363,43.917076],[25.964296,43.916489],[25.964291,43.916241],[25.964315,43.91597],[25.964363,43.915699],[25.964483,43.915337],[25.964651,43.914986],[25.965277,43.914165],[25.965755,43.9137],[25.966368,43.913292],[25.966831,43.913063],[25.967518,43.912815],[25.968464,43.912601],[25.972929,43.911774],[25.973907,43.911575],[25.974852,43.911339],[25.975475,43.911114],[25.976089,43.91082],[25.977591,43.909958],[25.983408,43.906235],[25.99428,43.899342],[25.996187,43.898159],[25.996675,43.897816],[25.997232,43.897358],[25.998325,43.896301],[25.999308,43.895336],[26.000631,43.893993],[26.001413,43.893276],[26.006626,43.887974],[26.011778,43.882805],[26.013165,43.881512],[26.014442,43.880234],[26.017462,43.877296],[26.018017,43.876713],[26.018921,43.875809],[26.019136,43.875568],[26.019291,43.875385],[26.019577,43.874958],[26.019705,43.874729],[26.019978,43.874107],[26.020058,43.87381],[26.020119,43.873493],[26.020164,43.873119],[26.020191,43.872746],[26.020153,43.871677],[26.019938,43.867558],[26.019836,43.865097],[26.019623,43.860962],[26.019495,43.858124],[26.019426,43.857597],[26.019274,43.857136],[26.019173,43.856911],[26.019054,43.856701],[26.018927,43.856506],[26.018669,43.856194],[26.018452,43.855968],[26.018234,43.855774],[26.017996,43.855595],[26.017845,43.855492],[26.017538,43.855309],[26.017326,43.855198],[26.016815,43.854973],[26.016508,43.854866],[26.016174,43.854771],[26.015799,43.854687],[26.015486,43.854633],[26.015182,43.854603],[26.014864,43.854576],[26.014528,43.854568],[26.01429,43.854572],[26.013512,43.854614],[26.010408,43.854828],[26.008913,43.854977],[26.008085,43.855083],[26.00769,43.855152],[26.007391,43.855217],[26.006647,43.855408],[25.997644,43.858036],[25.997644,43.858036],[25.991577,43.859814],[25.991041,43.859962],[25.990704,43.860046],[25.990356,43.860115],[25.990047,43.860157],[25.989737,43.860184],[25.989429,43.860191],[25.989117,43.860191],[25.98881,43.860176],[25.988501,43.860146],[25.988197,43.860092],[25.9879,43.860031],[25.987608,43.859959],[25.987326,43.859867],[25.987045,43.859764],[25.986778,43.85965],[25.986519,43.859528],[25.980627,43.856644],[25.980341,43.856491],[25.979866,43.856205],[25.979589,43.856022],[25.979193,43.855736],[25.978983,43.855572],[25.978416,43.855068],[25.977573,43.854275],[25.976908,43.853672],[25.976376,43.853176],[25.975986,43.852848],[25.975599,43.852539],[25.973202,43.850853],[25.969851,43.848537],[25.969439,43.848232],[25.969244,43.848076],[25.96908,43.847923],[25.968779,43.847622],[25.968605,43.847424],[25.968508,43.847298],[25.96833,43.847046],[25.968067,43.846611],[25.966347,43.843616],[25.966164,43.843315],[25.965992,43.84306],[25.96563,43.842552],[25.962355,43.838123],[25.961535,43.837002],[25.96133,43.836746],[25.961159,43.836555],[25.960804,43.836193],[25.959944,43.835411],[25.959553,43.835068],[25.959295,43.834858],[25.958929,43.834599],[25.958534,43.834366],[25.956306,43.83316]]},"properties":{"line":"train","dir":"0","mode":"tram"}},{"type":"Feature","geometry":{"type":"LineString","coordinates":[[25.956306,43.83316],[25.958534,43.834366],[25.958929,43.834599],[25.959295,43.834858],[25.959553,43.835068],[25.959944,43.835411],[25.960804,43.836193],[25.961159,43.836555],[25.96133,43.836746],[25.961535,43.837002],[25.962355,43.838123],[25.96563,43.842552],[25.965992,43.84306],[25.966164,43.843315],[25.966347,43.843616],[25.968067,43.846611],[25.96833,43.847046],[25.968508,43.847298],[25.968605,43.847424],[25.968779,43.847622],[25.96908,43.847923],[25.969244,43.848076],[25.969439,43.848232],[25.969851,43.848537],[25.973202,43.850853],[25.975599,43.852539],[25.975986,43.852848],[25.976376,43.853176],[25.976908,43.853672],[25.977573,43.854275],[25.978416,43.855068],[25.978983,43.855572],[25.979193,43.855736],[25.979589,43.856022],[25.979866,43.856205],[25.980341,43.856491],[25.980627,43.856644],[25.986519,43.859528],[25.986778,43.85965],[25.987045,43.859764],[25.987326,43.859867],[25.987608,43.859959],[25.9879,43.860031],[25.988197,43.860092],[25.988501,43.860146],[25.98881,43.860176],[25.989117,43.860191],[25.989429,43.860191],[25.989737,43.860184],[25.990047,43.860157],[25.990356,43.860115],[25.990704,43.860046],[25.991041,43.859962],[25.991577,43.859814],[25.997644,43.858036],[25.997644,43.858036],[26.006647,43.855408],[26.007391,43.855217],[26.00769,43.855152],[26.008085,43.855083],[26.008913,43.854977],[26.010408,43.854828],[26.013512,43.854614],[26.01429,43.854572],[26.014528,43.854568],[26.014864,43.854576],[26.015182,43.854603],[26.015486,43.854633],[26.015799,43.854687],[26.016174,43.854771],[26.016508,43.854866],[26.016815,43.854973],[26.017326,43.855198],[26.017538,43.855309],[26.017845,43.855492],[26.017996,43.855595],[26.018234,43.855774],[26.018452,43.855968],[26.018669,43.856194],[26.018927,43.856506],[26.019054,43.856701],[26.019173,43.856911],[26.019274,43.857136],[26.019426,43.857597],[26.019495,43.858124],[26.019623,43.860962],[26.019836,43.865097],[26.019938,43.867558],[26.020153,43.871677],[26.020191,43.872746],[26.020164,43.873119],[26.020119,43.873493],[26.020058,43.87381],[26.019978,43.874107],[26.019705,43.874729],[26.019577,43.874958],[26.019291,43.875385],[26.019136,43.875568],[26.018921,43.875809],[26.018017,43.876713],[26.017462,43.877296],[26.014442,43.880234],[26.013165,43.881512],[26.011778,43.882805],[26.006626,43.887974],[26.001413,43.893276],[26.000631,43.893993],[25.999308,43.895336],[25.998325,43.896301],[25.997232,43.897358],[25.996675,43.897816],[25.996187,43.898159],[25.99428,43.899342],[25.983408,43.906235],[25.977591,43.909958],[25.976089,43.91082],[25.975475,43.911114],[25.974852,43.911339],[25.973907,43.911575],[25.972929,43.911774],[25.968464,43.912601],[25.967518,43.912815],[25.966831,43.913063],[25.966368,43.913292],[25.965755,43.9137],[25.965277,43.914165],[25.964651,43.914986],[25.964483,43.915337],[25.964363,43.915699],[25.964315,43.91597],[25.964291,43.916241],[25.964296,43.916489],[25.964363,43.917076],[25.964449,43.917728],[25.964518,43.918179],[25.964642,43.919167],[25.964636,43.919567],[25.965256,43.923874],[25.965256,43.923874],[25.963566,43.912037],[25.963409,43.910995],[25.963081,43.908916],[25.962822,43.906986],[25.962353,43.903931],[25.962172,43.902603],[25.962027,43.901398],[25.961596,43.898464],[25.961433,43.897503],[25.961321,43.896767],[25.961201,43.896111],[25.96113,43.895569],[25.96113,43.895569],[25.961201,43.896111],[25.961321,43.896767],[25.961433,43.897503],[25.961596,43.898464],[25.962027,43.901398],[25.962172,43.902603],[25.962353,43.903931],[25.962822,43.906986],[25.963081,43.908916],[25.963409,43.910995],[25.963566,43.912037],[25.965256,43.923874],[25.965256,43.923874],[25.965437,43.925167],[25.965651,43.926571],[25.965796,43.927402],[25.966038,43.929008],[25.966173,43.92984],[25.96637,43.930981],[25.966568,43.93224],[25.966713,43.933395],[25.967026,43.935505],[25.967232,43.936985],[25.967485,43.938652],[25.967819,43.941105],[25.96813,43.942966],[25.968678,43.946663],[25.969025,43.949085],[25.970053,43.956039],[25.970133,43.956482],[25.970165,43.956738],[25.970274,43.957344],[25.970684,43.960804],[25.971035,43.963039],[25.971184,43.964077],[25.971184,43.964077],[25.971252,43.9646],[25.971462,43.965717],[25.971531,43.966038],[25.971687,43.966618],[25.971909,43.967373],[25.972101,43.967896],[25.972567,43.968929],[25.973169,43.970074],[25.974434,43.971962],[25.97559,43.973602],[25.977188,43.975945],[25.978851,43.978287],[25.981308,43.981853],[25.981901,43.982658],[25.982641,43.983524],[25.983246,43.984177],[25.983795,43.984715],[25.984781,43.985588],[25.985735,43.98632],[25.98583,43.986404],[25.98653,43.986893],[25.987448,43.987488],[25.989042,43.98851],[25.990856,43.989677]]},"properties":{"line":"train","dir":"1","mode":"tram"}}]}