{"type":"FeatureCollection","features":[{"type":"Feature","properties":{"mode":"bus","n":7,"arr":["А3","А4","А10","А30","Т9","Т21","Т29"],"lines":"3, 4, 10, 30, 9, 21, 29"},"geometry":{"type":"LineString","coordinates":[[25.974922,43.833203],[25.974938,43.833297]]}},{"type":"Feature","properties":{"mode":"bus","n":7,"arr":["А3","А4","А10","А30","Т9","Т21","Т29"],"lines":"3, 4, 10, 30, 9, 21, 29"},"geometry":{"type":"LineString","coordinates":[[25.975017,43.833338],[25.975083,43.83334],[25.975166,43.833303],[25.975197,43.833234],[25.975174,43.833183]]}},{"type":"Feature","properties":{"mode":"bus","n":6,"arr":["А4","А10","А30","Т9","Т21","Т29"],"lines":"4, 10, 30, 9, 21, 29"},"geometry":{"type":"LineString","coordinates":[[25.974973,43.833155],[25.97506,43.833144],[25.975092,43.833145],[25.975122,43.833155],[25.975174,43.833183]]}},{"type":"Feature","properties":{"mode":"bus","n":5,"arr":["А3","А4","Т9","Т21","Т29"],"lines":"3, 4, 9, 21, 29"},"geometry":{"type":"LineString","coordinates":[[25.974938,43.833297],[25.975017,43.833338]]}},{"type":"Feature","properties":{"mode":"bus","n":6,"arr":["А4","А16","А18","А19","А20","А30"],"lines":"4, 16, 18, 19, 20, 30"},"geometry":{"type":"LineString","coordinates":[[25.979189,43.850445],[25.978642,43.853145],[25.978483,43.853707],[25.978352,43.853968],[25.976591,43.855912],[25.975066,43.857311],[25.973814,43.858652]]}},{"type":"Feature","properties":{"mode":"bus","n":6,"arr":["А4","А16","А18","А19","А20","А30"],"lines":"4, 16, 18, 19, 20, 30"},"geometry":{"type":"LineString","coordinates":[[25.979299,43.850597],[25.978919,43.852366],[25.978929,43.85277],[25.978981,43.8529],[25.979204,43.853129],[25.979236,43.85319],[25.979223,43.853318],[25.979179,43.853375],[25.978999,43.853459],[25.978813,43.853618],[25.976268,43.856402],[25.975592,43.856956],[25.9739,43.85869]]}},{"type":"Feature","properties":{"mode":"bus","n":9,"arr":["А8","А10","А15","А28","А33","Т13","Т21","Т27","Т29"],"lines":"8, 10, 15, 28, 33, 13, 21, 27, 29"},"geometry":{"type":"LineString","coordinates":[[25.959738,43.846072],[25.95972,43.845907],[25.959786,43.845778]]}},{"type":"Feature","properties":{"mode":"bus","n":9,"arr":["А8","А10","А15","А28","А33","Т13","Т21","Т27","Т29"],"lines":"8, 10, 15, 28, 33, 13, 21, 27, 29"},"geometry":{"type":"LineString","coordinates":[[25.959994,43.845649],[25.960074,43.845559],[25.960107,43.845418]]}},{"type":"Feature","properties":{"mode":"bus","n":9,"arr":["А8","А10","А15","А28","А33","Т13","Т21","Т27","Т29"],"lines":"8, 10, 15, 28, 33, 13, 21, 27, 29"},"geometry":{"type":"LineString","coordinates":[[25.960526,43.845718],[25.960494,43.84552],[25.960543,43.844953],[25.960625,43.841742]]}},{"type":"Feature","properties":{"mode":"bus","n":19,"arr":["А5","А6","А8","А10","А11","А12","А15","А16","А18","А19","А20","А28","А33","А50","Т2","Т13","Т21","Т27","Т29"],"lines":"5, 6, 8, 10, 11, 12, 15, 16, 18, 19, 20, 28, 33, 50, 2, 13, 21, 27, 29"},"geometry":{"type":"LineString","coordinates":[[25.959994,43.845649],[25.959894,43.845693],[25.959786,43.845778]]}},{"type":"Feature","properties":{"mode":"bus","n":19,"arr":["А5","А6","А8","А10","А11","А12","А15","А16","А18","А19","А20","А28","А33","А50","Т2","Т13","Т21","Т27","Т29"],"lines":"5, 6, 8, 10, 11, 12, 15, 16, 18, 19, 20, 28, 33, 50, 2, 13, 21, 27, 29"},"geometry":{"type":"LineString","coordinates":[[25.960646,43.84586],[25.960526,43.845718]]}},{"type":"Feature","properties":{"mode":"bus","n":19,"arr":["А5","А6","А8","А10","А11","А12","А15","А16","А18","А19","А20","А28","А33","А50","Т2","Т13","Т21","Т27","Т29"],"lines":"5, 6, 8, 10, 11, 12, 15, 16, 18, 19, 20, 28, 33, 50, 2, 13, 21, 27, 29"},"geometry":{"type":"LineString","coordinates":[[25.960613,43.846122],[25.960444,43.846254]]}},{"type":"Feature","properties":{"mode":"bus","n":10,"arr":["А5","А6","А11","А12","А16","А18","А19","А20","А50","Т2"],"lines":"5, 6, 11, 12, 16, 18, 19, 20, 50, 2"},"geometry":{"type":"LineString","coordinates":[[25.960526,43.845718],[25.960367,43.845643],[25.960275,43.845624],[25.960085,43.845627],[25.959994,43.845649]]}},{"type":"Feature","properties":{"mode":"bus","n":10,"arr":["А5","А6","А11","А12","А16","А18","А19","А20","А50","Т2"],"lines":"5, 6, 11, 12, 16, 18, 19, 20, 50, 2"},"geometry":{"type":"LineString","coordinates":[[25.959786,43.845778],[25.959627,43.845805],[25.959312,43.845757]]}},{"type":"Feature","properties":{"mode":"bus","n":11,"arr":["А6","А8","А10","А11","А16","А18","А19","А20","А28","Т27","Т29"],"lines":"6, 8, 10, 11, 16, 18, 19, 20, 28, 27, 29"},"geometry":{"type":"LineString","coordinates":[[25.960613,43.846122],[25.960656,43.846038],[25.960646,43.84586]]}},{"type":"Feature","properties":{"mode":"bus","n":11,"arr":["А6","А8","А10","А11","А16","А18","А19","А20","А28","Т27","Т29"],"lines":"6, 8, 10, 11, 16, 18, 19, 20, 28, 27, 29"},"geometry":{"type":"LineString","coordinates":[[25.960444,43.846254],[25.959905,43.847996],[25.95965,43.848702],[25.95865,43.850223]]}},{"type":"Feature","properties":{"mode":"bus","n":8,"arr":["А5","А12","А15","А33","А50","Т2","Т13","Т21"],"lines":"5, 12, 15, 33, 50, 2, 13, 21"},"geometry":{"type":"LineString","coordinates":[[25.960444,43.846254],[25.960226,43.846305],[25.96011,43.846301],[25.959899,43.846235]]}},{"type":"Feature","properties":{"mode":"bus","n":8,"arr":["А5","А12","А15","А33","А50","Т2","Т13","Т21"],"lines":"5, 12, 15, 33, 50, 2, 13, 21"},"geometry":{"type":"LineString","coordinates":[[25.979189,43.850445],[25.97897,43.850449],[25.977245,43.850216],[25.976826,43.850158],[25.976518,43.850082],[25.973184,43.848956],[25.971538,43.848423],[25.967295,43.84733],[25.966479,43.847056],[25.965078,43.846631],[25.964473,43.846524],[25.96291,43.846368],[25.961686,43.846157],[25.960932,43.84602],[25.960752,43.845952],[25.960646,43.84586]]}},{"type":"Feature","properties":{"mode":"bus","n":8,"arr":["А5","А12","А15","А33","А50","Т2","Т13","Т21"],"lines":"5, 12, 15, 33, 50, 2, 13, 21"},"geometry":{"type":"LineString","coordinates":[[25.979299,43.850597],[25.976673,43.850251],[25.975412,43.849845],[25.974795,43.849603],[25.973137,43.849012],[25.97143,43.848478],[25.96746,43.847443],[25.96627,43.847108],[25.96513,43.846743],[25.964245,43.846584],[25.962525,43.846406],[25.960867,43.846109],[25.960716,43.846102],[25.960613,43.846122]]}},{"type":"Feature","properties":{"mode":"bus","n":19,"arr":["А5","А6","А8","А10","А11","А12","А15","А16","А18","А20","А23","А28","А33","А50","Т2","Т13","Т21","Т27","Т29"],"lines":"5, 6, 8, 10, 11, 12, 15, 16, 18, 20, 23, 28, 33, 50, 2, 13, 21, 27, 29"},"geometry":{"type":"LineString","coordinates":[[25.959899,43.846235],[25.959802,43.846162],[25.959738,43.846072]]}},{"type":"Feature","properties":{"mode":"bus","n":6,"arr":["G1","G3","G4","G5","G6","G7"],"lines":"1, 3, 4, 5, 6, 7"},"geometry":{"type":"LineString","coordinates":[[25.975465,43.898978],[25.975403,43.898962],[25.975384,43.898955],[25.975371,43.898944],[25.975366,43.898928],[25.975357,43.898866],[25.975239,43.898732]]}},{"type":"Feature","properties":{"mode":"bus","n":6,"arr":["G1","G3","G4","G5","G6","G7"],"lines":"1, 3, 4, 5, 6, 7"},"geometry":{"type":"LineString","coordinates":[[25.971521,43.896538],[25.971452,43.896526],[25.97143,43.896518],[25.971414,43.896505],[25.97139,43.896474],[25.971405,43.89642],[25.971465,43.896387],[25.971511,43.896388],[25.971533,43.896391],[25.971552,43.896401],[25.971579,43.896423],[25.971595,43.896442],[25.971596,43.896465],[25.97159,43.89649],[25.971581,43.896507],[25.971563,43.896519],[25.971521,43.896538]]}},{"type":"Feature","properties":{"mode":"bus","n":6,"arr":["G1","G3","G4","G5","G6","G7"],"lines":"1, 3, 4, 5, 6, 7"},"geometry":{"type":"LineString","coordinates":[[25.971586,43.896509],[25.972017,43.896875],[25.975239,43.898732],[25.975516,43.89885]]}},{"type":"Feature","properties":{"mode":"bus","n":6,"arr":["G1","G3","G4","G5","G6","G7"],"lines":"1, 3, 4, 5, 6, 7"},"geometry":{"type":"LineString","coordinates":[[25.975544,43.89893],[25.97554,43.898938]]}},{"type":"Feature","properties":{"mode":"bus","n":6,"arr":["G1","G3","G4","G5","G6","G7"],"lines":"1, 3, 4, 5, 6, 7"},"geometry":{"type":"LineString","coordinates":[[25.966735,43.891431],[25.968378,43.892591],[25.968624,43.892793],[25.96875,43.892936],[25.969606,43.894241],[25.971123,43.895964],[25.971465,43.896387]]}},{"type":"Feature","properties":{"mode":"bus","n":5,"arr":["G1","G3","G4","G5","G7"],"lines":"1, 3, 4, 5, 7"},"geometry":{"type":"LineString","coordinates":[[25.975516,43.89885],[25.975544,43.89893]]}},{"type":"Feature","properties":{"mode":"bus","n":5,"arr":["G1","G3","G4","G5","G7"],"lines":"1, 3, 4, 5, 7"},"geometry":{"type":"LineString","coordinates":[[25.979512,43.904684],[25.976986,43.900445],[25.97688,43.900314],[25.975639,43.899086]]}},{"type":"Feature","properties":{"mode":"bus","n":5,"arr":["G1","G3","G4","G5","G7"],"lines":"1, 3, 4, 5, 7"},"geometry":{"type":"LineString","coordinates":[[25.97554,43.898938],[25.975617,43.899054],[25.975623,43.899063],[25.975625,43.899069],[25.975624,43.899072],[25.97562,43.899072],[25.975612,43.899069],[25.975601,43.899063],[25.975465,43.898978]]}},{"type":"Feature","properties":{"mode":"bus","n":6,"arr":["А3","А4","А30","Т9","Т21","Т29"],"lines":"3, 4, 30, 9, 21, 29"},"geometry":{"type":"LineString","coordinates":[[25.975174,43.833183],[25.97572,43.832759],[25.976293,43.832425],[25.976507,43.832339],[25.977112,43.832194]]}},{"type":"Feature","properties":{"mode":"bus","n":6,"arr":["А3","А4","А10","Т9","Т21","Т29"],"lines":"3, 4, 10, 9, 21, 29"},"geometry":{"type":"LineString","coordinates":[[25.972117,43.831383],[25.973123,43.832223],[25.973916,43.832695],[25.974402,43.832948],[25.974754,43.833101],[25.974922,43.833203]]}},{"type":"Feature","properties":{"mode":"bus","n":12,"arr":["А3","А4","А8","А10","А23","А28","Т9","Т13","Т21","Т24","Т27","Т29"],"lines":"3, 4, 8, 10, 23, 28, 9, 13, 21, 24, 27, 29"},"geometry":{"type":"LineString","coordinates":[[25.971988,43.83127],[25.972117,43.831383]]}},{"type":"Feature","properties":{"mode":"bus","n":8,"arr":["А3","А4","А8","А23","А28","Т13","Т24","Т27"],"lines":"3, 4, 8, 23, 28, 13, 24, 27"},"geometry":{"type":"LineString","coordinates":[[25.969876,43.829682],[25.970598,43.830108],[25.970995,43.83039],[25.971988,43.83127]]}},{"type":"Feature","properties":{"mode":"bus","n":5,"arr":["А4","А18","А23","А28","Т27"],"lines":"4, 18, 23, 28, 27"},"geometry":{"type":"LineString","coordinates":[[25.967167,43.824706],[25.968473,43.823567],[25.969952,43.822137],[25.971671,43.820551],[25.971694,43.820537],[25.97172,43.82053],[25.97175,43.820532],[25.971956,43.820569],[25.972157,43.820641],[25.973569,43.821442],[25.974048,43.821687],[25.97425,43.821807],[25.97444,43.821981],[25.974454,43.822],[25.974455,43.822019],[25.974443,43.822039],[25.973397,43.823125],[25.973388,43.82314],[25.973386,43.823153],[25.973394,43.823165],[25.97341,43.823175],[25.974274,43.823608]]}},{"type":"Feature","properties":{"mode":"bus","n":11,"arr":["А8","А10","А23","А28","А33","Т9","Т13","Т21","Т24","Т27","Т29"],"lines":"8, 10, 23, 28, 33, 9, 13, 21, 24, 27, 29"},"geometry":{"type":"LineString","coordinates":[[25.967809,43.834252],[25.967482,43.834451],[25.965831,43.83557]]}},{"type":"Feature","properties":{"mode":"bus","n":11,"arr":["А8","А10","А23","А28","А33","Т9","Т13","Т21","Т24","Т27","Т29"],"lines":"8, 10, 23, 28, 33, 9, 13, 21, 24, 27, 29"},"geometry":{"type":"LineString","coordinates":[[25.972117,43.831383],[25.970458,43.832427],[25.969499,43.833091]]}},{"type":"Feature","properties":{"mode":"bus","n":11,"arr":["А8","А10","А23","А28","А33","Т9","Т13","Т21","Т24","Т27","Т29"],"lines":"8, 10, 23, 28, 33, 9, 13, 21, 24, 27, 29"},"geometry":{"type":"LineString","coordinates":[[25.96551,43.835772],[25.962533,43.837779],[25.960754,43.839125],[25.960535,43.839331]]}},{"type":"Feature","properties":{"mode":"bus","n":14,"arr":["А3","А8","А10","А11","А18","А23","А28","А33","Т9","Т13","Т21","Т24","Т27","Т29"],"lines":"3, 8, 10, 11, 18, 23, 28, 33, 9, 13, 21, 24, 27, 29"},"geometry":{"type":"LineString","coordinates":[[25.965831,43.83557],[25.96551,43.835772]]}},{"type":"Feature","properties":{"mode":"bus","n":5,"arr":["А3","А5","А11","А15","А18"],"lines":"3, 5, 11, 15, 18"},"geometry":{"type":"LineString","coordinates":[[25.951154,43.831863],[25.953289,43.832716],[25.954279,43.833209],[25.955232,43.833748]]}},{"type":"Feature","properties":{"mode":"bus","n":11,"arr":["А3","А5","А6","А8","А16","А18","А19","А50","Т2","Т9","Т24"],"lines":"3, 5, 6, 8, 16, 18, 19, 50, 2, 9, 24"},"geometry":{"type":"LineString","coordinates":[[25.951452,43.837352],[25.950815,43.83799]]}},{"type":"Feature","properties":{"mode":"bus","n":12,"arr":["А3","А5","А6","А8","А16","А18","А19","А20","А50","Т2","Т9","Т24"],"lines":"3, 5, 6, 8, 16, 18, 19, 20, 50, 2, 9, 24"},"geometry":{"type":"LineString","coordinates":[[25.950815,43.83799],[25.950334,43.838424]]}},{"type":"Feature","properties":{"mode":"bus","n":9,"arr":["А5","А6","А16","А19","А20","А50","Т2","Т9","Т24"],"lines":"5, 6, 16, 19, 20, 50, 2, 9, 24"},"geometry":{"type":"LineString","coordinates":[[25.948344,43.840257],[25.948343,43.840175],[25.949097,43.837895]]}},{"type":"Feature","properties":{"mode":"bus","n":9,"arr":["А5","А6","А16","А19","А20","А50","Т2","Т9","Т24"],"lines":"5, 6, 16, 19, 20, 50, 2, 9, 24"},"geometry":{"type":"LineString","coordinates":[[25.950334,43.838424],[25.949427,43.839232],[25.948743,43.839938],[25.948438,43.840213],[25.948344,43.840257],[25.947956,43.840711],[25.947801,43.841841]]}},{"type":"Feature","properties":{"mode":"bus","n":9,"arr":["А5","А6","А16","А19","А20","А50","Т2","Т9","Т24"],"lines":"5, 6, 16, 19, 20, 50, 2, 9, 24"},"geometry":{"type":"LineString","coordinates":[[25.954078,43.844818],[25.953356,43.84477],[25.953017,43.844701],[25.952179,43.84438],[25.951826,43.844206],[25.951729,43.84406],[25.951347,43.843841],[25.950783,43.843624],[25.950616,43.84361],[25.949313,43.842983],[25.94885,43.842702],[25.947834,43.841868],[25.947822,43.84186],[25.947814,43.841856],[25.947809,43.841858],[25.947807,43.841865],[25.947809,43.841877],[25.947836,43.842003]]}},{"type":"Feature","properties":{"mode":"bus","n":11,"arr":["А3","А5","А6","А8","А16","А19","А20","А50","Т2","Т9","Т24"],"lines":"3, 5, 6, 8, 16, 19, 20, 50, 2, 9, 24"},"geometry":{"type":"LineString","coordinates":[[25.949097,43.837895],[25.949148,43.837695]]}},{"type":"Feature","properties":{"mode":"bus","n":10,"arr":["А3","А5","А6","А8","А16","А19","А50","Т2","Т9","Т24"],"lines":"3, 5, 6, 8, 16, 19, 50, 2, 9, 24"},"geometry":{"type":"LineString","coordinates":[[25.949148,43.837695],[25.949282,43.837185]]}},{"type":"Feature","properties":{"mode":"bus","n":9,"arr":["А3","А6","А8","А16","А19","А50","Т2","Т9","Т24"],"lines":"3, 6, 8, 16, 19, 50, 2, 9, 24"},"geometry":{"type":"LineString","coordinates":[[25.949282,43.837185],[25.949246,43.837047],[25.949182,43.836959],[25.949,43.83688],[25.948049,43.836786],[25.947337,43.8366],[25.947018,43.836485]]}},{"type":"Feature","properties":{"mode":"bus","n":8,"arr":["А6","А8","А16","А19","А50","Т2","Т9","Т24"],"lines":"6, 8, 16, 19, 50, 2, 9, 24"},"geometry":{"type":"LineString","coordinates":[[25.949,43.83688],[25.949366,43.836917],[25.951241,43.837217],[25.951359,43.837241],[25.951424,43.837283],[25.951452,43.837352]]}},{"type":"Feature","properties":{"mode":"bus","n":7,"arr":["А3","А6","А16","А19","Т2","Т9","Т24"],"lines":"3, 6, 16, 19, 2, 9, 24"},"geometry":{"type":"LineString","coordinates":[[25.947018,43.836485],[25.943692,43.835205],[25.943216,43.834996],[25.941994,43.834069],[25.940294,43.832621],[25.939614,43.832002],[25.939011,43.831264],[25.937296,43.828844],[25.936636,43.828243],[25.936402,43.827985],[25.935963,43.827322],[25.935441,43.826289],[25.932441,43.822087]]}},{"type":"Feature","properties":{"mode":"bus","n":6,"arr":["А4","А23","А28","Т13","Т24","Т27"],"lines":"4, 23, 28, 13, 24, 27"},"geometry":{"type":"LineString","coordinates":[[25.970855,43.825812],[25.968792,43.825349],[25.968379,43.825228],[25.968102,43.825112]]}},{"type":"Feature","properties":{"mode":"bus","n":7,"arr":["А4","А8","А23","А28","Т13","Т24","Т27"],"lines":"4, 8, 23, 28, 13, 24, 27"},"geometry":{"type":"LineString","coordinates":[[25.969876,43.829682],[25.971858,43.827894],[25.972006,43.827601],[25.972047,43.827458],[25.972019,43.827098],[25.971837,43.826317],[25.971772,43.826199],[25.971661,43.826086],[25.971407,43.825934],[25.971218,43.825876],[25.970855,43.825812]]}},{"type":"Feature","properties":{"mode":"bus","n":5,"arr":["А4","А10","Т9","Т21","Т29"],"lines":"4, 10, 9, 21, 29"},"geometry":{"type":"LineString","coordinates":[[25.974973,43.833155],[25.974754,43.833101]]}},{"type":"Feature","properties":{"mode":"bus","n":5,"arr":["А4","А11","А28","Т27","Т29"],"lines":"4, 11, 28, 27, 29"},"geometry":{"type":"LineString","coordinates":[[25.9739,43.85869],[25.976771,43.860124],[25.979697,43.861537],[25.979946,43.861691],[25.980475,43.862093],[25.980878,43.862445],[25.981816,43.863339],[25.982172,43.863629],[25.982513,43.863839],[25.985882,43.865653],[25.987595,43.866507],[25.990054,43.867474],[25.99222,43.868379]]}},{"type":"Feature","properties":{"mode":"bus","n":5,"arr":["А4","А11","А28","Т27","Т29"],"lines":"4, 11, 28, 27, 29"},"geometry":{"type":"LineString","coordinates":[[25.973175,43.859436],[25.97984,43.862661],[25.980087,43.862691],[25.980772,43.862668],[25.980993,43.862745],[25.981101,43.862818],[25.981739,43.863409],[25.982066,43.86368],[25.982299,43.863839],[25.985778,43.865752],[25.98702,43.866401],[25.988026,43.866832],[25.992137,43.868487]]}},{"type":"Feature","properties":{"mode":"bus","n":10,"arr":["А4","А11","А16","А18","А19","А20","А28","А30","Т27","Т29"],"lines":"4, 11, 16, 18, 19, 20, 28, 30, 27, 29"},"geometry":{"type":"LineString","coordinates":[[25.973094,43.859395],[25.973175,43.859436]]}},{"type":"Feature","properties":{"mode":"bus","n":12,"arr":["А5","А6","А11","А12","А16","А18","А19","А20","А50","Т2","Т9","Т24"],"lines":"5, 6, 11, 12, 16, 18, 19, 20, 50, 2, 9, 24"},"geometry":{"type":"LineString","coordinates":[[25.959312,43.845757],[25.958899,43.845666],[25.958404,43.845594],[25.958029,43.845503],[25.956781,43.845051],[25.956458,43.84495],[25.956091,43.844871],[25.955691,43.844822],[25.954804,43.844846],[25.954078,43.844818]]}},{"type":"Feature","properties":{"mode":"bus","n":12,"arr":["А5","А12","А15","А16","А18","А20","А30","А33","А50","Т2","Т13","Т21"],"lines":"5, 12, 15, 16, 18, 20, 30, 33, 50, 2, 13, 21"},"geometry":{"type":"LineString","coordinates":[[25.982132,43.850824],[25.979189,43.850445]]}},{"type":"Feature","properties":{"mode":"bus","n":10,"arr":["А5","А12","А15","А16","А18","А33","А50","Т2","Т13","Т21"],"lines":"5, 12, 15, 16, 18, 33, 50, 2, 13, 21"},"geometry":{"type":"LineString","coordinates":[[25.991309,43.852136],[25.985232,43.85136]]}},{"type":"Feature","properties":{"mode":"bus","n":11,"arr":["А5","А12","А15","А16","А18","А20","А33","А50","Т2","Т13","Т21"],"lines":"5, 12, 15, 16, 18, 20, 33, 50, 2, 13, 21"},"geometry":{"type":"LineString","coordinates":[[25.985232,43.85136],[25.979299,43.850597]]}},{"type":"Feature","properties":{"mode":"bus","n":10,"arr":["А5","А6","А11","А12","А16","А18","А20","А23","А50","Т2"],"lines":"5, 6, 11, 12, 16, 18, 20, 23, 50, 2"},"geometry":{"type":"LineString","coordinates":[[25.959738,43.846072],[25.959578,43.845934],[25.959472,43.845897],[25.957988,43.845561],[25.95658,43.845062],[25.956139,43.844949],[25.95568,43.844886],[25.954803,43.844909],[25.954066,43.844884]]}},{"type":"Feature","properties":{"mode":"bus","n":8,"arr":["А5","А6","А16","А20","А50","Т2","Т9","Т24"],"lines":"5, 6, 16, 20, 50, 2, 9, 24"},"geometry":{"type":"LineString","coordinates":[[25.947836,43.842003],[25.948491,43.842568],[25.949079,43.842972],[25.949375,43.843128],[25.95054,43.84364],[25.952134,43.844428],[25.952984,43.844767],[25.953346,43.84484],[25.954066,43.844884]]}},{"type":"Feature","properties":{"mode":"bus","n":5,"arr":["А5","А11","А15","А18","А23"],"lines":"5, 11, 15, 18, 23"},"geometry":{"type":"LineString","coordinates":[[25.950401,43.831751],[25.950417,43.831659]]}},{"type":"Feature","properties":{"mode":"bus","n":13,"arr":["А6","А8","А10","А11","А16","А18","А19","А20","А23","А28","А30","Т27","Т29"],"lines":"6, 8, 10, 11, 16, 18, 19, 20, 23, 28, 30, 27, 29"},"geometry":{"type":"LineString","coordinates":[[25.962837,43.855304],[25.96163,43.853737],[25.961181,43.853051],[25.959648,43.850897],[25.959142,43.850437],[25.958958,43.850323],[25.95865,43.850223]]}},{"type":"Feature","properties":{"mode":"bus","n":12,"arr":["А6","А8","А10","А11","А16","А18","А19","А20","А23","А28","Т27","Т29"],"lines":"6, 8, 10, 11, 16, 18, 19, 20, 23, 28, 27, 29"},"geometry":{"type":"LineString","coordinates":[[25.95865,43.850223],[25.958307,43.85013],[25.958288,43.850122],[25.958277,43.850112],[25.958276,43.8501],[25.958283,43.850085],[25.959083,43.848982],[25.959309,43.848622],[25.959473,43.848141],[25.95977,43.847045]]}},{"type":"Feature","properties":{"mode":"bus","n":11,"arr":["А6","А8","А10","А11","А16","А18","А20","А23","А28","Т27","Т29"],"lines":"6, 8, 10, 11, 16, 18, 20, 23, 28, 27, 29"},"geometry":{"type":"LineString","coordinates":[[25.95977,43.847045],[25.959931,43.846502],[25.959931,43.846307],[25.959899,43.846235]]}},{"type":"Feature","properties":{"mode":"bus","n":6,"arr":["А6","А16","А19","Т2","Т9","Т24"],"lines":"6, 16, 19, 2, 9, 24"},"geometry":{"type":"LineString","coordinates":[[25.935441,43.826289],[25.93643,43.827236],[25.936952,43.828013],[25.937296,43.828844]]}},{"type":"Feature","properties":{"mode":"bus","n":12,"arr":["А6","А8","А10","А11","А16","А18","А19","А20","А28","А30","Т27","Т29"],"lines":"6, 8, 10, 11, 16, 18, 19, 20, 28, 30, 27, 29"},"geometry":{"type":"LineString","coordinates":[[25.962099,43.853704],[25.961181,43.853051]]}},{"type":"Feature","properties":{"mode":"bus","n":12,"arr":["А6","А8","А10","А11","А16","А18","А19","А20","А28","А30","Т27","Т29"],"lines":"6, 8, 10, 11, 16, 18, 19, 20, 28, 30, 27, 29"},"geometry":{"type":"LineString","coordinates":[[25.963185,43.855265],[25.962969,43.855338],[25.962837,43.855304]]}},{"type":"Feature","properties":{"mode":"bus","n":9,"arr":["А11","А16","А18","А19","А20","А28","А30","Т27","Т29"],"lines":"11, 16, 18, 19, 20, 28, 30, 27, 29"},"geometry":{"type":"LineString","coordinates":[[25.973094,43.859395],[25.971815,43.858752],[25.965961,43.855961],[25.964123,43.85506],[25.96397,43.855028],[25.963784,43.855046],[25.963185,43.855265]]}},{"type":"Feature","properties":{"mode":"bus","n":9,"arr":["А11","А16","А18","А19","А20","А28","А30","Т27","Т29"],"lines":"11, 16, 18, 19, 20, 28, 30, 27, 29"},"geometry":{"type":"LineString","coordinates":[[25.973814,43.858652],[25.964759,43.854276],[25.964547,43.854203],[25.962337,43.853733],[25.962099,43.853704]]}},{"type":"Feature","properties":{"mode":"bus","n":11,"arr":["А8","А10","А15","А28","А33","Т9","Т13","Т21","Т24","Т27","Т29"],"lines":"8, 10, 15, 28, 33, 9, 13, 21, 24, 27, 29"},"geometry":{"type":"LineString","coordinates":[[25.960107,43.845418],[25.960191,43.845015],[25.960241,43.842984],[25.960232,43.841721],[25.959579,43.839693]]}},{"type":"Feature","properties":{"mode":"bus","n":12,"arr":["А8","А10","А15","А23","А28","А33","Т9","Т13","Т21","Т24","Т27","Т29"],"lines":"8, 10, 15, 23, 28, 33, 9, 13, 21, 24, 27, 29"},"geometry":{"type":"LineString","coordinates":[[25.959579,43.839693],[25.95953,43.839562]]}},{"type":"Feature","properties":{"mode":"bus","n":10,"arr":["А8","А10","А28","А33","Т9","Т13","Т21","Т24","Т27","Т29"],"lines":"8, 10, 28, 33, 9, 13, 21, 24, 27, 29"},"geometry":{"type":"LineString","coordinates":[[25.95953,43.839562],[25.959894,43.839478],[25.960225,43.839321],[25.961103,43.838645],[25.962453,43.83766],[25.968142,43.833826]]}},{"type":"Feature","properties":{"mode":"bus","n":5,"arr":["А8","А28","Т13","Т24","Т27"],"lines":"8, 28, 13, 24, 27"},"geometry":{"type":"LineString","coordinates":[[25.96835,43.831053],[25.969104,43.830398],[25.969783,43.829743],[25.969876,43.829682]]}},{"type":"Feature","properties":{"mode":"bus","n":6,"arr":["А8","А23","А28","Т13","Т24","Т27"],"lines":"8, 23, 28, 13, 24, 27"},"geometry":{"type":"LineString","coordinates":[[25.969499,43.833091],[25.967809,43.834252]]}},{"type":"Feature","properties":{"mode":"bus","n":5,"arr":["А8","А11","А12","А18","А23"],"lines":"8, 11, 12, 18, 23"},"geometry":{"type":"LineString","coordinates":[[25.954774,43.840825],[25.955078,43.839046]]}},{"type":"Feature","properties":{"mode":"bus","n":10,"arr":["А10","А15","А28","А33","Т9","Т13","Т21","Т24","Т27","Т29"],"lines":"10, 15, 28, 33, 9, 13, 21, 24, 27, 29"},"geometry":{"type":"LineString","coordinates":[[25.960014,43.839866],[25.960625,43.841742]]}},{"type":"Feature","properties":{"mode":"bus","n":9,"arr":["А10","А28","А33","Т9","Т13","Т21","Т24","Т27","Т29"],"lines":"10, 28, 33, 9, 13, 21, 24, 27, 29"},"geometry":{"type":"LineString","coordinates":[[25.968142,43.833826],[25.97034,43.832347]]}},{"type":"Feature","properties":{"mode":"bus","n":9,"arr":["А10","А28","А33","Т9","Т13","Т21","Т24","Т27","Т29"],"lines":"10, 28, 33, 9, 13, 21, 24, 27, 29"},"geometry":{"type":"LineString","coordinates":[[25.960535,43.839331],[25.960372,43.839504],[25.960099,43.839723],[25.960014,43.839866]]}},{"type":"Feature","properties":{"mode":"bus","n":5,"arr":["А10","А33","Т9","Т21","Т29"],"lines":"10, 33, 9, 21, 29"},"geometry":{"type":"LineString","coordinates":[[25.97034,43.832347],[25.971988,43.83127]]}},{"type":"Feature","properties":{"mode":"bus","n":5,"arr":["А10","А33","Т9","Т21","Т29"],"lines":"10, 33, 9, 21, 29"},"geometry":{"type":"LineString","coordinates":[[25.969499,43.833091],[25.969431,43.833233],[25.968784,43.833637],[25.968531,43.833928],[25.968064,43.834238],[25.967809,43.834252]]}},{"type":"Feature","properties":{"mode":"bus","n":6,"arr":["А11","А12","А18","А23","Т9","Т24"],"lines":"11, 12, 18, 23, 9, 24"},"geometry":{"type":"LineString","coordinates":[[25.954066,43.844884],[25.954078,43.844818]]}},{"type":"Feature","properties":{"mode":"bus","n":9,"arr":["А12","А15","А16","А18","А33","А50","Т2","Т13","Т21"],"lines":"12, 15, 16, 18, 33, 50, 2, 13, 21"},"geometry":{"type":"LineString","coordinates":[[25.997903,43.852861],[25.985281,43.851245],[25.982132,43.850824]]}},{"type":"Feature","properties":{"mode":"bus","n":9,"arr":["А12","А15","А16","А18","А33","А50","Т2","Т13","Т21"],"lines":"12, 15, 16, 18, 33, 50, 2, 13, 21"},"geometry":{"type":"LineString","coordinates":[[25.997865,43.85299],[25.991309,43.852136]]}},{"type":"Feature","properties":{"mode":"bus","n":5,"arr":["А16","А33","А50","Т13","Т21"],"lines":"16, 33, 50, 13, 21"},"geometry":{"type":"LineString","coordinates":[[25.997228,43.855522],[25.997903,43.852861]]}},{"type":"Feature","properties":{"mode":"bus","n":5,"arr":["А16","А18","А19","А20","А30"],"lines":"16, 18, 19, 20, 30"},"geometry":{"type":"LineString","coordinates":[[25.9739,43.85869],[25.973175,43.859436]]}},{"type":"Feature","properties":{"mode":"bus","n":5,"arr":["G1","G2","G3","G4","G5"],"lines":"1, 2, 3, 4, 5"},"geometry":{"type":"LineString","coordinates":[[25.965223,43.891057],[25.965953,43.890852],[25.966085,43.89085],[25.966293,43.890986],[25.966674,43.891378]]}}]}