{"type":"FeatureCollection","features":[{"type":"Feature","geometry":{"type":"Point","coordinates":[25.977308,43.832163]},"properties":{"name":"Търговски комплекс","lines":"3, 4, 30, 9, 21, 29","arr":["А3","А4","А30","Т9","Т21","Т29"],"terminus":1,"mode":"bus","color":"#0059a9","colorDark":"#00294f","angle":12.3,"snapDist":0,"label":1}},{"type":"Feature","geometry":{"type":"Point","coordinates":[25.973787,43.83262]},"properties":{"name":"Блок №115 - север","lines":"3, 4, 10, 9, 21, 29","arr":["А3","А4","А10","Т9","Т21","Т29"],"terminus":0,"mode":"bus","color":"#0059a9","colorDark":"#00294f","angle":321,"snapDist":14,"label":1}},{"type":"Feature","geometry":{"type":"Point","coordinates":[25.963454,43.827709]},"properties":{"name":"бул. Васил Левски - запад","lines":"3, 23","arr":["А3","А23"],"terminus":0,"mode":"bus","color":"#0059a9","colorDark":"#00294f","angle":48.1,"snapDist":5,"label":1}},{"type":"Feature","geometry":{"type":"Point","coordinates":[25.96016,43.830115]},"properties":{"name":"Помпена станция - изток","lines":"3, 11, 18","arr":["А3","А11","А18"],"terminus":0,"mode":"bus","color":"#0059a9","colorDark":"#00294f","angle":40.6,"snapDist":5,"label":1}},{"type":"Feature","geometry":{"type":"Point","coordinates":[25.962192,43.83405]},"properties":{"name":"Верила - юг","lines":"3, 11, 18","arr":["А3","А11","А18"],"terminus":0,"mode":"bus","color":"#0059a9","colorDark":"#00294f","angle":155.2,"snapDist":7,"label":1}},{"type":"Feature","geometry":{"type":"Point","coordinates":[25.962142,43.83417]},"properties":{"name":"Верила - север","lines":"3, 11, 18","arr":["А3","А11","А18"],"terminus":0,"mode":"bus","color":"#0059a9","colorDark":"#00294f","angle":336,"snapDist":4,"label":1}},{"type":"Feature","geometry":{"type":"Point","coordinates":[25.956264,43.832049]},"properties":{"name":"Левента - север","lines":"3, 11, 18","arr":["А3","А11","А18"],"terminus":0,"mode":"bus","color":"#0059a9","colorDark":"#00294f","angle":331.8,"snapDist":9,"label":1}},{"type":"Feature","geometry":{"type":"Point","coordinates":[25.953387,43.830975]},"properties":{"name":"Училище Алеко Константинов - север","lines":"3, 11, 18","arr":["А3","А11","А18"],"terminus":0,"mode":"bus","color":"#0059a9","colorDark":"#00294f","angle":332.3,"snapDist":2,"label":1}},{"type":"Feature","geometry":{"type":"Point","coordinates":[25.949944,43.828558]},"properties":{"name":"Пътен възел Охлюва - запад","lines":"3, 11, 15, 18","arr":["А3","А11","А15","А18"],"terminus":0,"mode":"bus","color":"#0059a9","colorDark":"#00294f","angle":324.2,"snapDist":0,"label":1}},{"type":"Feature","geometry":{"type":"Point","coordinates":[25.951725,43.832085]},"properties":{"name":"Мидия Енос -юг","lines":"3, 5, 11, 15, 18","arr":["А3","А5","А11","А15","А18"],"terminus":0,"mode":"bus","color":"#0059a9","colorDark":"#00294f","angle":151.7,"snapDist":6,"label":1}},{"type":"Feature","geometry":{"type":"Point","coordinates":[25.954597,43.834375]},"properties":{"name":"Централна жп гара, ул. Николаевска","lines":"3, 5, 18","arr":["А3","А5","А18"],"terminus":1,"mode":"bus","color":"#0059a9","colorDark":"#00294f","angle":52.1,"snapDist":6,"label":1}},{"type":"Feature","geometry":{"type":"Point","coordinates":[25.950941,43.837863]},"properties":{"name":"Гимназия по корабостроене","lines":"3, 5, 6, 8, 16, 18, 19, 20, 50, 2, 9, 24","arr":["А3","А5","А6","А8","А16","А18","А19","А20","А50","Т2","Т9","Т24"],"terminus":1,"mode":"bus","color":"#0059a9","colorDark":"#00294f","angle":54.2,"snapDist":8,"label":1}},{"type":"Feature","geometry":{"type":"Point","coordinates":[25.949158,43.837654]},"properties":{"name":"Сент Уан","lines":"3, 5, 6, 8, 16, 19, 20, 50, 2, 9, 24","arr":["А3","А5","А6","А8","А16","А19","А20","А50","Т2","Т9","Т24"],"terminus":1,"mode":"bus","color":"#0059a9","colorDark":"#00294f","angle":259.6,"snapDist":9,"label":1}},{"type":"Feature","geometry":{"type":"Point","coordinates":[25.942107,43.834156]},"properties":{"name":"Жити","lines":"3, 6, 16, 19, 2, 9, 24","arr":["А3","А6","А16","А19","Т2","Т9","Т24"],"terminus":0,"mode":"bus","color":"#0059a9","colorDark":"#00294f","angle":313,"snapDist":6,"label":1}},{"type":"Feature","geometry":{"type":"Point","coordinates":[25.939012,43.831264]},"properties":{"name":"Юта","lines":"3, 6, 16, 19, 2, 9, 24","arr":["А3","А6","А16","А19","Т2","Т9","Т24"],"terminus":0,"mode":"bus","color":"#0059a9","colorDark":"#00294f","angle":298.6,"snapDist":6,"label":1}},{"type":"Feature","geometry":{"type":"Point","coordinates":[25.935018,43.825696]},"properties":{"name":"Винзавод","lines":"3, 6, 16, 19, 2, 9, 24","arr":["А3","А6","А16","А19","Т2","Т9","Т24"],"terminus":0,"mode":"bus","color":"#0059a9","colorDark":"#00294f","angle":297.3,"snapDist":9,"label":1}},{"type":"Feature","geometry":{"type":"Point","coordinates":[25.932899,43.822729]},"properties":{"name":"БОР","lines":"3, 6, 16, 19, 2, 9, 24","arr":["А3","А6","А16","А19","Т2","Т9","Т24"],"terminus":1,"mode":"bus","color":"#0059a9","colorDark":"#00294f","angle":297.2,"snapDist":9,"label":1}},{"type":"Feature","geometry":{"type":"Point","coordinates":[25.927946,43.814602]},"properties":{"name":"Метро","lines":"3, 6, 16, 19","arr":["А3","А6","А16","А19"],"terminus":1,"mode":"bus","color":"#0059a9","colorDark":"#00294f","angle":299.1,"snapDist":49,"label":1}},{"type":"Feature","geometry":{"type":"Point","coordinates":[25.974274,43.823608]},"properties":{"name":"Блок №48","lines":"4, 18, 23, 28, 27","arr":["А4","А18","А23","А28","Т27"],"terminus":1,"mode":"bus","color":"#0059a9","colorDark":"#00294f","angle":329.2,"snapDist":1,"label":1}},{"type":"Feature","geometry":{"type":"Point","coordinates":[25.971609,43.820606]},"properties":{"name":"Сервиз Свирчев - изток","lines":"4, 18, 23, 28, 27","arr":["А4","А18","А23","А28","Т27"],"terminus":0,"mode":"bus","color":"#0059a9","colorDark":"#00294f","angle":51,"snapDist":6,"label":1}},{"type":"Feature","geometry":{"type":"Point","coordinates":[25.968463,43.823576]},"properties":{"name":"Напоителни системи","lines":"4, 18, 23, 28, 27","arr":["А4","А18","А23","А28","Т27"],"terminus":0,"mode":"bus","color":"#0059a9","colorDark":"#00294f","angle":51.3,"snapDist":6,"label":1}},{"type":"Feature","geometry":{"type":"Point","coordinates":[25.968815,43.825355]},"properties":{"name":"Дружба 3, Обръщало","lines":"4, 23, 28, 13, 24, 27","arr":["А4","А23","А28","Т13","Т24","Т27"],"terminus":1,"mode":"bus","color":"#0059a9","colorDark":"#00294f","angle":161.2,"snapDist":10,"label":1}},{"type":"Feature","geometry":{"type":"Point","coordinates":[25.97203,43.827208]},"properties":{"name":"Блок №10","lines":"4, 23, 28, 13, 24, 27","arr":["А4","А23","А28","Т13","Т24","Т27"],"terminus":0,"mode":"bus","color":"#0059a9","colorDark":"#00294f","angle":94.1,"snapDist":9,"label":1}},{"type":"Feature","geometry":{"type":"Point","coordinates":[25.97034,43.829263]},"properties":{"name":"Blok №6","lines":"4","arr":["А4"],"terminus":0,"mode":"bus","color":"#0059a9","colorDark":"#00294f","angle":51.4,"snapDist":6,"label":1}},{"type":"Feature","geometry":{"type":"Point","coordinates":[25.974129,43.832806]},"properties":{"name":"Блок №115 - юг","lines":"4, 10, 9, 21, 29","arr":["А4","А10","Т9","Т21","Т29"],"terminus":0,"mode":"bus","color":"#0059a9","colorDark":"#00294f","angle":144.1,"snapDist":10,"label":1}},{"type":"Feature","geometry":{"type":"Point","coordinates":[25.97568,43.839336]},"properties":{"name":"Блок №302","lines":"4, 10, 30","arr":["А4","А10","А30"],"terminus":0,"mode":"bus","color":"#0059a9","colorDark":"#00294f","angle":33.6,"snapDist":4,"label":1}},{"type":"Feature","geometry":{"type":"Point","coordinates":[25.974838,43.838065]},"properties":{"name":"Блок №403","lines":"4, 10, 30","arr":["А4","А10","А30"],"terminus":0,"mode":"bus","color":"#0059a9","colorDark":"#00294f","angle":147.2,"snapDist":17,"label":1}},{"type":"Feature","geometry":{"type":"Point","coordinates":[25.965307,43.84186]},"properties":{"name":"Кооперативен пазар (ЖП прелез)","lines":"4, 5, 19, 30","arr":["А4","А5","А19","А30"],"terminus":1,"mode":"bus","color":"#0059a9","colorDark":"#00294f","angle":119,"snapDist":6,"label":1}},{"type":"Feature","geometry":{"type":"Point","coordinates":[25.970742,43.84423]},"properties":{"name":"Училище Олимпи Панов","lines":"4, 5, 19, 30","arr":["А4","А5","А19","А30"],"terminus":0,"mode":"bus","color":"#0059a9","colorDark":"#00294f","angle":160.7,"snapDist":7,"label":1}},{"type":"Feature","geometry":{"type":"Point","coordinates":[25.975829,43.845928]},"properties":{"name":"Зала Дунав","lines":"4, 19","arr":["А4","А19"],"terminus":0,"mode":"bus","color":"#0059a9","colorDark":"#00294f","angle":122.2,"snapDist":5,"label":1}},{"type":"Feature","geometry":{"type":"Point","coordinates":[25.978986,43.84953]},"properties":{"name":"Олимп, Блок №48","lines":"4, 19","arr":["А4","А19"],"terminus":0,"mode":"bus","color":"#0059a9","colorDark":"#00294f","angle":123.6,"snapDist":8,"label":1}},{"type":"Feature","geometry":{"type":"Point","coordinates":[25.978928,43.852331]},"properties":{"name":"Млечна кухня - изток","lines":"4, 16, 18, 19, 20, 30","arr":["А4","А16","А18","А19","А20","А30"],"terminus":0,"mode":"bus","color":"#0059a9","colorDark":"#00294f","angle":79.7,"snapDist":9,"label":1}},{"type":"Feature","geometry":{"type":"Point","coordinates":[25.975881,43.856719]},"properties":{"name":"Товарна гара","lines":"4","arr":["А4"],"terminus":0,"mode":"bus","color":"#0059a9","colorDark":"#00294f","angle":48.7,"snapDist":10,"label":1}},{"type":"Feature","geometry":{"type":"Point","coordinates":[25.974332,43.858909]},"properties":{"name":"Париж","lines":"4","arr":["А4"],"terminus":0,"mode":"bus","color":"#0059a9","colorDark":"#00294f","angle":144.9,"snapDist":11,"label":1}},{"type":"Feature","geometry":{"type":"Point","coordinates":[25.978105,43.860766]},"properties":{"name":"Цветница - юг","lines":"4, 11, 28, 27, 29","arr":["А4","А11","А28","Т27","Т29"],"terminus":0,"mode":"bus","color":"#0059a9","colorDark":"#00294f","angle":146.3,"snapDist":11,"label":1}},{"type":"Feature","geometry":{"type":"Point","coordinates":[25.984197,43.864751]},"properties":{"name":"Тракцията (ЛВЗ)","lines":"4, 11, 28, 27, 29","arr":["А4","А11","А28","Т27","Т29"],"terminus":0,"mode":"bus","color":"#0059a9","colorDark":"#00294f","angle":144.5,"snapDist":7,"label":1}},{"type":"Feature","geometry":{"type":"Point","coordinates":[25.988236,43.866768]},"properties":{"name":"Психодиспансер - юг","lines":"4, 11, 28, 27, 29","arr":["А4","А11","А28","Т27","Т29"],"terminus":0,"mode":"bus","color":"#0059a9","colorDark":"#00294f","angle":151.7,"snapDist":7,"label":1}},{"type":"Feature","geometry":{"type":"Point","coordinates":[25.992286,43.868406]},"properties":{"name":"Захарен завод (Тутракан №26)","lines":"4, 11, 28, 27, 29","arr":["А4","А11","А28","Т27","Т29"],"terminus":1,"mode":"bus","color":"#0059a9","colorDark":"#00294f","angle":150.5,"snapDist":8,"label":1}},{"type":"Feature","geometry":{"type":"Point","coordinates":[26.00356,43.872307]},"properties":{"name":"Тутракан №32 (ПГ по транспорт)","lines":"4, 11, 28","arr":["А4","А11","А28"],"terminus":0,"mode":"bus","color":"#0059a9","colorDark":"#00294f","angle":166.1,"snapDist":6,"label":1}},{"type":"Feature","geometry":{"type":"Point","coordinates":[26.011365,43.873805]},"properties":{"name":"Еконт Експрес (Домостроене АД)","lines":"4, 11, 28","arr":["А4","А11","А28"],"terminus":0,"mode":"bus","color":"#0059a9","colorDark":"#00294f","angle":165.4,"snapDist":15,"label":1}},{"type":"Feature","geometry":{"type":"Point","coordinates":[26.015619,43.875339]},"properties":{"name":"Митница (Дунав мост)","lines":"4, 11, 12, 28","arr":["А4","А11","А12","А28"],"terminus":1,"mode":"bus","color":"#0059a9","colorDark":"#00294f","angle":142,"snapDist":6,"label":1}},{"type":"Feature","geometry":{"type":"Point","coordinates":[26.015452,43.869369]},"properties":{"name":"Оргахим - запад","lines":"4","arr":["А4"],"terminus":0,"mode":"bus","color":"#0059a9","colorDark":"#00294f","angle":274.3,"snapDist":12,"label":1}},{"type":"Feature","geometry":{"type":"Point","coordinates":[26.014674,43.861401]},"properties":{"name":"ЗЕИМ - запад","lines":"4","arr":["А4"],"terminus":1,"mode":"bus","color":"#0059a9","colorDark":"#00294f","angle":274.1,"snapDist":10,"label":1}},{"type":"Feature","geometry":{"type":"Point","coordinates":[26.015157,43.862276]},"properties":{"name":"ЗЕИМ - изток","lines":"4, 12","arr":["А4","А12"],"terminus":1,"mode":"bus","color":"#0059a9","colorDark":"#00294f","angle":93.8,"snapDist":8,"label":1}},{"type":"Feature","geometry":{"type":"Point","coordinates":[26.015829,43.86926]},"properties":{"name":"Оргахим - изток","lines":"4, 12","arr":["А4","А12"],"terminus":0,"mode":"bus","color":"#0059a9","colorDark":"#00294f","angle":94.3,"snapDist":9,"label":1}},{"type":"Feature","geometry":{"type":"Point","coordinates":[26.009941,43.873679]},"properties":{"name":"Еконт Експрес (Напорни тръби)","lines":"4, 11, 12, 28","arr":["А4","А11","А12","А28"],"terminus":0,"mode":"bus","color":"#0059a9","colorDark":"#00294f","angle":345.6,"snapDist":6,"label":1}},{"type":"Feature","geometry":{"type":"Point","coordinates":[26.003423,43.872412]},"properties":{"name":"Тутракан №19 (Тухлена фабрика)","lines":"4, 11, 12, 28","arr":["А4","А11","А12","А28"],"terminus":0,"mode":"bus","color":"#0059a9","colorDark":"#00294f","angle":346.3,"snapDist":7,"label":1}},{"type":"Feature","geometry":{"type":"Point","coordinates":[25.991879,43.868383]},"properties":{"name":"Захарен завод (Тутракан №25)","lines":"4, 11, 12, 28, 27, 29","arr":["А4","А11","А12","А28","Т27","Т29"],"terminus":1,"mode":"bus","color":"#0059a9","colorDark":"#00294f","angle":330.7,"snapDist":4,"label":1}},{"type":"Feature","geometry":{"type":"Point","coordinates":[25.987931,43.866793]},"properties":{"name":"Психодиспансер - север","lines":"4, 11, 28, 27, 29","arr":["А4","А11","А28","Т27","Т29"],"terminus":0,"mode":"bus","color":"#0059a9","colorDark":"#00294f","angle":330,"snapDist":5,"label":1}},{"type":"Feature","geometry":{"type":"Point","coordinates":[25.984481,43.865041]},"properties":{"name":"Надлез Тутракан","lines":"4, 11, 28, 27, 29","arr":["А4","А11","А28","Т27","Т29"],"terminus":0,"mode":"bus","color":"#0059a9","colorDark":"#00294f","angle":322.8,"snapDist":3,"label":1}},{"type":"Feature","geometry":{"type":"Point","coordinates":[25.977667,43.861607]},"properties":{"name":"Цветница - север","lines":"4, 11, 28, 27, 29","arr":["А4","А11","А28","Т27","Т29"],"terminus":0,"mode":"bus","color":"#0059a9","colorDark":"#00294f","angle":326.2,"snapDist":5,"label":1}},{"type":"Feature","geometry":{"type":"Point","coordinates":[25.975277,43.857109]},"properties":{"name":"Добруджа (Товарна гара)","lines":"4, 16, 18, 19, 20, 30","arr":["А4","А16","А18","А19","А20","А30"],"terminus":0,"mode":"bus","color":"#0059a9","colorDark":"#00294f","angle":233.1,"snapDist":12,"label":1}},{"type":"Feature","geometry":{"type":"Point","coordinates":[25.978806,43.852332]},"properties":{"name":"Млечна кухня - запад","lines":"4, 16, 18, 19, 20, 30","arr":["А4","А16","А18","А19","А20","А30"],"terminus":0,"mode":"bus","color":"#0059a9","colorDark":"#00294f","angle":263.5,"snapDist":6,"label":1}},{"type":"Feature","geometry":{"type":"Point","coordinates":[25.97892,43.849458]},"properties":{"name":"Олимп, Блок №49","lines":"4, 19","arr":["А4","А19"],"terminus":0,"mode":"bus","color":"#0059a9","colorDark":"#00294f","angle":303.6,"snapDist":8,"label":1}},{"type":"Feature","geometry":{"type":"Point","coordinates":[25.974962,43.845315]},"properties":{"name":"Колос","lines":"4, 19","arr":["А4","А19"],"terminus":0,"mode":"bus","color":"#0059a9","colorDark":"#00294f","angle":338,"snapDist":8,"label":1}},{"type":"Feature","geometry":{"type":"Point","coordinates":[25.970035,43.844067]},"properties":{"name":"Детска градина Русалка","lines":"4, 19","arr":["А4","А19"],"terminus":0,"mode":"bus","color":"#0059a9","colorDark":"#00294f","angle":343.6,"snapDist":4,"label":1}},{"type":"Feature","geometry":{"type":"Point","coordinates":[25.973639,43.8359]},"properties":{"name":"Блок №401","lines":"4, 10, 30","arr":["А4","А10","А30"],"terminus":0,"mode":"bus","color":"#0059a9","colorDark":"#00294f","angle":268.2,"snapDist":6,"label":1}},{"type":"Feature","geometry":{"type":"Point","coordinates":[25.970331,43.829271]},"properties":{"name":"ЦБА","lines":"4, 23, 28, 13, 24, 27","arr":["А4","А23","А28","Т13","Т24","Т27"],"terminus":0,"mode":"bus","color":"#0059a9","colorDark":"#00294f","angle":231.4,"snapDist":12,"label":1}},{"type":"Feature","geometry":{"type":"Point","coordinates":[25.970891,43.825818]},"properties":{"name":"Блок №33","lines":"4, 8, 23, 28, 13, 24, 27","arr":["А4","А8","А23","А28","Т13","Т24","Т27"],"terminus":0,"mode":"bus","color":"#0059a9","colorDark":"#00294f","angle":346.2,"snapDist":3,"label":1}},{"type":"Feature","geometry":{"type":"Point","coordinates":[25.968136,43.825126]},"properties":{"name":"Блок №28","lines":"4, 23, 28, 13, 24, 27","arr":["А4","А23","А28","Т13","Т24","Т27"],"terminus":1,"mode":"bus","color":"#0059a9","colorDark":"#00294f","angle":329.8,"snapDist":4,"label":1}},{"type":"Feature","geometry":{"type":"Point","coordinates":[25.968619,43.823426]},"properties":{"name":"бул. Гоце Делчев №54","lines":"4, 18, 23, 28, 27","arr":["А4","А18","А23","А28","Т27"],"terminus":0,"mode":"bus","color":"#0059a9","colorDark":"#00294f","angle":233.4,"snapDist":7,"label":1}},{"type":"Feature","geometry":{"type":"Point","coordinates":[25.971608,43.820607]},"properties":{"name":"Сервиз Свирчев - запад","lines":"4, 18, 23, 28, 27","arr":["А4","А18","А23","А28","Т27"],"terminus":0,"mode":"bus","color":"#0059a9","colorDark":"#00294f","angle":231,"snapDist":8,"label":1}},{"type":"Feature","geometry":{"type":"Point","coordinates":[25.948075,43.840591]},"properties":{"name":"Чайка - изток","lines":"5, 6, 16, 19, 20, 50, 2, 9, 24","arr":["А5","А6","А16","А19","А20","А50","Т2","Т9","Т24"],"terminus":0,"mode":"bus","color":"#0059a9","colorDark":"#00294f","angle":54.4,"snapDist":9,"label":1}},{"type":"Feature","geometry":{"type":"Point","coordinates":[25.95133,43.843833]},"properties":{"name":"Математическа гимназия - юг","lines":"5, 6, 16, 19, 20, 50, 2, 9, 24","arr":["А5","А6","А16","А19","А20","А50","Т2","Т9","Т24"],"terminus":0,"mode":"bus","color":"#0059a9","colorDark":"#00294f","angle":146.2,"snapDist":3,"label":1}},{"type":"Feature","geometry":{"type":"Point","coordinates":[25.956621,43.845001]},"properties":{"name":"Скобелев (СБА)","lines":"5, 6, 11, 12, 16, 18, 19, 20, 50, 2, 9, 24","arr":["А5","А6","А11","А12","А16","А18","А19","А20","А50","Т2","Т9","Т24"],"terminus":0,"mode":"bus","color":"#0059a9","colorDark":"#00294f","angle":156.5,"snapDist":14,"label":1}},{"type":"Feature","geometry":{"type":"Point","coordinates":[25.961585,43.846139]},"properties":{"name":"Мосю Бриколаж","lines":"5, 12, 15, 33, 50, 2, 13, 21","arr":["А5","А12","А15","А33","А50","Т2","Т13","Т21"],"terminus":0,"mode":"bus","color":"#0059a9","colorDark":"#00294f","angle":165.9,"snapDist":10,"label":1}},{"type":"Feature","geometry":{"type":"Point","coordinates":[25.966694,43.847128]},"properties":{"name":"Кауфланд","lines":"5, 12, 15, 33, 50, 2, 13, 21","arr":["А5","А12","А15","А33","А50","Т2","Т13","Т21"],"terminus":0,"mode":"bus","color":"#0059a9","colorDark":"#00294f","angle":155.1,"snapDist":8,"label":1}},{"type":"Feature","geometry":{"type":"Point","coordinates":[25.973538,43.849076]},"properties":{"name":"Найден Киров","lines":"5, 12, 15, 33, 50, 2, 13, 21","arr":["А5","А12","А15","А33","А50","Т2","Т13","Т21"],"terminus":0,"mode":"bus","color":"#0059a9","colorDark":"#00294f","angle":154.8,"snapDist":6,"label":1}},{"type":"Feature","geometry":{"type":"Point","coordinates":[25.977902,43.850305]},"properties":{"name":"Олимп","lines":"5, 12, 15, 33, 50, 2, 13, 21","arr":["А5","А12","А15","А33","А50","Т2","Т13","Т21"],"terminus":0,"mode":"bus","color":"#0059a9","colorDark":"#00294f","angle":169.4,"snapDist":7,"label":1}},{"type":"Feature","geometry":{"type":"Point","coordinates":[25.982731,43.850909]},"properties":{"name":"Подстанция - юг","lines":"5, 12, 15, 16, 18, 33, 50, 2, 13, 21","arr":["А5","А12","А15","А16","А18","А33","А50","Т2","Т13","Т21"],"terminus":0,"mode":"bus","color":"#0059a9","colorDark":"#00294f","angle":169.6,"snapDist":6,"label":1}},{"type":"Feature","geometry":{"type":"Point","coordinates":[25.989861,43.851695]},"properties":{"name":"3-та поликлиника (МОЛ Русе)","lines":"5, 12, 15, 16, 18, 33, 50, 2, 13, 21","arr":["А5","А12","А15","А16","А18","А33","А50","Т2","Т13","Т21"],"terminus":0,"mode":"bus","color":"#0059a9","colorDark":"#00294f","angle":-9.9,"snapDist":7,"label":1}},{"type":"Feature","geometry":{"type":"Point","coordinates":[25.992122,43.849362]},"properties":{"name":"Жерав - север","lines":"5, 20","arr":["А5","А20"],"terminus":0,"mode":"bus","color":"#0059a9","colorDark":"#00294f","angle":333,"snapDist":9,"label":1}},{"type":"Feature","geometry":{"type":"Point","coordinates":[25.987628,43.847534]},"properties":{"name":"Боряна","lines":"5, 20","arr":["А5","А20"],"terminus":0,"mode":"bus","color":"#0059a9","colorDark":"#00294f","angle":323.4,"snapDist":11,"label":1}},{"type":"Feature","geometry":{"type":"Point","coordinates":[25.981535,43.84478]},"properties":{"name":"Битов комбинат - север","lines":"5, 30","arr":["А5","А30"],"terminus":0,"mode":"bus","color":"#0059a9","colorDark":"#00294f","angle":338.2,"snapDist":4,"label":1}},{"type":"Feature","geometry":{"type":"Point","coordinates":[25.977486,43.843793]},"properties":{"name":"Стадион Дунав - север","lines":"5, 30","arr":["А5","А30"],"terminus":0,"mode":"bus","color":"#0059a9","colorDark":"#00294f","angle":336.8,"snapDist":5,"label":1}},{"type":"Feature","geometry":{"type":"Point","coordinates":[25.97332,43.842188]},"properties":{"name":"Ул. Петрохан №39","lines":"5, 30","arr":["А5","А30"],"terminus":0,"mode":"bus","color":"#0059a9","colorDark":"#00294f","angle":332.8,"snapDist":4,"label":1}},{"type":"Feature","geometry":{"type":"Point","coordinates":[25.970493,43.841382]},"properties":{"name":"Пъстрина","lines":"5, 30","arr":["А5","А30"],"terminus":0,"mode":"bus","color":"#0059a9","colorDark":"#00294f","angle":345.2,"snapDist":4,"label":1}},{"type":"Feature","geometry":{"type":"Point","coordinates":[25.974166,43.841891]},"properties":{"name":"Боримечка","lines":"5, 30","arr":["А5","А30"],"terminus":0,"mode":"bus","color":"#0059a9","colorDark":"#00294f","angle":151.8,"snapDist":3,"label":1}},{"type":"Feature","geometry":{"type":"Point","coordinates":[25.977642,43.843837]},"properties":{"name":"Стадион Дунав - юг","lines":"5, 30","arr":["А5","А30"],"terminus":0,"mode":"bus","color":"#0059a9","colorDark":"#00294f","angle":158.6,"snapDist":8,"label":1}},{"type":"Feature","geometry":{"type":"Point","coordinates":[25.987985,43.847726]},"properties":{"name":"Кремена","lines":"5, 20","arr":["А5","А20"],"terminus":0,"mode":"bus","color":"#0059a9","colorDark":"#00294f","angle":143.3,"snapDist":3,"label":1}},{"type":"Feature","geometry":{"type":"Point","coordinates":[25.992162,43.849376]},"properties":{"name":"Жерав - юг","lines":"5, 20","arr":["А5","А20"],"terminus":0,"mode":"bus","color":"#0059a9","colorDark":"#00294f","angle":153,"snapDist":8,"label":1}},{"type":"Feature","geometry":{"type":"Point","coordinates":[25.984734,43.851297]},"properties":{"name":"Подстанция - север","lines":"5, 12, 15, 16, 18, 20, 33, 50, 2, 13, 21","arr":["А5","А12","А15","А16","А18","А20","А33","А50","Т2","Т13","Т21"],"terminus":0,"mode":"bus","color":"#0059a9","colorDark":"#00294f","angle":350.1,"snapDist":13,"label":1}},{"type":"Feature","geometry":{"type":"Point","coordinates":[25.978658,43.850516]},"properties":{"name":"Стиф (Олимп)","lines":"5, 12, 15, 33, 50, 2, 13, 21","arr":["А5","А12","А15","А33","А50","Т2","Т13","Т21"],"terminus":0,"mode":"bus","color":"#0059a9","colorDark":"#00294f","angle":350.1,"snapDist":4,"label":1}},{"type":"Feature","geometry":{"type":"Point","coordinates":[25.973436,43.849119]},"properties":{"name":"Петър Караминчев","lines":"5, 12, 15, 33, 50, 2, 13, 21","arr":["А5","А12","А15","А33","А50","Т2","Т13","Т21"],"terminus":0,"mode":"bus","color":"#0059a9","colorDark":"#00294f","angle":333.7,"snapDist":14,"label":1}},{"type":"Feature","geometry":{"type":"Point","coordinates":[25.96205,43.846325]},"properties":{"name":"Спортна зала ОЗК Арена Русе (Ялта)","lines":"5, 12, 15, 33, 50, 2, 13, 21","arr":["А5","А12","А15","А33","А50","Т2","Т13","Т21"],"terminus":0,"mode":"bus","color":"#0059a9","colorDark":"#00294f","angle":346.7,"snapDist":8,"label":1}},{"type":"Feature","geometry":{"type":"Point","coordinates":[25.956971,43.845204]},"properties":{"name":"СБА","lines":"5, 6, 11, 12, 16, 18, 20, 23, 50, 2","arr":["А5","А6","А11","А12","А16","А18","А20","А23","А50","Т2"],"terminus":0,"mode":"bus","color":"#0059a9","colorDark":"#00294f","angle":333.8,"snapDist":9,"label":1}},{"type":"Feature","geometry":{"type":"Point","coordinates":[25.952394,43.844536]},"properties":{"name":"Математическа гимназия - север","lines":"5, 6, 16, 20, 50, 2, 9, 24","arr":["А5","А6","А16","А20","А50","Т2","Т9","Т24"],"terminus":0,"mode":"bus","color":"#0059a9","colorDark":"#00294f","angle":330,"snapDist":5,"label":1}},{"type":"Feature","geometry":{"type":"Point","coordinates":[25.948278,43.84239]},"properties":{"name":"Мариела Сони","lines":"5, 6, 16, 20, 50, 2, 9, 24","arr":["А5","А6","А16","А20","А50","Т2","Т9","Т24"],"terminus":0,"mode":"bus","color":"#0059a9","colorDark":"#00294f","angle":310.6,"snapDist":5,"label":1}},{"type":"Feature","geometry":{"type":"Point","coordinates":[25.949507,43.836556]},"properties":{"name":"Ул. Стефан Стамболов №26","lines":"5","arr":["А5"],"terminus":0,"mode":"bus","color":"#0059a9","colorDark":"#00294f","angle":254.3,"snapDist":4,"label":1}},{"type":"Feature","geometry":{"type":"Point","coordinates":[25.95026,43.83284]},"properties":{"name":"Ул. Стефан Стамболов №64","lines":"5","arr":["А5"],"terminus":0,"mode":"bus","color":"#0059a9","colorDark":"#00294f","angle":262.8,"snapDist":6,"label":1}},{"type":"Feature","geometry":{"type":"Point","coordinates":[25.962269,43.855877]},"properties":{"name":"Дом на културата","lines":"6, 8, 10, 23","arr":["А6","А8","А10","А23"],"terminus":1,"mode":"bus","color":"#0059a9","colorDark":"#00294f","angle":-97.5,"snapDist":7,"label":1}},{"type":"Feature","geometry":{"type":"Point","coordinates":[25.959263,43.848696]},"properties":{"name":"Сердика","lines":"6, 8, 10, 11, 16, 18, 19, 20, 23, 28, 27, 29","arr":["А6","А8","А10","А11","А16","А18","А19","А20","А23","А28","Т27","Т29"],"terminus":0,"mode":"bus","color":"#0059a9","colorDark":"#00294f","angle":245.6,"snapDist":4,"label":1}},{"type":"Feature","geometry":{"type":"Point","coordinates":[25.923545,43.808153]},"properties":{"name":"Рибарска колиба - запад","lines":"6, 16","arr":["А6","А16"],"terminus":0,"mode":"bus","color":"#0059a9","colorDark":"#00294f","angle":308.2,"snapDist":4,"label":1}},{"type":"Feature","geometry":{"type":"Point","coordinates":[25.917573,43.796911]},"properties":{"name":"Хижа Приста","lines":"6, 16","arr":["А6","А16"],"terminus":0,"mode":"bus","color":"#0059a9","colorDark":"#00294f","angle":291.8,"snapDist":5,"label":1}},{"type":"Feature","geometry":{"type":"Point","coordinates":[25.922371,43.79465]},"properties":{"name":"Долапите, ЖП прелез - юг","lines":"6","arr":["А6"],"terminus":0,"mode":"bus","color":"#0059a9","colorDark":"#00294f","angle":214.8,"snapDist":6,"label":1}},{"type":"Feature","geometry":{"type":"Point","coordinates":[25.929909,43.795956]},"properties":{"name":"Църква Св. Архангел Михаил","lines":"6, 15","arr":["А6","А15"],"terminus":0,"mode":"bus","color":"#0059a9","colorDark":"#00294f","angle":135.7,"snapDist":6,"label":1}},{"type":"Feature","geometry":{"type":"Point","coordinates":[25.931832,43.797768]},"properties":{"name":"Долапите, Център - изток","lines":"6, 15","arr":["А6","А15"],"terminus":0,"mode":"bus","color":"#0059a9","colorDark":"#00294f","angle":115.2,"snapDist":6,"label":1}},{"type":"Feature","geometry":{"type":"Point","coordinates":[25.930263,43.805891]},"properties":{"name":"Средна кула 2, Изход към кв. Долапите - юг","lines":"6, 15","arr":["А6","А15"],"terminus":0,"mode":"bus","color":"#0059a9","colorDark":"#00294f","angle":150.5,"snapDist":10,"label":1}},{"type":"Feature","geometry":{"type":"Point","coordinates":[25.937189,43.806653]},"properties":{"name":"Средна Кула, Център - юг","lines":"6, 15","arr":["А6","А15"],"terminus":0,"mode":"bus","color":"#0059a9","colorDark":"#00294f","angle":181.3,"snapDist":4,"label":1}},{"type":"Feature","geometry":{"type":"Point","coordinates":[25.941222,43.806584]},"properties":{"name":"Средна кула 1, Вход от Русе - юг","lines":"6, 15","arr":["А6","А15"],"terminus":0,"mode":"bus","color":"#0059a9","colorDark":"#00294f","angle":181.7,"snapDist":11,"label":1}},{"type":"Feature","geometry":{"type":"Point","coordinates":[25.943068,43.806835]},"properties":{"name":"Кв. Средна кула, Триъгълника - изток","lines":"6, 8, 50","arr":["А6","А8","А50"],"terminus":0,"mode":"bus","color":"#0059a9","colorDark":"#00294f","angle":215.8,"snapDist":9,"label":1}},{"type":"Feature","geometry":{"type":"Point","coordinates":[25.946053,43.803391]},"properties":{"name":"Асфалтова база - изток","lines":"6, 8","arr":["А6","А8"],"terminus":1,"mode":"bus","color":"#0059a9","colorDark":"#00294f","angle":311.7,"snapDist":6,"label":1}},{"type":"Feature","geometry":{"type":"Point","coordinates":[25.945929,43.804249]},"properties":{"name":"Асфалтова база - запад","lines":"6, 8","arr":["А6","А8"],"terminus":1,"mode":"bus","color":"#0059a9","colorDark":"#00294f","angle":240.9,"snapDist":5,"label":1}},{"type":"Feature","geometry":{"type":"Point","coordinates":[25.943085,43.806826]},"properties":{"name":"Кв. Средна кула, Триъгълника - запад","lines":"6, 8, 50","arr":["А6","А8","А50"],"terminus":0,"mode":"bus","color":"#0059a9","colorDark":"#00294f","angle":35.8,"snapDist":9,"label":1}},{"type":"Feature","geometry":{"type":"Point","coordinates":[25.941188,43.806585]},"properties":{"name":"Средна кула 1, Вход от Русе - север","lines":"6, 15","arr":["А6","А15"],"terminus":0,"mode":"bus","color":"#0059a9","colorDark":"#00294f","angle":1.7,"snapDist":9,"label":1}},{"type":"Feature","geometry":{"type":"Point","coordinates":[25.937054,43.806656]},"properties":{"name":"Средна Кула, Център - север","lines":"6, 15","arr":["А6","А15"],"terminus":0,"mode":"bus","color":"#0059a9","colorDark":"#00294f","angle":1.9,"snapDist":6,"label":1}},{"type":"Feature","geometry":{"type":"Point","coordinates":[25.930274,43.805896]},"properties":{"name":"Средна кула 2, Изход към кв. Долапите - север","lines":"6, 15","arr":["А6","А15"],"terminus":0,"mode":"bus","color":"#0059a9","colorDark":"#00294f","angle":330.5,"snapDist":3,"label":1}},{"type":"Feature","geometry":{"type":"Point","coordinates":[25.931656,43.797723]},"properties":{"name":"Долапите, Център - юг","lines":"6, 15","arr":["А6","А15"],"terminus":0,"mode":"bus","color":"#0059a9","colorDark":"#00294f","angle":230.1,"snapDist":3,"label":1}},{"type":"Feature","geometry":{"type":"Point","coordinates":[25.92898,43.795478]},"properties":{"name":"Училище Христо Смирненски","lines":"6, 15","arr":["А6","А15"],"terminus":0,"mode":"bus","color":"#0059a9","colorDark":"#00294f","angle":325.1,"snapDist":5,"label":1}},{"type":"Feature","geometry":{"type":"Point","coordinates":[25.922371,43.79465]},"properties":{"name":"Долапите, ЖП прелез - север","lines":"6","arr":["А6"],"terminus":0,"mode":"bus","color":"#0059a9","colorDark":"#00294f","angle":34.8,"snapDist":3,"label":1}},{"type":"Feature","geometry":{"type":"Point","coordinates":[25.917989,43.796902]},"properties":{"name":"Старчески дом","lines":"6, 16","arr":["А6","А16"],"terminus":0,"mode":"bus","color":"#0059a9","colorDark":"#00294f","angle":111.8,"snapDist":10,"label":1}},{"type":"Feature","geometry":{"type":"Point","coordinates":[25.924671,43.808709]},"properties":{"name":"Рибарска колиба - изток","lines":"6, 16","arr":["А6","А16"],"terminus":0,"mode":"bus","color":"#0059a9","colorDark":"#00294f","angle":128.5,"snapDist":7,"label":1}},{"type":"Feature","geometry":{"type":"Point","coordinates":[25.928628,43.813678]},"properties":{"name":"Метро - север","lines":"6, 16","arr":["А6","А16"],"terminus":0,"mode":"bus","color":"#0059a9","colorDark":"#00294f","angle":-72.6,"snapDist":41,"label":1}},{"type":"Feature","geometry":{"type":"Point","coordinates":[25.932441,43.822088]},"properties":{"name":"Млекозавод","lines":"6, 16, 19, 2, 9, 24","arr":["А6","А16","А19","Т2","Т9","Т24"],"terminus":1,"mode":"bus","color":"#0059a9","colorDark":"#00294f","angle":117.3,"snapDist":8,"label":1}},{"type":"Feature","geometry":{"type":"Point","coordinates":[25.935501,43.826345]},"properties":{"name":"Пожарна","lines":"6, 16, 19, 2, 9, 24","arr":["А6","А16","А19","Т2","Т9","Т24"],"terminus":0,"mode":"bus","color":"#0059a9","colorDark":"#00294f","angle":127.4,"snapDist":14,"label":1}},{"type":"Feature","geometry":{"type":"Point","coordinates":[25.939035,43.831296]},"properties":{"name":"Оргахим (Дунавска коприна)","lines":"6, 16, 19, 2, 9, 24","arr":["А6","А16","А19","Т2","Т9","Т24"],"terminus":0,"mode":"bus","color":"#0059a9","colorDark":"#00294f","angle":118.6,"snapDist":12,"label":1}},{"type":"Feature","geometry":{"type":"Point","coordinates":[25.942131,43.834175]},"properties":{"name":"Фазан","lines":"6, 16, 19, 2, 9, 24","arr":["А6","А16","А19","Т2","Т9","Т24"],"terminus":0,"mode":"bus","color":"#0059a9","colorDark":"#00294f","angle":133,"snapDist":8,"label":1}},{"type":"Feature","geometry":{"type":"Point","coordinates":[25.960216,43.846979]},"properties":{"name":"Спортна зала ОЗК Арена Русе (Белведере)","lines":"6, 8, 10, 11, 16, 18, 19, 20, 28, 27, 29","arr":["А6","А8","А10","А11","А16","А18","А19","А20","А28","Т27","Т29"],"terminus":0,"mode":"bus","color":"#0059a9","colorDark":"#00294f","angle":77.6,"snapDist":15,"label":1}},{"type":"Feature","geometry":{"type":"Point","coordinates":[25.959034,43.849657]},"properties":{"name":"Пантеона","lines":"6, 8, 10, 11, 16, 18, 19, 20, 28, 27, 29","arr":["А6","А8","А10","А11","А16","А18","А19","А20","А28","Т27","Т29"],"terminus":0,"mode":"bus","color":"#0059a9","colorDark":"#00294f","angle":64.5,"snapDist":9,"label":1}},{"type":"Feature","geometry":{"type":"Point","coordinates":[25.960192,43.844952]},"properties":{"name":"Оборище","lines":"8, 10, 15, 28, 33, 9, 13, 21, 24, 27, 29","arr":["А8","А10","А15","А28","А33","Т9","Т13","Т21","Т24","Т27","Т29"],"terminus":0,"mode":"bus","color":"#0059a9","colorDark":"#00294f","angle":269.1,"snapDist":2,"label":1}},{"type":"Feature","geometry":{"type":"Point","coordinates":[25.960052,43.841152]},"properties":{"name":"Афродита (Кооперативен пазар)","lines":"8, 10, 15, 28, 33, 9, 13, 21, 24, 27, 29","arr":["А8","А10","А15","А28","А33","Т9","Т13","Т21","Т24","Т27","Т29"],"terminus":0,"mode":"bus","color":"#0059a9","colorDark":"#00294f","angle":283.2,"snapDist":4,"label":1}},{"type":"Feature","geometry":{"type":"Point","coordinates":[25.95088,43.840444]},"properties":{"name":"Аксаков","lines":"8","arr":["А8"],"terminus":0,"mode":"bus","color":"#0059a9","colorDark":"#00294f","angle":342.7,"snapDist":5,"label":1}},{"type":"Feature","geometry":{"type":"Point","coordinates":[25.945417,43.835161]},"properties":{"name":"Кожарски завод - запад","lines":"8, 50","arr":["А8","А50"],"terminus":0,"mode":"bus","color":"#0059a9","colorDark":"#00294f","angle":256.3,"snapDist":10,"label":1}},{"type":"Feature","geometry":{"type":"Point","coordinates":[25.945849,43.83012]},"properties":{"name":"ЗММ - запад","lines":"8","arr":["А8"],"terminus":0,"mode":"bus","color":"#0059a9","colorDark":"#00294f","angle":302.2,"snapDist":9,"label":1}},{"type":"Feature","geometry":{"type":"Point","coordinates":[25.943064,43.827371]},"properties":{"name":"Електрометал - запад","lines":"8, 50","arr":["А8","А50"],"terminus":0,"mode":"bus","color":"#0059a9","colorDark":"#00294f","angle":306.9,"snapDist":2,"label":1}},{"type":"Feature","geometry":{"type":"Point","coordinates":[25.937078,43.82156]},"properties":{"name":"Дъгов мост - запад","lines":"8, 50","arr":["А8","А50"],"terminus":0,"mode":"bus","color":"#0059a9","colorDark":"#00294f","angle":289.4,"snapDist":2,"label":1}},{"type":"Feature","geometry":{"type":"Point","coordinates":[25.939999,43.816097]},"properties":{"name":"Стрелбище - запад","lines":"8, 15","arr":["А8","А15"],"terminus":0,"mode":"bus","color":"#0059a9","colorDark":"#00294f","angle":253.7,"snapDist":10,"label":1}},{"type":"Feature","geometry":{"type":"Point","coordinates":[25.942282,43.812533]},"properties":{"name":"Русаново мостче - запад","lines":"8, 15, 50","arr":["А8","А15","А50"],"terminus":0,"mode":"bus","color":"#0059a9","colorDark":"#00294f","angle":237.1,"snapDist":7,"label":1}},{"type":"Feature","geometry":{"type":"Point","coordinates":[25.945981,43.798144]},"properties":{"name":"Гробищен парк Басарбово - вход","lines":"8, 50","arr":["А8","А50"],"terminus":1,"mode":"bus","color":"#0059a9","colorDark":"#00294f","angle":269.3,"snapDist":19,"label":1}},{"type":"Feature","geometry":{"type":"Point","coordinates":[25.94598,43.798231]},"properties":{"name":"Гробищен парк Басарбово - изход","lines":"8, 50","arr":["А8","А50"],"terminus":1,"mode":"bus","color":"#0059a9","colorDark":"#00294f","angle":89.3,"snapDist":7,"label":1}},{"type":"Feature","geometry":{"type":"Point","coordinates":[25.941551,43.813354]},"properties":{"name":"Русаново мостче - изток","lines":"8, 15, 50","arr":["А8","А15","А50"],"terminus":0,"mode":"bus","color":"#0059a9","colorDark":"#00294f","angle":57.5,"snapDist":4,"label":1}},{"type":"Feature","geometry":{"type":"Point","coordinates":[25.939957,43.816237]},"properties":{"name":"Стрелбище - изток","lines":"8, 15","arr":["А8","А15"],"terminus":0,"mode":"bus","color":"#0059a9","colorDark":"#00294f","angle":81.5,"snapDist":4,"label":1}},{"type":"Feature","geometry":{"type":"Point","coordinates":[25.937046,43.821494]},"properties":{"name":"Дъгов мост - изток","lines":"8, 50","arr":["А8","А50"],"terminus":0,"mode":"bus","color":"#0059a9","colorDark":"#00294f","angle":109.4,"snapDist":3,"label":1}},{"type":"Feature","geometry":{"type":"Point","coordinates":[25.942819,43.827097]},"properties":{"name":"Електрометал - изток","lines":"8, 50","arr":["А8","А50"],"terminus":0,"mode":"bus","color":"#0059a9","colorDark":"#00294f","angle":121,"snapDist":3,"label":1}},{"type":"Feature","geometry":{"type":"Point","coordinates":[25.946327,43.830791]},"properties":{"name":"ЗММ - изток","lines":"8","arr":["А8"],"terminus":0,"mode":"bus","color":"#0059a9","colorDark":"#00294f","angle":113.9,"snapDist":4,"label":1}},{"type":"Feature","geometry":{"type":"Point","coordinates":[25.945418,43.835158]},"properties":{"name":"Кожарски завод - изток","lines":"8, 50","arr":["А8","А50"],"terminus":0,"mode":"bus","color":"#0059a9","colorDark":"#00294f","angle":76.3,"snapDist":3,"label":1}},{"type":"Feature","geometry":{"type":"Point","coordinates":[25.954762,43.840903]},"properties":{"name":"Орхидея - изток","lines":"8, 11, 12, 18, 23","arr":["А8","А11","А12","А18","А23"],"terminus":0,"mode":"bus","color":"#0059a9","colorDark":"#00294f","angle":84,"snapDist":5,"label":1}},{"type":"Feature","geometry":{"type":"Point","coordinates":[25.956551,43.84242]},"properties":{"name":"Електрон","lines":"8","arr":["А8"],"terminus":0,"mode":"bus","color":"#0059a9","colorDark":"#00294f","angle":200.4,"snapDist":6,"label":1}},{"type":"Feature","geometry":{"type":"Point","coordinates":[25.960616,43.842782]},"properties":{"name":"Кооперативен пазар","lines":"8","arr":["А8"],"terminus":0,"mode":"bus","color":"#0059a9","colorDark":"#00294f","angle":88.7,"snapDist":5,"label":1}},{"type":"Feature","geometry":{"type":"Point","coordinates":[25.969484,43.832922]},"properties":{"name":"Технополис (Печатни платки)","lines":"10, 23, 28, 33, 9, 13, 21, 24, 27, 29","arr":["А10","А23","А28","А33","Т9","Т13","Т21","Т24","Т27","Т29"],"terminus":0,"mode":"bus","color":"#0059a9","colorDark":"#00294f","angle":223,"snapDist":7,"label":1}},{"type":"Feature","geometry":{"type":"Point","coordinates":[25.978742,43.838523]},"properties":{"name":"Гробищен парк Чародейка - юг","lines":"10","arr":["А10"],"terminus":0,"mode":"bus","color":"#0059a9","colorDark":"#00294f","angle":185.5,"snapDist":10,"label":1}},{"type":"Feature","geometry":{"type":"Point","coordinates":[25.98577,43.840461]},"properties":{"name":"Николов ЕООД - юг","lines":"10","arr":["А10"],"terminus":0,"mode":"bus","color":"#0059a9","colorDark":"#00294f","angle":181.2,"snapDist":13,"label":1}},{"type":"Feature","geometry":{"type":"Point","coordinates":[25.990092,43.840282]},"properties":{"name":"Интертрейд - юг","lines":"10","arr":["А10"],"terminus":0,"mode":"bus","color":"#0059a9","colorDark":"#00294f","angle":181.8,"snapDist":7,"label":1}},{"type":"Feature","geometry":{"type":"Point","coordinates":[26.000123,43.837999]},"properties":{"name":"Автосервиз Колев - юг","lines":"10","arr":["А10"],"terminus":0,"mode":"bus","color":"#0059a9","colorDark":"#00294f","angle":188.6,"snapDist":11,"label":1}},{"type":"Feature","geometry":{"type":"Point","coordinates":[26.005609,43.836724]},"properties":{"name":"Вилна зона Касева чешма - юг","lines":"10","arr":["А10"],"terminus":0,"mode":"bus","color":"#0059a9","colorDark":"#00294f","angle":181.2,"snapDist":6,"label":1}},{"type":"Feature","geometry":{"type":"Point","coordinates":[26.015376,43.834025]},"properties":{"name":"Завоя - юг","lines":"10","arr":["А10"],"terminus":0,"mode":"bus","color":"#0059a9","colorDark":"#00294f","angle":245.2,"snapDist":2,"label":1}},{"type":"Feature","geometry":{"type":"Point","coordinates":[26.018208,43.830388]},"properties":{"name":"Вилна зона Боровете - юг","lines":"10","arr":["А10"],"terminus":0,"mode":"bus","color":"#0059a9","colorDark":"#00294f","angle":235.5,"snapDist":7,"label":1}},{"type":"Feature","geometry":{"type":"Point","coordinates":[26.024458,43.827364]},"properties":{"name":"Вилна зона Акациите - юг","lines":"10","arr":["А10"],"terminus":0,"mode":"bus","color":"#0059a9","colorDark":"#00294f","angle":214.9,"snapDist":8,"label":1}},{"type":"Feature","geometry":{"type":"Point","coordinates":[26.031773,43.826234]},"properties":{"name":"Прелеза, Обръщало","lines":"10","arr":["А10"],"terminus":1,"mode":"bus","color":"#0059a9","colorDark":"#00294f","angle":180.5,"snapDist":4,"label":1}},{"type":"Feature","geometry":{"type":"Point","coordinates":[26.023937,43.827652]},"properties":{"name":"Вилна зона Акациите - север","lines":"10","arr":["А10"],"terminus":0,"mode":"bus","color":"#0059a9","colorDark":"#00294f","angle":38.7,"snapDist":1,"label":1}},{"type":"Feature","geometry":{"type":"Point","coordinates":[26.018197,43.8304]},"properties":{"name":"Вилна зона Боровете - север","lines":"10","arr":["А10"],"terminus":0,"mode":"bus","color":"#0059a9","colorDark":"#00294f","angle":55.5,"snapDist":3,"label":1}},{"type":"Feature","geometry":{"type":"Point","coordinates":[26.01533,43.834071]},"properties":{"name":"Завоя - север","lines":"10","arr":["А10"],"terminus":0,"mode":"bus","color":"#0059a9","colorDark":"#00294f","angle":39.6,"snapDist":2,"label":1}},{"type":"Feature","geometry":{"type":"Point","coordinates":[26.005344,43.836732]},"properties":{"name":"Вилна зона Касева чешма - север","lines":"10","arr":["А10"],"terminus":0,"mode":"bus","color":"#0059a9","colorDark":"#00294f","angle":4.1,"snapDist":4,"label":1}},{"type":"Feature","geometry":{"type":"Point","coordinates":[25.999807,43.838033]},"properties":{"name":"Автосервиз Колев - север","lines":"10","arr":["А10"],"terminus":0,"mode":"bus","color":"#0059a9","colorDark":"#00294f","angle":8.6,"snapDist":3,"label":1}},{"type":"Feature","geometry":{"type":"Point","coordinates":[25.990052,43.840283]},"properties":{"name":"Интертрейд - север","lines":"10","arr":["А10"],"terminus":0,"mode":"bus","color":"#0059a9","colorDark":"#00294f","angle":1.8,"snapDist":3,"label":1}},{"type":"Feature","geometry":{"type":"Point","coordinates":[25.985987,43.840458]},"properties":{"name":"Николов ЕООД - север","lines":"10","arr":["А10"],"terminus":0,"mode":"bus","color":"#0059a9","colorDark":"#00294f","angle":1.2,"snapDist":5,"label":1}},{"type":"Feature","geometry":{"type":"Point","coordinates":[25.978944,43.838512]},"properties":{"name":"Гробищен парк Чародейка - север","lines":"10","arr":["А10"],"terminus":0,"mode":"bus","color":"#0059a9","colorDark":"#00294f","angle":1.8,"snapDist":4,"label":1}},{"type":"Feature","geometry":{"type":"Point","coordinates":[25.969337,43.833298]},"properties":{"name":"Печатни платки","lines":"10, 33, 9, 21, 29","arr":["А10","А33","Т9","Т21","Т29"],"terminus":0,"mode":"bus","color":"#0059a9","colorDark":"#00294f","angle":42.6,"snapDist":6,"label":1}},{"type":"Feature","geometry":{"type":"Point","coordinates":[25.960309,43.840736]},"properties":{"name":"Училище Йордан Йовков (Кооперативен пазар)","lines":"10, 15, 28, 33, 9, 13, 21, 24, 27, 29","arr":["А10","А15","А28","А33","Т9","Т13","Т21","Т24","Т27","Т29"],"terminus":0,"mode":"bus","color":"#0059a9","colorDark":"#00294f","angle":103.3,"snapDist":15,"label":1}},{"type":"Feature","geometry":{"type":"Point","coordinates":[25.953358,43.827004]},"properties":{"name":"Ул. Мальовица 1 - юг","lines":"11","arr":["А11"],"terminus":1,"mode":"bus","color":"#0059a9","colorDark":"#00294f","angle":151.5,"snapDist":3,"label":1}},{"type":"Feature","geometry":{"type":"Point","coordinates":[25.958663,43.828692]},"properties":{"name":"Ул. Мальовица 2 - юг","lines":"11","arr":["А11"],"terminus":0,"mode":"bus","color":"#0059a9","colorDark":"#00294f","angle":153.8,"snapDist":7,"label":1}},{"type":"Feature","geometry":{"type":"Point","coordinates":[25.955808,43.834798]},"properties":{"name":"Централна жп гара, ул. Борисова","lines":"11, 12, 23","arr":["А11","А12","А23"],"terminus":1,"mode":"bus","color":"#0059a9","colorDark":"#00294f","angle":81.9,"snapDist":10,"label":1}},{"type":"Feature","geometry":{"type":"Point","coordinates":[25.955207,43.838214]},"properties":{"name":"Лермонтов","lines":"11, 12, 23","arr":["А11","А12","А23"],"terminus":0,"mode":"bus","color":"#0059a9","colorDark":"#00294f","angle":83.6,"snapDist":12,"label":1}},{"type":"Feature","geometry":{"type":"Point","coordinates":[25.954229,43.844013]},"properties":{"name":"Медицински център - изток","lines":"11, 12, 18, 23","arr":["А11","А12","А18","А23"],"terminus":0,"mode":"bus","color":"#0059a9","colorDark":"#00294f","angle":82.3,"snapDist":10,"label":1}},{"type":"Feature","geometry":{"type":"Point","coordinates":[25.962674,43.853804]},"properties":{"name":"Окръжна болница (Парк на Възрожденците)","lines":"11, 16, 18, 19, 20, 28, 30, 27, 29","arr":["А11","А16","А18","А19","А20","А28","А30","Т27","Т29"],"terminus":0,"mode":"bus","color":"#0059a9","colorDark":"#00294f","angle":163.6,"snapDist":9,"label":1}},{"type":"Feature","geometry":{"type":"Point","coordinates":[25.965695,43.854732]},"properties":{"name":"Първа пролет","lines":"11, 16, 18, 19, 20, 28, 30, 27, 29","arr":["А11","А16","А18","А19","А20","А28","А30","Т27","Т29"],"terminus":0,"mode":"bus","color":"#0059a9","colorDark":"#00294f","angle":146,"snapDist":12,"label":1}},{"type":"Feature","geometry":{"type":"Point","coordinates":[25.969,43.856329]},"properties":{"name":"Русенски университет - юг","lines":"11, 16, 18, 19, 20, 28, 30, 27, 29","arr":["А11","А16","А18","А19","А20","А28","А30","Т27","Т29"],"terminus":0,"mode":"bus","color":"#0059a9","colorDark":"#00294f","angle":146.5,"snapDist":10,"label":1}},{"type":"Feature","geometry":{"type":"Point","coordinates":[25.973391,43.858446]},"properties":{"name":"Плиска (Париж)","lines":"11, 16, 18, 19, 20, 28, 30, 27, 29","arr":["А11","А16","А18","А19","А20","А28","А30","Т27","Т29"],"terminus":0,"mode":"bus","color":"#0059a9","colorDark":"#00294f","angle":145.9,"snapDist":10,"label":1}},{"type":"Feature","geometry":{"type":"Point","coordinates":[25.972191,43.858941]},"properties":{"name":"Училище Братя Миладинови","lines":"11, 16, 18, 19, 20, 28, 30, 27, 29","arr":["А11","А16","А18","А19","А20","А28","А30","Т27","Т29"],"terminus":0,"mode":"bus","color":"#0059a9","colorDark":"#00294f","angle":325.1,"snapDist":8,"label":1}},{"type":"Feature","geometry":{"type":"Point","coordinates":[25.967802,43.856831]},"properties":{"name":"Русенски университет - север","lines":"11, 16, 18, 19, 20, 28, 30, 27, 29","arr":["А11","А16","А18","А19","А20","А28","А30","Т27","Т29"],"terminus":0,"mode":"bus","color":"#0059a9","colorDark":"#00294f","angle":326.8,"snapDist":6,"label":1}},{"type":"Feature","geometry":{"type":"Point","coordinates":[25.963623,43.855105]},"properties":{"name":"Гимназия по механотехника (Окръжна болница)","lines":"11, 16, 18, 19, 20, 28, 30, 27, 29","arr":["А11","А16","А18","А19","А20","А28","А30","Т27","Т29"],"terminus":0,"mode":"bus","color":"#0059a9","colorDark":"#00294f","angle":26.9,"snapDist":5,"label":1}},{"type":"Feature","geometry":{"type":"Point","coordinates":[25.954125,43.844563]},"properties":{"name":"Медицински център - запад","lines":"11, 12, 18, 23","arr":["А11","А12","А18","А23"],"terminus":0,"mode":"bus","color":"#0059a9","colorDark":"#00294f","angle":262.3,"snapDist":10,"label":1}},{"type":"Feature","geometry":{"type":"Point","coordinates":[25.95479,43.840727]},"properties":{"name":"Орхидея - запад","lines":"11, 12, 18, 23","arr":["А11","А12","А18","А23"],"terminus":0,"mode":"bus","color":"#0059a9","colorDark":"#00294f","angle":263.1,"snapDist":8,"label":1}},{"type":"Feature","geometry":{"type":"Point","coordinates":[25.955268,43.837812]},"properties":{"name":"Некрасов","lines":"11, 12, 18, 23","arr":["А11","А12","А18","А23"],"terminus":0,"mode":"bus","color":"#0059a9","colorDark":"#00294f","angle":263.7,"snapDist":4,"label":1}},{"type":"Feature","geometry":{"type":"Point","coordinates":[25.955295,43.834177]},"properties":{"name":"Александър Стамболийски - север (Централна жп гара)","lines":"11, 15, 18, 23","arr":["А11","А15","А18","А23"],"terminus":0,"mode":"bus","color":"#0059a9","colorDark":"#00294f","angle":321.8,"snapDist":4,"label":1}},{"type":"Feature","geometry":{"type":"Point","coordinates":[25.951648,43.832147]},"properties":{"name":"Мидия Енос - север","lines":"11, 15, 18, 23","arr":["А11","А15","А18","А23"],"terminus":0,"mode":"bus","color":"#0059a9","colorDark":"#00294f","angle":332.5,"snapDist":5,"label":1}},{"type":"Feature","geometry":{"type":"Point","coordinates":[25.950006,43.828425]},"properties":{"name":"Пътен възел Охлюва - изток","lines":"11, 15, 18, 23","arr":["А11","А15","А18","А23"],"terminus":0,"mode":"bus","color":"#0059a9","colorDark":"#00294f","angle":141.2,"snapDist":10,"label":1}},{"type":"Feature","geometry":{"type":"Point","coordinates":[25.95337,43.830794]},"properties":{"name":"Училище Алеко Константинов - юг","lines":"11, 18, 23","arr":["А11","А18","А23"],"terminus":0,"mode":"bus","color":"#0059a9","colorDark":"#00294f","angle":150.8,"snapDist":6,"label":1}},{"type":"Feature","geometry":{"type":"Point","coordinates":[25.956385,43.831977]},"properties":{"name":"Левента - юг","lines":"11, 18, 23","arr":["А11","А18","А23"],"terminus":0,"mode":"bus","color":"#0059a9","colorDark":"#00294f","angle":153,"snapDist":10,"label":1}},{"type":"Feature","geometry":{"type":"Point","coordinates":[25.959998,43.830214]},"properties":{"name":"Помпена станция - запад","lines":"11, 18, 23","arr":["А11","А18","А23"],"terminus":0,"mode":"bus","color":"#0059a9","colorDark":"#00294f","angle":220.6,"snapDist":2,"label":1}},{"type":"Feature","geometry":{"type":"Point","coordinates":[25.958718,43.828712]},"properties":{"name":"Ул. Мальовица 2 - север","lines":"11","arr":["А11"],"terminus":0,"mode":"bus","color":"#0059a9","colorDark":"#00294f","angle":333.8,"snapDist":3,"label":1}},{"type":"Feature","geometry":{"type":"Point","coordinates":[25.953658,43.82711]},"properties":{"name":"Ул. Мальовица 1 - север","lines":"11","arr":["А11"],"terminus":1,"mode":"bus","color":"#0059a9","colorDark":"#00294f","angle":334.9,"snapDist":4,"label":1}},{"type":"Feature","geometry":{"type":"Point","coordinates":[26.003586,43.853591]},"properties":{"name":"Мототехника","lines":"12, 15, 18, 2","arr":["А12","А15","А18","Т2"],"terminus":1,"mode":"bus","color":"#0059a9","colorDark":"#00294f","angle":170.8,"snapDist":6,"label":1}},{"type":"Feature","geometry":{"type":"Point","coordinates":[26.014984,43.860363]},"properties":{"name":"Хотел Фамилия - запад","lines":"12","arr":["А12"],"terminus":0,"mode":"bus","color":"#0059a9","colorDark":"#00294f","angle":-85.2,"snapDist":39,"label":1}},{"type":"Feature","geometry":{"type":"Point","coordinates":[26.002658,43.853618]},"properties":{"name":"КАТ","lines":"12, 15, 18, 2","arr":["А12","А15","А18","Т2"],"terminus":1,"mode":"bus","color":"#0059a9","colorDark":"#00294f","angle":349.9,"snapDist":5,"label":1}},{"type":"Feature","geometry":{"type":"Point","coordinates":[25.997232,43.852906]},"properties":{"name":"Бизнес център Авко","lines":"12, 15, 16, 18, 33, 50, 2, 13, 21","arr":["А12","А15","А16","А18","А33","А50","Т2","Т13","Т21"],"terminus":0,"mode":"bus","color":"#0059a9","colorDark":"#00294f","angle":349.8,"snapDist":7,"label":1}},{"type":"Feature","geometry":{"type":"Point","coordinates":[25.99036,43.852014]},"properties":{"name":"МОЛ Русе (3-та поликлиника)","lines":"12, 15, 16, 18, 33, 50, 2, 13, 21","arr":["А12","А15","А16","А18","А33","А50","Т2","Т13","Т21"],"terminus":0,"mode":"bus","color":"#0059a9","colorDark":"#00294f","angle":350,"snapDist":11,"label":1}},{"type":"Feature","geometry":{"type":"Point","coordinates":[25.955811,43.834781]},"properties":{"name":"Космос (Централна жп гара)","lines":"12","arr":["А12"],"terminus":1,"mode":"bus","color":"#0059a9","colorDark":"#00294f","angle":261.9,"snapDist":5,"label":1}},{"type":"Feature","geometry":{"type":"Point","coordinates":[25.922517,43.788965]},"properties":{"name":"Несебър - запад","lines":"15","arr":["А15"],"terminus":0,"mode":"bus","color":"#0059a9","colorDark":"#00294f","angle":305.5,"snapDist":5,"label":1}},{"type":"Feature","geometry":{"type":"Point","coordinates":[25.920643,43.784124]},"properties":{"name":"Стрелбището","lines":"15","arr":["А15"],"terminus":1,"mode":"bus","color":"#0059a9","colorDark":"#00294f","angle":83.8,"snapDist":17,"label":1}},{"type":"Feature","geometry":{"type":"Point","coordinates":[25.922721,43.789158]},"properties":{"name":"Несебър - изток","lines":"15","arr":["А15"],"terminus":0,"mode":"bus","color":"#0059a9","colorDark":"#00294f","angle":128.6,"snapDist":5,"label":1}},{"type":"Feature","geometry":{"type":"Point","coordinates":[25.997468,43.857617]},"properties":{"name":"Гара Разпределителна","lines":"16, 33, 13, 21","arr":["А16","А33","Т13","Т21"],"terminus":1,"mode":"bus","color":"#0059a9","colorDark":"#00294f","angle":35.7,"snapDist":4,"label":1}},{"type":"Feature","geometry":{"type":"Point","coordinates":[25.99736,43.854997]},"properties":{"name":"Автогара Изток - запад","lines":"16, 33, 13, 21","arr":["А16","А33","Т13","Т21"],"terminus":0,"mode":"bus","color":"#0059a9","colorDark":"#00294f","angle":259.7,"snapDist":12,"label":0}},{"type":"Feature","geometry":{"type":"Point","coordinates":[25.914009,43.788751]},"properties":{"name":"КПП - запад","lines":"16","arr":["А16"],"terminus":0,"mode":"bus","color":"#0059a9","colorDark":"#00294f","angle":285,"snapDist":9,"label":1}},{"type":"Feature","geometry":{"type":"Point","coordinates":[25.897455,43.77428]},"properties":{"name":"9-ти километър - запад","lines":"16","arr":["А16"],"terminus":0,"mode":"bus","color":"#0059a9","colorDark":"#00294f","angle":275.9,"snapDist":10,"label":1}},{"type":"Feature","geometry":{"type":"Point","coordinates":[25.887122,43.766119]},"properties":{"name":"Петролна база, Централна - север","lines":"16","arr":["А16"],"terminus":0,"mode":"bus","color":"#0059a9","colorDark":"#00294f","angle":1.7,"snapDist":4,"label":1}},{"type":"Feature","geometry":{"type":"Point","coordinates":[25.887152,43.766118]},"properties":{"name":"Петролна база, Централна - юг","lines":"16","arr":["А16"],"terminus":0,"mode":"bus","color":"#0059a9","colorDark":"#00294f","angle":181.7,"snapDist":13,"label":1}},{"type":"Feature","geometry":{"type":"Point","coordinates":[25.90271,43.763379]},"properties":{"name":"16-ти километър, Обръщало","lines":"16","arr":["А16"],"terminus":1,"mode":"bus","color":"#0059a9","colorDark":"#00294f","angle":267.9,"snapDist":13,"label":1}},{"type":"Feature","geometry":{"type":"Point","coordinates":[25.897528,43.774849]},"properties":{"name":"9-ти километър - изток","lines":"16","arr":["А16"],"terminus":0,"mode":"bus","color":"#0059a9","colorDark":"#00294f","angle":95.4,"snapDist":8,"label":1}},{"type":"Feature","geometry":{"type":"Point","coordinates":[25.914251,43.789594]},"properties":{"name":"КПП - изток","lines":"16","arr":["А16"],"terminus":0,"mode":"bus","color":"#0059a9","colorDark":"#00294f","angle":102.8,"snapDist":8,"label":1}},{"type":"Feature","geometry":{"type":"Point","coordinates":[25.997076,43.852755]},"properties":{"name":"Училище Васил Априлов","lines":"16, 33, 50, 13, 21","arr":["А16","А33","А50","Т13","Т21"],"terminus":0,"mode":"bus","color":"#0059a9","colorDark":"#00294f","angle":169.9,"snapDist":6,"label":1}},{"type":"Feature","geometry":{"type":"Point","coordinates":[25.997216,43.855573]},"properties":{"name":"Автогара Изток - изток","lines":"16, 33, 50, 13, 21","arr":["А16","А33","А50","Т13","Т21"],"terminus":1,"mode":"bus","color":"#0059a9","colorDark":"#00294f","angle":79.7,"snapDist":3,"label":1}},{"type":"Feature","geometry":{"type":"Point","coordinates":[25.96343,43.827728]},"properties":{"name":"бул. Васил Левски - запад","lines":"18","arr":["А18"],"terminus":0,"mode":"bus","color":"#0059a9","colorDark":"#00294f","angle":-131.9,"snapDist":6,"label":0}},{"type":"Feature","geometry":{"type":"Point","coordinates":[25.95717,43.846759]},"properties":{"name":"Младежки дом","lines":"19","arr":["А19"],"terminus":0,"mode":"bus","color":"#0059a9","colorDark":"#00294f","angle":356.9,"snapDist":1,"label":1}},{"type":"Feature","geometry":{"type":"Point","coordinates":[25.950297,43.846363]},"properties":{"name":"Механа Странджата","lines":"19, 23","arr":["А19","А23"],"terminus":0,"mode":"bus","color":"#0059a9","colorDark":"#00294f","angle":359,"snapDist":1,"label":1}},{"type":"Feature","geometry":{"type":"Point","coordinates":[25.947784,43.84458]},"properties":{"name":"Училище Христо Ботев","lines":"19","arr":["А19"],"terminus":0,"mode":"bus","color":"#0059a9","colorDark":"#00294f","angle":334.3,"snapDist":1,"label":1}},{"type":"Feature","geometry":{"type":"Point","coordinates":[25.947648,43.840968]},"properties":{"name":"Чайка - запад","lines":"19","arr":["А19"],"terminus":0,"mode":"bus","color":"#0059a9","colorDark":"#00294f","angle":-130.9,"snapDist":11,"label":1}},{"type":"Feature","geometry":{"type":"Point","coordinates":[25.995832,43.850732]},"properties":{"name":"Ж.К. Изток, пл. Прага - север","lines":"20","arr":["А20"],"terminus":1,"mode":"bus","color":"#0059a9","colorDark":"#00294f","angle":332.9,"snapDist":6,"label":1}},{"type":"Feature","geometry":{"type":"Point","coordinates":[25.982361,43.850354]},"properties":{"name":"Ул. Юндола, Блок №7","lines":"20, 30","arr":["А20","А30"],"terminus":0,"mode":"bus","color":"#0059a9","colorDark":"#00294f","angle":260.8,"snapDist":5,"label":1}},{"type":"Feature","geometry":{"type":"Point","coordinates":[25.983779,43.84639]},"properties":{"name":"Ул. Юндола, Блок №16","lines":"20, 30","arr":["А20","А30"],"terminus":0,"mode":"bus","color":"#0059a9","colorDark":"#00294f","angle":242.6,"snapDist":6,"label":1}},{"type":"Feature","geometry":{"type":"Point","coordinates":[25.996253,43.850899]},"properties":{"name":"Ж.К. Изток, пл. Прага - юг","lines":"20","arr":["А20"],"terminus":1,"mode":"bus","color":"#0059a9","colorDark":"#00294f","angle":147.3,"snapDist":6,"label":1}},{"type":"Feature","geometry":{"type":"Point","coordinates":[25.970845,43.830283]},"properties":{"name":"Блок №6","lines":"23, 28, 13, 24, 27","arr":["А23","А28","Т13","Т24","Т27"],"terminus":0,"mode":"bus","color":"#0059a9","colorDark":"#00294f","angle":-44.6,"snapDist":47,"label":1}},{"type":"Feature","geometry":{"type":"Point","coordinates":[25.959172,43.838551]},"properties":{"name":"ЦЮР","lines":"23","arr":["А23"],"terminus":0,"mode":"bus","color":"#0059a9","colorDark":"#00294f","angle":284.8,"snapDist":7,"label":1}},{"type":"Feature","geometry":{"type":"Point","coordinates":[25.954011,43.845271]},"properties":{"name":"Ул. Борисова (Бивш Рибен Магазин)","lines":"23","arr":["А23"],"terminus":0,"mode":"bus","color":"#0059a9","colorDark":"#00294f","angle":84.2,"snapDist":12,"label":1}},{"type":"Feature","geometry":{"type":"Point","coordinates":[25.949088,43.850818]},"properties":{"name":"Ресторант Тераса","lines":"23","arr":["А23"],"terminus":0,"mode":"bus","color":"#0059a9","colorDark":"#00294f","angle":126.8,"snapDist":5,"label":1}},{"type":"Feature","geometry":{"type":"Point","coordinates":[25.953365,43.852537]},"properties":{"name":"Хотел Рига","lines":"23, 30","arr":["А23","А30"],"terminus":1,"mode":"bus","color":"#0059a9","colorDark":"#00294f","angle":182,"snapDist":9,"label":1}},{"type":"Feature","geometry":{"type":"Point","coordinates":[25.958502,43.854157]},"properties":{"name":"Детска градина Радост","lines":"23","arr":["А23"],"terminus":0,"mode":"bus","color":"#0059a9","colorDark":"#00294f","angle":135.8,"snapDist":5,"label":1}},{"type":"Feature","geometry":{"type":"Point","coordinates":[25.959945,43.857695]},"properties":{"name":"УМБАЛ Канев - ДКЦ 1","lines":"23","arr":["А23"],"terminus":0,"mode":"bus","color":"#0059a9","colorDark":"#00294f","angle":41.9,"snapDist":7,"label":1}},{"type":"Feature","geometry":{"type":"Point","coordinates":[26.038483,43.870291]},"properties":{"name":"Керос (Монтюпе)","lines":"28","arr":["А28"],"terminus":1,"mode":"bus","color":"#0059a9","colorDark":"#00294f","angle":56.3,"snapDist":8,"label":1}},{"type":"Feature","geometry":{"type":"Point","coordinates":[26.026322,43.879177]},"properties":{"name":"Слатина - изток","lines":"28","arr":["А28"],"terminus":0,"mode":"bus","color":"#0059a9","colorDark":"#00294f","angle":40.3,"snapDist":5,"label":1}},{"type":"Feature","geometry":{"type":"Point","coordinates":[26.019967,43.87858]},"properties":{"name":"Гранична полиция - изток","lines":"28","arr":["А28"],"terminus":0,"mode":"bus","color":"#0059a9","colorDark":"#00294f","angle":315.5,"snapDist":7,"label":1}},{"type":"Feature","geometry":{"type":"Point","coordinates":[26.015556,43.875608]},"properties":{"name":"Дунав мост","lines":"28","arr":["А28"],"terminus":0,"mode":"bus","color":"#0059a9","colorDark":"#00294f","angle":300.5,"snapDist":4,"label":1}},{"type":"Feature","geometry":{"type":"Point","coordinates":[26.02009,43.878488]},"properties":{"name":"Гранична полиция - запад","lines":"28","arr":["А28"],"terminus":0,"mode":"bus","color":"#0059a9","colorDark":"#00294f","angle":136.5,"snapDist":12,"label":1}},{"type":"Feature","geometry":{"type":"Point","coordinates":[26.026484,43.879077]},"properties":{"name":"Слатина - запад","lines":"28","arr":["А28"],"terminus":0,"mode":"bus","color":"#0059a9","colorDark":"#00294f","angle":220.6,"snapDist":10,"label":1}},{"type":"Feature","geometry":{"type":"Point","coordinates":[25.979894,43.848929]},"properties":{"name":"Пазар Здравец","lines":"30","arr":["А30"],"terminus":0,"mode":"bus","color":"#0059a9","colorDark":"#00294f","angle":72.4,"snapDist":6,"label":1}},{"type":"Feature","geometry":{"type":"Point","coordinates":[25.957328,43.851793]},"properties":{"name":"ЦБА - север","lines":"30","arr":["А30"],"terminus":0,"mode":"bus","color":"#0059a9","colorDark":"#00294f","angle":54.6,"snapDist":7,"label":1}},{"type":"Feature","geometry":{"type":"Point","coordinates":[25.957288,43.851833]},"properties":{"name":"ЦБА - юг","lines":"30","arr":["А30"],"terminus":0,"mode":"bus","color":"#0059a9","colorDark":"#00294f","angle":234.6,"snapDist":35,"label":1}},{"type":"Feature","geometry":{"type":"Point","coordinates":[25.976026,43.828767]},"properties":{"name":"Дом майка и бебе","lines":"33","arr":["А33"],"terminus":0,"mode":"bus","color":"#0059a9","colorDark":"#00294f","angle":222.2,"snapDist":5,"label":1}},{"type":"Feature","geometry":{"type":"Point","coordinates":[25.980388,43.823467]},"properties":{"name":"Изгрев - запад","lines":"33","arr":["А33"],"terminus":0,"mode":"bus","color":"#0059a9","colorDark":"#00294f","angle":255.6,"snapDist":7,"label":1}},{"type":"Feature","geometry":{"type":"Point","coordinates":[25.981755,43.814201]},"properties":{"name":"Паметник на Русофилите - запад","lines":"33","arr":["А33"],"terminus":0,"mode":"bus","color":"#0059a9","colorDark":"#00294f","angle":93.5,"snapDist":20,"label":1}},{"type":"Feature","geometry":{"type":"Point","coordinates":[25.984483,43.804827]},"properties":{"name":"Джъмбо","lines":"33","arr":["А33"],"terminus":0,"mode":"bus","color":"#0059a9","colorDark":"#00294f","angle":142.3,"snapDist":17,"label":1}},{"type":"Feature","geometry":{"type":"Point","coordinates":[26.014836,43.783615]},"properties":{"name":"ДЗС - север","lines":"33","arr":["А33"],"terminus":0,"mode":"bus","color":"#0059a9","colorDark":"#00294f","angle":120.9,"snapDist":2,"label":1}},{"type":"Feature","geometry":{"type":"Point","coordinates":[26.018734,43.78784]},"properties":{"name":"Зърносъхранение - юг","lines":"33","arr":["А33"],"terminus":0,"mode":"bus","color":"#0059a9","colorDark":"#00294f","angle":137.5,"snapDist":3,"label":1}},{"type":"Feature","geometry":{"type":"Point","coordinates":[26.031527,43.793528]},"properties":{"name":"Образцов чифлик","lines":"33","arr":["А33"],"terminus":1,"mode":"bus","color":"#0059a9","colorDark":"#00294f","angle":48.2,"snapDist":44,"label":1}},{"type":"Feature","geometry":{"type":"Point","coordinates":[26.018727,43.787835]},"properties":{"name":"Зърносъхранение - север","lines":"33","arr":["А33"],"terminus":0,"mode":"bus","color":"#0059a9","colorDark":"#00294f","angle":317.5,"snapDist":3,"label":1}},{"type":"Feature","geometry":{"type":"Point","coordinates":[25.9819,43.813222]},"properties":{"name":"Паметник на Русофилите - изток","lines":"33","arr":["А33"],"terminus":0,"mode":"bus","color":"#0059a9","colorDark":"#00294f","angle":-93.2,"snapDist":21,"label":1}},{"type":"Feature","geometry":{"type":"Point","coordinates":[25.980496,43.823588]},"properties":{"name":"Изгрев - изток","lines":"33","arr":["А33"],"terminus":0,"mode":"bus","color":"#0059a9","colorDark":"#00294f","angle":74.1,"snapDist":5,"label":1}},{"type":"Feature","geometry":{"type":"Point","coordinates":[25.975065,43.829624]},"properties":{"name":"Блок №121","lines":"33","arr":["А33"],"terminus":0,"mode":"bus","color":"#0059a9","colorDark":"#00294f","angle":35.4,"snapDist":5,"label":1}},{"type":"Feature","geometry":{"type":"Point","coordinates":[25.997622,43.853955]},"properties":{"name":"Автогара Изток - запад","lines":"50","arr":["А50"],"terminus":1,"mode":"bus","color":"#0059a9","colorDark":"#00294f","angle":259.7,"snapDist":6,"label":1}},{"type":"Feature","geometry":{"type":"Point","coordinates":[25.979511,43.904682]},"properties":{"name":"4 Pietre","lines":"1, 3, 4, 5, 7","arr":["G1","G3","G4","G5","G7"],"terminus":1,"mode":"bus","color":"#0059a9","colorDark":"#00294f","angle":292.7,"snapDist":5,"label":1}},{"type":"Feature","geometry":{"type":"Point","coordinates":[25.976113,43.899556]},"properties":{"name":"Direcția Silvică","lines":"1, 3, 4, 7","arr":["G1","G3","G4","G7"],"terminus":0,"mode":"bus","color":"#0059a9","colorDark":"#00294f","angle":126.2,"snapDist":8,"label":1}},{"type":"Feature","geometry":{"type":"Point","coordinates":[25.971188,43.896039]},"properties":{"name":"Sârguința","lines":"1, 3, 6, 7","arr":["G1","G3","G6","G7"],"terminus":0,"mode":"bus","color":"#0059a9","colorDark":"#00294f","angle":301,"snapDist":5,"label":1}},{"type":"Feature","geometry":{"type":"Point","coordinates":[25.966732,43.891429]},"properties":{"name":"Piața Centrală","lines":"1, 2, 3, 4, 5, 6, 7","arr":["G1","G2","G3","G4","G5","G6","G7"],"terminus":1,"mode":"bus","color":"#0059a9","colorDark":"#00294f","angle":309.7,"snapDist":5,"label":1}},{"type":"Feature","geometry":{"type":"Point","coordinates":[25.964846,43.882817]},"properties":{"name":"Zona Liberă","lines":"1","arr":["G1"],"terminus":0,"mode":"bus","color":"#0059a9","colorDark":"#00294f","angle":54.9,"snapDist":7,"label":1}},{"type":"Feature","geometry":{"type":"Point","coordinates":[25.966244,43.878807]},"properties":{"name":"Loc. ANL","lines":"1","arr":["G1"],"terminus":0,"mode":"bus","color":"#0059a9","colorDark":"#00294f","angle":262,"snapDist":4,"label":1}},{"type":"Feature","geometry":{"type":"Point","coordinates":[25.967278,43.873455]},"properties":{"name":"Port","lines":"1","arr":["G1"],"terminus":1,"mode":"bus","color":"#0059a9","colorDark":"#00294f","angle":263,"snapDist":4,"label":1}},{"type":"Feature","geometry":{"type":"Point","coordinates":[25.973612,43.922298]},"properties":{"name":"COMAT","lines":"2","arr":["G2"],"terminus":1,"mode":"bus","color":"#0059a9","colorDark":"#00294f","angle":280.8,"snapDist":0,"label":1}},{"type":"Feature","geometry":{"type":"Point","coordinates":[25.971805,43.911757]},"properties":{"name":"Pasarelă","lines":"2, 4, 5","arr":["G2","G4","G5"],"terminus":0,"mode":"bus","color":"#0059a9","colorDark":"#00294f","angle":92.2,"snapDist":7,"label":1}},{"type":"Feature","geometry":{"type":"Point","coordinates":[25.971491,43.908534]},"properties":{"name":"Sanitas","lines":"2, 4, 5","arr":["G2","G4","G5"],"terminus":0,"mode":"bus","color":"#0059a9","colorDark":"#00294f","angle":278.8,"snapDist":15,"label":1}},{"type":"Feature","geometry":{"type":"Point","coordinates":[25.971324,43.906836]},"properties":{"name":"Petrom","lines":"2","arr":["G2"],"terminus":0,"mode":"bus","color":"#0059a9","colorDark":"#00294f","angle":75.7,"snapDist":9,"label":1}},{"type":"Feature","geometry":{"type":"Point","coordinates":[25.969655,43.902167]},"properties":{"name":"Pati-Bar","lines":"2","arr":["G2"],"terminus":0,"mode":"bus","color":"#0059a9","colorDark":"#00294f","angle":101.9,"snapDist":9,"label":1}},{"type":"Feature","geometry":{"type":"Point","coordinates":[25.968051,43.898611]},"properties":{"name":"Spital","lines":"2","arr":["G2"],"terminus":0,"mode":"bus","color":"#0059a9","colorDark":"#00294f","angle":294.8,"snapDist":8,"label":1}},{"type":"Feature","geometry":{"type":"Point","coordinates":[25.962154,43.886732]},"properties":{"name":"Alei","lines":"2","arr":["G2"],"terminus":0,"mode":"bus","color":"#0059a9","colorDark":"#00294f","angle":8.4,"snapDist":5,"label":1}},{"type":"Feature","geometry":{"type":"Point","coordinates":[25.95939,43.886308]},"properties":{"name":"Bld. 1907","lines":"2","arr":["G2"],"terminus":0,"mode":"bus","color":"#0059a9","colorDark":"#00294f","angle":321.4,"snapDist":4,"label":1}},{"type":"Feature","geometry":{"type":"Point","coordinates":[25.954257,43.886194]},"properties":{"name":"Vel Pitar","lines":"2","arr":["G2"],"terminus":0,"mode":"bus","color":"#0059a9","colorDark":"#00294f","angle":1.6,"snapDist":5,"label":1}},{"type":"Feature","geometry":{"type":"Point","coordinates":[25.948076,43.886279]},"properties":{"name":"Istru","lines":"2","arr":["G2"],"terminus":0,"mode":"bus","color":"#0059a9","colorDark":"#00294f","angle":0.2,"snapDist":5,"label":1}},{"type":"Feature","geometry":{"type":"Point","coordinates":[25.942147,43.883641]},"properties":{"name":"Cimitir Sf. Haralambie","lines":"2","arr":["G2"],"terminus":0,"mode":"bus","color":"#0059a9","colorDark":"#00294f","angle":133.5,"snapDist":7,"label":1}},{"type":"Feature","geometry":{"type":"Point","coordinates":[25.937764,43.880478]},"properties":{"name":"Verachim","lines":"2","arr":["G2"],"terminus":0,"mode":"bus","color":"#0059a9","colorDark":"#00294f","angle":137,"snapDist":7,"label":1}},{"type":"Feature","geometry":{"type":"Point","coordinates":[25.92712,43.883866]},"properties":{"name":"CET","lines":"2","arr":["G2"],"terminus":1,"mode":"bus","color":"#0059a9","colorDark":"#00294f","angle":54.8,"snapDist":0,"label":1}},{"type":"Feature","geometry":{"type":"Point","coordinates":[25.96167,43.894043]},"properties":{"name":"Autogară","lines":"3","arr":["G3"],"terminus":0,"mode":"bus","color":"#0059a9","colorDark":"#00294f","angle":155.9,"snapDist":5,"label":1}},{"type":"Feature","geometry":{"type":"Point","coordinates":[25.958946,43.894989]},"properties":{"name":"Palatul Copiilor","lines":"3","arr":["G3"],"terminus":0,"mode":"bus","color":"#0059a9","colorDark":"#00294f","angle":-112.6,"snapDist":14,"label":1}},{"type":"Feature","geometry":{"type":"Point","coordinates":[25.957188,43.894774]},"properties":{"name":"Policlinică","lines":"3","arr":["G3"],"terminus":0,"mode":"bus","color":"#0059a9","colorDark":"#00294f","angle":358.4,"snapDist":6,"label":1}},{"type":"Feature","geometry":{"type":"Point","coordinates":[25.953558,43.894715]},"properties":{"name":"Bariera Alexandriei","lines":"3","arr":["G3"],"terminus":0,"mode":"bus","color":"#0059a9","colorDark":"#00294f","angle":358.4,"snapDist":7,"label":1}},{"type":"Feature","geometry":{"type":"Point","coordinates":[25.945882,43.894569]},"properties":{"name":"Drumul lui Popa Florea","lines":"3","arr":["G3"],"terminus":0,"mode":"bus","color":"#0059a9","colorDark":"#00294f","angle":358.7,"snapDist":9,"label":1}},{"type":"Feature","geometry":{"type":"Point","coordinates":[25.93156,43.894341]},"properties":{"name":"Alexandriei (Peco GPL)","lines":"3","arr":["G3"],"terminus":1,"mode":"bus","color":"#0059a9","colorDark":"#00294f","angle":358.5,"snapDist":0,"label":1}},{"type":"Feature","geometry":{"type":"Point","coordinates":[25.950294,43.914651]},"properties":{"name":"Penitenciar","lines":"4","arr":["G4"],"terminus":1,"mode":"bus","color":"#0059a9","colorDark":"#00294f","angle":251.2,"snapDist":0,"label":1}},{"type":"Feature","geometry":{"type":"Point","coordinates":[25.953551,43.894715]},"properties":{"name":"Bariera Alexandriei","lines":"4","arr":["G4"],"terminus":0,"mode":"bus","color":"#0059a9","colorDark":"#00294f","angle":-0.9,"snapDist":7,"label":0}},{"type":"Feature","geometry":{"type":"Point","coordinates":[25.955138,43.891704]},"properties":{"name":"23 August","lines":"4","arr":["G4"],"terminus":0,"mode":"bus","color":"#0059a9","colorDark":"#00294f","angle":219.4,"snapDist":5,"label":1}},{"type":"Feature","geometry":{"type":"Point","coordinates":[25.955345,43.891457]},"properties":{"name":"I. C. Brătianu","lines":"4","arr":["G4"],"terminus":0,"mode":"bus","color":"#0059a9","colorDark":"#00294f","angle":314.7,"snapDist":12,"label":1}},{"type":"Feature","geometry":{"type":"Point","coordinates":[25.971136,43.895979]},"properties":{"name":"Sârguința","lines":"4, 5","arr":["G4","G5"],"terminus":0,"mode":"bus","color":"#0059a9","colorDark":"#00294f","angle":122,"snapDist":6,"label":0}},{"type":"Feature","geometry":{"type":"Point","coordinates":[25.977346,43.90729]},"properties":{"name":"Billa","lines":"4, 5","arr":["G4","G5"],"terminus":0,"mode":"bus","color":"#0059a9","colorDark":"#00294f","angle":22,"snapDist":10,"label":1}},{"type":"Feature","geometry":{"type":"Point","coordinates":[25.972719,43.907969]},"properties":{"name":"Poșta Tineretului","lines":"4, 5","arr":["G4","G5"],"terminus":0,"mode":"bus","color":"#0059a9","colorDark":"#00294f","angle":6.2,"snapDist":8,"label":1}},{"type":"Feature","geometry":{"type":"Point","coordinates":[25.969536,43.913651]},"properties":{"name":"Kaufland","lines":"4, 5","arr":["G4","G5"],"terminus":1,"mode":"bus","color":"#0059a9","colorDark":"#00294f","angle":99.9,"snapDist":0,"label":1}},{"type":"Feature","geometry":{"type":"Point","coordinates":[25.966888,43.916083]},"properties":{"name":"DAS","lines":"4","arr":["G4"],"terminus":1,"mode":"bus","color":"#0059a9","colorDark":"#00294f","angle":8.6,"snapDist":6,"label":1}},{"type":"Feature","geometry":{"type":"Point","coordinates":[25.951368,43.912278]},"properties":{"name":"Drumul Fermei","lines":"5","arr":["G5"],"terminus":1,"mode":"bus","color":"#0059a9","colorDark":"#00294f","angle":340.7,"snapDist":0,"label":1}},{"type":"Feature","geometry":{"type":"Point","coordinates":[25.940711,43.907159]},"properties":{"name":"Bariera Ghizdarului","lines":"5","arr":["G5"],"terminus":0,"mode":"bus","color":"#0059a9","colorDark":"#00294f","angle":312,"snapDist":0,"label":1}},{"type":"Feature","geometry":{"type":"Point","coordinates":[25.958691,43.895246]},"properties":{"name":"Palatul Copiilor","lines":"5","arr":["G5"],"terminus":0,"mode":"bus","color":"#0059a9","colorDark":"#00294f","angle":42.6,"snapDist":8,"label":0}},{"type":"Feature","geometry":{"type":"Point","coordinates":[25.97611,43.899552]},"properties":{"name":"Direcția Silvică","lines":"5","arr":["G5"],"terminus":0,"mode":"bus","color":"#0059a9","colorDark":"#00294f","angle":126.2,"snapDist":8,"label":0}},{"type":"Feature","geometry":{"type":"Point","coordinates":[25.981486,43.902536]},"properties":{"name":"Miron Nicolescu","lines":"6","arr":["G6"],"terminus":1,"mode":"bus","color":"#0059a9","colorDark":"#00294f","angle":283.5,"snapDist":1,"label":1}},{"type":"Feature","geometry":{"type":"Point","coordinates":[25.981271,43.907779]},"properties":{"name":"1 Decembrie 1918 (Alunișului)","lines":"7","arr":["G7"],"terminus":1,"mode":"bus","color":"#0059a9","colorDark":"#00294f","angle":286.7,"snapDist":0,"label":1}}]}