{"type":"FeatureCollection","features":[{"type":"Feature","geometry":{"type":"LineString","coordinates":[[25.975174,43.833183],[25.975285,43.833107],[25.975301,43.833096],[25.97572,43.832759],[25.975959,43.83261],[25.976293,43.832425],[25.976507,43.832339],[25.976664,43.8323],[25.977112,43.832194],[25.977308,43.832163]]},"properties":{"name":"Тодор Икономов"}},{"type":"Feature","geometry":{"type":"LineString","coordinates":[[25.974922,43.833203],[25.974754,43.833101],[25.97458,43.833027],[25.974402,43.832948],[25.973916,43.832695],[25.973398,43.832392],[25.973123,43.832223],[25.972905,43.832056],[25.972762,43.831937],[25.972434,43.831649],[25.972323,43.83155],[25.972203,43.831449],[25.972117,43.831383],[25.971988,43.83127],[25.971901,43.831196],[25.971691,43.830996],[25.97139,43.830721],[25.971223,43.830579],[25.971143,43.830514],[25.970995,43.83039],[25.970598,43.830108],[25.970343,43.829952],[25.969992,43.829739],[25.969876,43.829682],[25.969413,43.829469],[25.968941,43.829283],[25.968493,43.829092],[25.968106,43.828952],[25.967729,43.828826],[25.967255,43.828642],[25.967122,43.828591],[25.966762,43.828455],[25.966317,43.828291],[25.965928,43.828163],[25.965817,43.828125],[25.965652,43.828068],[25.964426,43.827651],[25.964057,43.827526],[25.96379,43.827443]]},"properties":{"name":"бул. Васил Левски"}},{"type":"Feature","geometry":{"type":"LineString","coordinates":[[25.974754,43.833101],[25.974973,43.833155]]},"properties":{"name":"бул. Васил Левски"}},{"type":"Feature","geometry":{"type":"LineString","coordinates":[[25.95696,43.832189],[25.957024,43.832147],[25.958954,43.830887],[25.958985,43.830864],[25.959827,43.83032],[25.960623,43.829828],[25.960837,43.829689],[25.960865,43.829671],[25.961519,43.829248],[25.963215,43.827901],[25.963524,43.827652],[25.96379,43.827443],[25.964087,43.827199],[25.964543,43.82684],[25.964759,43.826669],[25.964926,43.826534],[25.965438,43.82612],[25.967167,43.824706],[25.967591,43.824351],[25.968161,43.823847],[25.968473,43.823567],[25.968696,43.823351],[25.969254,43.822809],[25.96941,43.822666],[25.969711,43.822367],[25.969952,43.822137],[25.970544,43.821612],[25.971537,43.82067],[25.971702,43.820523]]},"properties":{"name":"бул. Гоце Делчев"}},{"type":"Feature","geometry":{"type":"LineString","coordinates":[[25.965838,43.835769],[25.965461,43.835448],[25.965366,43.835375],[25.965239,43.835284],[25.965146,43.835224],[25.964921,43.835083],[25.964733,43.834976],[25.964554,43.834885],[25.964448,43.834833],[25.964327,43.83478],[25.964196,43.834724],[25.964054,43.834668],[25.963922,43.834617],[25.963745,43.834556],[25.963494,43.834475],[25.963344,43.834425],[25.962551,43.834169],[25.960851,43.833602],[25.958616,43.832814],[25.958276,43.832686],[25.958172,43.832647],[25.958151,43.832639],[25.958051,43.832601],[25.957663,43.832454],[25.957585,43.832425],[25.957526,43.832402],[25.957377,43.832346],[25.957253,43.8323],[25.95696,43.832189],[25.955579,43.83168],[25.954625,43.831301],[25.953972,43.831037],[25.953139,43.830701],[25.952383,43.830345],[25.952203,43.830255],[25.951728,43.830024],[25.951469,43.829898],[25.951195,43.829769]]},"properties":{"name":"бул. България"}},{"type":"Feature","geometry":{"type":"LineString","coordinates":[[25.965718,43.835859],[25.965343,43.835528],[25.965012,43.835297],[25.964868,43.835206],[25.964767,43.835148],[25.964668,43.835093],[25.964541,43.83503],[25.964432,43.834975],[25.964325,43.834923],[25.964197,43.834865],[25.964059,43.83481],[25.963893,43.834747],[25.963448,43.834593],[25.96249,43.834282],[25.960744,43.833721],[25.959684,43.833356],[25.959019,43.833127],[25.958158,43.832797],[25.957656,43.832583],[25.957244,43.832427],[25.956905,43.832299],[25.95647,43.832129],[25.956201,43.832025],[25.955555,43.831773],[25.954529,43.831407],[25.953255,43.830925],[25.95189,43.830409],[25.951514,43.830237],[25.951264,43.830122],[25.949903,43.829493],[25.949019,43.828997],[25.948148,43.828534],[25.947351,43.828135],[25.947145,43.82802],[25.94663,43.827778],[25.946205,43.827551],[25.945709,43.827294],[25.9453,43.827078],[25.94498,43.826886],[25.944624,43.826646],[25.944164,43.82629],[25.942684,43.825101],[25.942102,43.824623],[25.941428,43.824058],[25.940835,43.823628],[25.940482,43.823365],[25.940063,43.823094],[25.939855,43.822951],[25.939351,43.822645]]},"properties":{"name":"бул. България"}},{"type":"Feature","geometry":{"type":"LineString","coordinates":[[25.949896,43.829117],[25.949061,43.828653],[25.94802,43.828106],[25.94761,43.827897],[25.947458,43.827823],[25.947233,43.827707],[25.94714,43.827655],[25.947034,43.827604],[25.946154,43.827128],[25.945637,43.826833],[25.945276,43.826625],[25.944751,43.826275],[25.943726,43.825444],[25.943167,43.825019],[25.943029,43.824908]]},"properties":{"name":"бул. България"}},{"type":"Feature","geometry":{"type":"LineString","coordinates":[[25.929692,43.816947],[25.929464,43.816513],[25.929432,43.81645],[25.929269,43.816144],[25.929027,43.815632],[25.928835,43.815203],[25.928754,43.815005],[25.928447,43.814289],[25.927961,43.813209],[25.927859,43.812977],[25.927422,43.812073],[25.927327,43.811886],[25.92727,43.811795],[25.927164,43.811652],[25.926915,43.811318],[25.926179,43.810585],[25.926093,43.810486],[25.923359,43.807982],[25.923136,43.807765],[25.922586,43.807156],[25.922425,43.806964],[25.92221,43.806663],[25.921598,43.805651],[25.921547,43.805538],[25.921124,43.804594],[25.920488,43.803075],[25.920233,43.80245],[25.919101,43.799749],[25.918822,43.799184],[25.918504,43.798542],[25.918435,43.798423],[25.917796,43.797314],[25.917576,43.796917],[25.917484,43.796752],[25.917315,43.796446],[25.916829,43.795569],[25.916722,43.795345],[25.916012,43.79384],[25.915826,43.793418],[25.915499,43.792688],[25.915278,43.792192],[25.915175,43.791871],[25.915316,43.792041],[25.915504,43.792393],[25.915969,43.793246],[25.916422,43.794058],[25.917025,43.795124],[25.917203,43.795453],[25.91747,43.795949],[25.917704,43.796384],[25.91784,43.796635],[25.917932,43.7968],[25.918151,43.797196],[25.918467,43.797736],[25.918499,43.797791],[25.918752,43.79823],[25.919177,43.799004],[25.919343,43.79936],[25.9195,43.7997],[25.91994,43.800771],[25.920751,43.802659],[25.921088,43.803439],[25.921158,43.803631],[25.921569,43.804561],[25.921657,43.804759],[25.921728,43.804954],[25.92199,43.805529],[25.922235,43.806],[25.922418,43.806315],[25.922701,43.806705],[25.923075,43.807177],[25.923401,43.807537],[25.923494,43.807627],[25.923666,43.807782],[25.924085,43.808177],[25.924392,43.808455],[25.924592,43.808638],[25.925914,43.809836],[25.926555,43.810418],[25.926889,43.810743],[25.927103,43.810978],[25.927325,43.811254],[25.927548,43.811533],[25.927848,43.81196],[25.928015,43.812326],[25.928161,43.812642],[25.928404,43.813161],[25.928597,43.813607],[25.929012,43.814563],[25.929018,43.814574],[25.929104,43.814764],[25.929258,43.815097],[25.929481,43.815584],[25.929618,43.815887],[25.929706,43.816068],[25.929797,43.816283],[25.929945,43.816519],[25.93019,43.816869],[25.930266,43.816966],[25.930486,43.817248],[25.930532,43.817307],[25.930928,43.817693],[25.931041,43.817801],[25.931176,43.817918],[25.931674,43.818279],[25.931906,43.818413]]},"properties":{"name":"бул. България"}},{"type":"Feature","geometry":{"type":"LineString","coordinates":[[26.016286,43.875518],[26.016318,43.875465],[26.016332,43.875425],[26.016337,43.875373],[26.016323,43.875319],[26.016305,43.875259],[26.016245,43.875111],[26.016071,43.874713],[26.015966,43.874409],[26.015919,43.874241],[26.015886,43.874062],[26.015853,43.873756],[26.0158,43.873223],[26.01577,43.872852],[26.015688,43.87189],[26.015605,43.870854],[26.015516,43.86998],[26.015499,43.869813],[26.015482,43.86966],[26.015237,43.867323],[26.015179,43.866732],[26.015132,43.866164],[26.014918,43.863825],[26.014674,43.8614]]},"properties":{"name":"бул. България"}},{"type":"Feature","geometry":{"type":"LineString","coordinates":[[26.009998,43.854203],[26.012255,43.855861],[26.013433,43.856769],[26.013839,43.857155],[26.014167,43.857535],[26.014402,43.857914],[26.014618,43.858309],[26.014737,43.858737],[26.014839,43.859117],[26.014952,43.860094],[26.015006,43.860557],[26.015026,43.860727],[26.015065,43.861275],[26.0151,43.86165],[26.015173,43.862445],[26.015249,43.863271],[26.015295,43.863768],[26.015508,43.866082],[26.015555,43.866521],[26.015588,43.866825],[26.015639,43.867301],[26.015645,43.867377],[26.015679,43.867816],[26.015915,43.870087],[26.016003,43.870938],[26.016038,43.871281],[26.016065,43.871606],[26.016088,43.87184],[26.016094,43.871925],[26.016241,43.873522],[26.016229,43.8737],[26.016213,43.873878],[26.016198,43.873997],[26.016158,43.874183],[26.016146,43.874301],[26.01615,43.874357],[26.016187,43.87454],[26.016282,43.874756],[26.0164,43.875014],[26.016574,43.875402],[26.016616,43.875469],[26.016676,43.875557]]},"properties":{"name":"бул. България"}},{"type":"Feature","geometry":{"type":"LineString","coordinates":[[25.959894,43.839478],[25.959977,43.839439],[25.960225,43.839321],[25.960344,43.83924],[25.960691,43.838968],[25.961103,43.838645],[25.962453,43.83766],[25.962602,43.837561],[25.964415,43.836344],[25.964453,43.836321],[25.965379,43.835672],[25.965699,43.835458],[25.96675,43.834768],[25.9668,43.834735],[25.967978,43.833933],[25.968142,43.833826],[25.968529,43.833567],[25.969018,43.833235],[25.97034,43.832347],[25.970717,43.832105],[25.971518,43.831586],[25.971785,43.831406],[25.971988,43.83127],[25.97215,43.83117],[25.972336,43.831056],[25.972961,43.830666],[25.974515,43.829755],[25.974832,43.829565],[25.975156,43.829375],[25.975294,43.829293],[25.975425,43.829214],[25.975753,43.829009],[25.97576,43.829004],[25.975786,43.828987],[25.97587,43.828933]]},"properties":{"name":"бул. Христо Ботев"}},{"type":"Feature","geometry":{"type":"LineString","coordinates":[[25.959947,43.839649],[25.960021,43.839632],[25.960087,43.839603],[25.960178,43.839555],[25.960303,43.839483],[25.960535,43.839331],[25.960754,43.839125],[25.962533,43.837779],[25.962687,43.837676],[25.963814,43.836916],[25.964566,43.836408],[25.96551,43.835772],[25.965831,43.83557],[25.966869,43.834862],[25.96718,43.834662],[25.967482,43.834451],[25.967809,43.834252],[25.968733,43.833622],[25.969499,43.833091],[25.96962,43.833007],[25.970154,43.832638],[25.970458,43.832427],[25.970837,43.832187],[25.970897,43.83215],[25.971398,43.831835],[25.97171,43.831639],[25.971916,43.831509],[25.972117,43.831383],[25.972275,43.831284],[25.972807,43.830949],[25.973109,43.83076],[25.97473,43.829784]]},"properties":{"name":"бул. Христо Ботев"}},{"type":"Feature","geometry":{"type":"LineString","coordinates":[[25.976336,43.828651],[25.976537,43.828527],[25.976808,43.828363],[25.977028,43.828236],[25.977912,43.827704],[25.97805,43.827617],[25.978146,43.827543],[25.97831,43.827428],[25.978443,43.827322],[25.978564,43.827222],[25.978705,43.827081],[25.978819,43.826963],[25.978954,43.826812],[25.979085,43.826649],[25.979203,43.826494],[25.979293,43.826353],[25.979403,43.826113],[25.979501,43.825881],[25.979732,43.825288],[25.979866,43.824924],[25.979947,43.824705],[25.980732,43.822501],[25.98077,43.822397],[25.981085,43.821522],[25.98148,43.820459],[25.981774,43.81969],[25.981877,43.819384],[25.981999,43.818957],[25.982054,43.818735],[25.982095,43.818491],[25.982131,43.818206],[25.982142,43.817923],[25.982134,43.817598],[25.981871,43.815441],[25.981785,43.814562],[25.981749,43.814131],[25.981735,43.813819],[25.981739,43.813734],[25.981742,43.813555],[25.981765,43.813109],[25.981836,43.812568],[25.981884,43.81231],[25.981929,43.812136],[25.982088,43.811608],[25.982258,43.811116],[25.982464,43.810537],[25.982542,43.810389],[25.982569,43.810341],[25.98261,43.81027],[25.983026,43.809526],[25.983136,43.809334],[25.983644,43.80845],[25.984171,43.807541],[25.984334,43.80726],[25.984516,43.806921],[25.984804,43.806411],[25.985109,43.80587]]},"properties":{"name":"бул. Христо Ботев"}},{"type":"Feature","geometry":{"type":"LineString","coordinates":[[25.98569,43.804983],[25.98587,43.804793],[25.986351,43.804371],[25.986806,43.804014],[25.986419,43.804402],[25.986032,43.80479],[25.985767,43.805056],[25.985656,43.805203],[25.985549,43.805351],[25.985418,43.805566],[25.985391,43.805615],[25.985181,43.806001],[25.984659,43.806963],[25.984306,43.807586],[25.983788,43.808501],[25.983244,43.809454],[25.982712,43.810386],[25.982673,43.810472],[25.982619,43.810579],[25.98245,43.810993],[25.982417,43.811067],[25.982389,43.81114],[25.982335,43.811315],[25.982221,43.811646],[25.982115,43.812049],[25.982098,43.812112],[25.982082,43.812172],[25.982015,43.812427],[25.981962,43.812722],[25.981918,43.812999],[25.981904,43.813171],[25.981893,43.813314],[25.981891,43.813685],[25.981893,43.813775],[25.981904,43.814165],[25.981924,43.814374],[25.981932,43.814516],[25.98197,43.814984],[25.982011,43.815435],[25.982152,43.81647],[25.982217,43.816944],[25.982261,43.817417],[25.982288,43.817661],[25.982298,43.81785],[25.982275,43.818229],[25.982231,43.81855],[25.982177,43.818872],[25.98206,43.819288],[25.981664,43.820365],[25.981126,43.821843],[25.980681,43.823097],[25.980571,43.823384],[25.980524,43.823517],[25.980377,43.823888],[25.980225,43.824293],[25.979931,43.825103],[25.979455,43.826324],[25.979402,43.826417],[25.979338,43.826528],[25.979247,43.826654],[25.979136,43.826798],[25.97899,43.826972],[25.97887,43.827089],[25.978779,43.827178],[25.978652,43.827294],[25.978507,43.827418],[25.978366,43.827524],[25.977775,43.827931],[25.976933,43.828443],[25.976354,43.828799],[25.975905,43.829064],[25.975883,43.829077],[25.975679,43.829209],[25.975455,43.829349]]},"properties":{"name":"бул. Христо Ботев"}},{"type":"Feature","geometry":{"type":"LineString","coordinates":[[25.949444,43.82871],[25.949476,43.829604],[25.949493,43.829765],[25.949535,43.829945],[25.949632,43.830127],[25.949787,43.830331],[25.950426,43.831135],[25.950762,43.831499],[25.951154,43.831863]]},"properties":{"name":"бул. Мидия-Енос"}},{"type":"Feature","geometry":{"type":"LineString","coordinates":[[25.955461,43.833875],[25.955232,43.833748],[25.954279,43.833209],[25.954028,43.833078],[25.953289,43.832716],[25.952568,43.832413],[25.951154,43.831863],[25.950991,43.831808],[25.950873,43.831769],[25.950705,43.831724],[25.950531,43.83168],[25.950417,43.831659]]},"properties":{"name":"бул. Мидия-Енос"}},{"type":"Feature","geometry":{"type":"LineString","coordinates":[[25.949316,43.828355],[25.949337,43.828613],[25.949344,43.828668],[25.949336,43.829586],[25.949352,43.829762],[25.949401,43.829945],[25.949456,43.830076],[25.949576,43.830269],[25.949633,43.830345],[25.949906,43.830636],[25.950148,43.830952],[25.950267,43.831094],[25.950358,43.831244],[25.950391,43.831338],[25.950411,43.831432],[25.950418,43.831544],[25.950417,43.831659],[25.950401,43.831751],[25.950566,43.831788],[25.950771,43.831843],[25.950961,43.8319],[25.951181,43.831972],[25.952114,43.832322],[25.952484,43.832472],[25.952708,43.832568],[25.953023,43.832707],[25.953283,43.832832],[25.953523,43.832951],[25.953833,43.83311],[25.954152,43.833282],[25.954283,43.833357],[25.954373,43.833414],[25.954452,43.833471],[25.954541,43.833546],[25.954623,43.833629],[25.954748,43.833782],[25.954816,43.833867],[25.954881,43.833933],[25.954982,43.833997]]},"properties":{"name":"бул. Мидия-Енос"}},{"type":"Feature","geometry":{"type":"LineString","coordinates":[[25.955232,43.833748],[25.954982,43.833997],[25.954827,43.83415],[25.9548,43.834177],[25.954644,43.834331],[25.95412,43.834817],[25.953423,43.8355],[25.952702,43.836147],[25.952205,43.836628],[25.951895,43.83694],[25.951654,43.837166],[25.951629,43.837189],[25.9516,43.837218],[25.951452,43.837352],[25.950815,43.83799],[25.950334,43.838424],[25.949427,43.839232],[25.948743,43.839938],[25.948438,43.840213],[25.948344,43.840257],[25.948091,43.840575],[25.947956,43.840711],[25.947846,43.841548],[25.947801,43.841841]]},"properties":{"name":"Николаевска"}},{"type":"Feature","geometry":{"type":"LineString","coordinates":[[25.948006,43.84392],[25.947973,43.843904],[25.947936,43.843873],[25.947918,43.843842],[25.947907,43.84381],[25.947897,43.843782],[25.947888,43.843745],[25.947857,43.84356],[25.947733,43.842826],[25.947715,43.842702],[25.947707,43.84257],[25.947711,43.842481],[25.947716,43.842249],[25.947727,43.842144],[25.947751,43.842092],[25.947785,43.842057],[25.947836,43.842003]]},"properties":{"name":"Николаевска"}},{"type":"Feature","geometry":{"type":"LineString","coordinates":[[25.949097,43.837895],[25.949705,43.838155],[25.950252,43.838403],[25.950334,43.838424]]},"properties":{"name":"Места"}},{"type":"Feature","geometry":{"type":"LineString","coordinates":[[25.948344,43.840257],[25.948344,43.840211],[25.948343,43.840175],[25.948442,43.839873],[25.948732,43.838977],[25.948807,43.838727],[25.949097,43.837895],[25.949148,43.837695],[25.949222,43.837402],[25.949267,43.837245],[25.949282,43.837185],[25.949333,43.837024],[25.949366,43.836917],[25.949395,43.836845],[25.949674,43.836127],[25.949801,43.835741],[25.949864,43.835509],[25.950057,43.834745],[25.95015,43.833745],[25.950219,43.833078],[25.950274,43.83276],[25.950311,43.832461],[25.950401,43.831751]]},"properties":{"name":"Стефан Стамболов"}},{"type":"Feature","geometry":{"type":"LineString","coordinates":[[25.951452,43.837352],[25.951424,43.837283],[25.951402,43.837269],[25.951375,43.837252],[25.951359,43.837241],[25.951241,43.837217],[25.950668,43.837132],[25.950402,43.837085],[25.949444,43.83693],[25.949366,43.836917],[25.949286,43.836909],[25.949214,43.836902],[25.949,43.83688],[25.948517,43.836831],[25.948049,43.836786],[25.947581,43.836671],[25.947337,43.8366],[25.947018,43.836485]]},"properties":{"name":"Сент Уан"}},{"type":"Feature","geometry":{"type":"LineString","coordinates":[[25.947018,43.836485],[25.943692,43.835205],[25.943519,43.835131],[25.943321,43.835043]]},"properties":{"name":"Струма"}},{"type":"Feature","geometry":{"type":"LineString","coordinates":[[25.943321,43.835043],[25.943216,43.834996],[25.943109,43.83493],[25.942312,43.834314],[25.941994,43.834069],[25.941612,43.833745],[25.940996,43.833202],[25.940294,43.832621],[25.939808,43.832186],[25.939614,43.832002],[25.93941,43.83177],[25.939186,43.831495],[25.939011,43.831264],[25.938821,43.830995],[25.938008,43.829849],[25.937296,43.828844],[25.936636,43.828243],[25.936502,43.82811],[25.936402,43.827985],[25.9363,43.827839],[25.936216,43.827719],[25.936129,43.827585],[25.936019,43.827417],[25.935963,43.827322],[25.935713,43.826827],[25.935441,43.826289],[25.93536,43.826175],[25.935235,43.826],[25.934704,43.825256],[25.934462,43.824917],[25.933032,43.822915],[25.932782,43.822565],[25.932715,43.822471],[25.932441,43.822087],[25.932378,43.821999],[25.932305,43.821897],[25.932157,43.821771],[25.932007,43.821593],[25.93173,43.821299],[25.931656,43.821202],[25.931583,43.821104],[25.931449,43.820912],[25.931257,43.820575],[25.931195,43.820454],[25.931098,43.820138],[25.931048,43.819931],[25.931,43.819793],[25.930905,43.819557]]},"properties":{"name":"бул. 3-ти март"}},{"type":"Feature","geometry":{"type":"LineString","coordinates":[[25.931906,43.818413],[25.932029,43.818439],[25.932113,43.818442],[25.93222,43.818434],[25.932319,43.818404],[25.932401,43.81835],[25.932452,43.81829],[25.932477,43.818224],[25.932484,43.818168],[25.932467,43.818099],[25.932423,43.818031],[25.93235,43.81797],[25.932264,43.817936],[25.932109,43.817922],[25.932007,43.817935],[25.931912,43.817962],[25.931785,43.818015],[25.931642,43.818088],[25.931535,43.818154],[25.931385,43.818295],[25.93128,43.818411],[25.931175,43.818548],[25.931086,43.818707],[25.931023,43.818874],[25.931001,43.819021],[25.93099,43.819162],[25.930998,43.819353],[25.931012,43.81948],[25.931041,43.819611],[25.931103,43.819731],[25.931151,43.819815],[25.931223,43.819915],[25.931562,43.820283],[25.931613,43.820343],[25.931668,43.820417],[25.931905,43.820778],[25.931951,43.820857],[25.932,43.820941],[25.932067,43.821161],[25.932135,43.821438],[25.932183,43.8216],[25.932229,43.821724],[25.932305,43.821897]]},"properties":{"name":"бул. 3-ти март"}},{"type":"Feature","geometry":{"type":"LineString","coordinates":[[25.935441,43.826289],[25.935959,43.826776],[25.936323,43.82712],[25.93643,43.827236],[25.936468,43.827295],[25.936507,43.827356],[25.936547,43.827414],[25.936666,43.827581],[25.936816,43.8278],[25.9369,43.827921],[25.936952,43.828013],[25.937102,43.828398],[25.937147,43.828512],[25.937296,43.828844]]},"properties":{"name":"бул. 3-ти март"}},{"type":"Feature","geometry":{"type":"LineString","coordinates":[[25.974274,43.823608],[25.974063,43.823517],[25.973369,43.823155]]},"properties":{"name":"Стоян Михайловски"}},{"type":"Feature","geometry":{"type":"LineString","coordinates":[[25.974471,43.822009],[25.97418,43.822305],[25.973685,43.822815],[25.973369,43.823155]]},"properties":{"name":"Йоаким Груев"}},{"type":"Feature","geometry":{"type":"LineString","coordinates":[[25.972157,43.820641],[25.972316,43.820728],[25.972448,43.820801],[25.972699,43.820943],[25.97272,43.820955],[25.97296,43.821092],[25.973139,43.821188],[25.973474,43.821381],[25.973569,43.821442],[25.973782,43.821547],[25.974048,43.821687],[25.97425,43.821807],[25.974471,43.822009]]},"properties":{"name":"Александър Хаджирусет"}},{"type":"Feature","geometry":{"type":"LineString","coordinates":[[25.967167,43.824706],[25.967607,43.824902],[25.967866,43.825008],[25.968102,43.825112],[25.968379,43.825228],[25.968609,43.825301],[25.968792,43.825349],[25.969083,43.825421],[25.969321,43.825473],[25.970219,43.825665],[25.970441,43.825716],[25.970855,43.825812],[25.971218,43.825876],[25.971407,43.825934],[25.971564,43.826023],[25.971661,43.826086],[25.971722,43.826138],[25.971772,43.826199],[25.971791,43.826234],[25.971837,43.826317],[25.971927,43.826697],[25.972019,43.827098],[25.97204,43.827312],[25.972047,43.827458],[25.972006,43.827601],[25.971858,43.827894],[25.971278,43.828434],[25.971258,43.828451],[25.970908,43.82875],[25.969959,43.829606],[25.969876,43.829682]]},"properties":{"name":"Даме Груев"}},{"type":"Feature","geometry":{"type":"LineString","coordinates":[[25.975017,43.833338],[25.974796,43.833476]]},"properties":{"name":"Филип Станиславов"}},{"type":"Feature","geometry":{"type":"LineString","coordinates":[[25.976774,43.838902],[25.976749,43.83887],[25.976718,43.838836],[25.976686,43.838813],[25.97664,43.83879],[25.976544,43.83875],[25.976313,43.838683]]},"properties":{"name":"Филип Станиславов"}},{"type":"Feature","geometry":{"type":"LineString","coordinates":[[25.976522,43.838989],[25.976552,43.838951],[25.976566,43.838918],[25.976565,43.838883],[25.976555,43.838848],[25.976542,43.838829],[25.976515,43.838801],[25.976313,43.838683],[25.975458,43.838351],[25.974943,43.838114],[25.974528,43.837921],[25.974305,43.837782],[25.974156,43.837661],[25.973991,43.837502],[25.973839,43.83733],[25.973756,43.837195],[25.973669,43.837022],[25.973618,43.836753],[25.973615,43.836442],[25.973651,43.835629],[25.973657,43.835218],[25.973702,43.834935],[25.973734,43.834836],[25.97385,43.834579],[25.973999,43.834255],[25.974057,43.834177],[25.974149,43.834054],[25.974581,43.833646],[25.974796,43.833476],[25.974938,43.833297]]},"properties":{"name":"Филип Станиславов"}},{"type":"Feature","geometry":{"type":"LineString","coordinates":[[25.969983,43.84034],[25.970285,43.840327]]},"properties":{"name":"Изгрев"}},{"type":"Feature","geometry":{"type":"LineString","coordinates":[[25.982361,43.839537],[25.981842,43.83931],[25.981679,43.839252],[25.981012,43.839016],[25.980288,43.83873],[25.980237,43.838714],[25.980056,43.838658],[25.979457,43.838564],[25.979076,43.838509],[25.978882,43.838514],[25.978472,43.838542],[25.978117,43.838599],[25.978047,43.838611],[25.977895,43.838638],[25.977509,43.838711],[25.977365,43.838743],[25.977217,43.838781],[25.976774,43.838902],[25.976753,43.838909],[25.976522,43.838989],[25.975871,43.83925],[25.975734,43.83931],[25.975609,43.83937],[25.975355,43.839492],[25.975091,43.839595],[25.974983,43.839629],[25.974764,43.839685],[25.974465,43.83974],[25.974296,43.839772],[25.973905,43.839848],[25.973708,43.839887],[25.973622,43.839905]]},"properties":{"name":"Изгрев"}},{"type":"Feature","geometry":{"type":"LineString","coordinates":[[25.973622,43.839905],[25.973414,43.839947],[25.973277,43.839949],[25.973144,43.83994],[25.973043,43.839924],[25.972532,43.839782],[25.972023,43.839627],[25.971908,43.839601],[25.971832,43.839594],[25.97176,43.839594],[25.971683,43.839606],[25.971597,43.839638],[25.971537,43.839674],[25.970887,43.840145],[25.970775,43.840213],[25.970685,43.840269],[25.970573,43.84031],[25.970504,43.840325],[25.970411,43.840327],[25.970285,43.840327],[25.970392,43.840299],[25.970454,43.840275],[25.970534,43.840234],[25.970655,43.840166],[25.970761,43.840089],[25.971514,43.839568],[25.971604,43.839537],[25.971677,43.839523],[25.971763,43.839517],[25.971852,43.839516],[25.971952,43.83953],[25.973106,43.839864],[25.97325,43.839885],[25.973409,43.839891],[25.973622,43.839905]]},"properties":{"name":"Изгрев"}},{"type":"Feature","geometry":{"type":"LineString","coordinates":[[25.969983,43.84034],[25.969609,43.840358],[25.969407,43.840366],[25.969205,43.840379],[25.969071,43.840396],[25.968963,43.840417],[25.96884,43.840444],[25.968727,43.840481],[25.968601,43.840524],[25.968467,43.840579]]},"properties":{"name":"Шипка"}},{"type":"Feature","geometry":{"type":"LineString","coordinates":[[25.968319,43.840737],[25.968337,43.840701],[25.968356,43.840669],[25.968384,43.840642],[25.968418,43.840613],[25.968467,43.840579],[25.968413,43.840594],[25.968376,43.840599],[25.968334,43.840601],[25.968289,43.8406],[25.968222,43.840589]]},"properties":{"name":"Шипка"}},{"type":"Feature","geometry":{"type":"LineString","coordinates":[[25.967674,43.840879],[25.967755,43.840836],[25.967789,43.840817],[25.967818,43.840796],[25.967854,43.840759],[25.967886,43.840712]]},"properties":{"name":"Шипка"}},{"type":"Feature","geometry":{"type":"LineString","coordinates":[[25.967985,43.840852],[25.967932,43.840849],[25.967895,43.840849],[25.967841,43.840854],[25.96776,43.840866],[25.967674,43.840879],[25.967574,43.840901],[25.967502,43.840913],[25.967398,43.840931],[25.9673,43.840943],[25.967003,43.840967],[25.966855,43.840969],[25.966716,43.840964],[25.965911,43.841036],[25.965571,43.841075]]},"properties":{"name":"Шипка"}},{"type":"Feature","geometry":{"type":"LineString","coordinates":[[25.960232,43.841721],[25.960377,43.841729],[25.960625,43.841742]]},"properties":{"name":"Шипка"}},{"type":"Feature","geometry":{"type":"LineString","coordinates":[[25.965255,43.841792],[25.965383,43.841748],[25.965533,43.841307],[25.965571,43.841075]]},"properties":{"name":"Бояна"}},{"type":"Feature","geometry":{"type":"LineString","coordinates":[[25.969134,43.843789],[25.969043,43.843803],[25.968947,43.843807],[25.96884,43.843796],[25.968786,43.843785],[25.96868,43.843763],[25.96822,43.843667],[25.967895,43.843595],[25.967708,43.843556],[25.967512,43.843513],[25.967197,43.843446],[25.967008,43.843405],[25.966854,43.843364],[25.966745,43.843322],[25.966564,43.843238],[25.966369,43.84312],[25.966231,43.843001],[25.966083,43.842829],[25.965705,43.84237],[25.965553,43.842179],[25.965255,43.841792]]},"properties":{"name":"Чипровци"}},{"type":"Feature","geometry":{"type":"LineString","coordinates":[[25.969848,43.843759],[25.969937,43.843839],[25.969992,43.84389],[25.970062,43.843949],[25.970136,43.844],[25.970213,43.844053],[25.97031,43.844122],[25.971461,43.844412],[25.973157,43.844819],[25.973948,43.845019],[25.975049,43.84534],[25.975313,43.84543],[25.975421,43.845467],[25.975467,43.845516],[25.975513,43.845566],[25.975994,43.846116],[25.976382,43.84656],[25.976624,43.846848],[25.97692,43.84718],[25.977218,43.847508],[25.977282,43.847579],[25.977708,43.848053],[25.97796,43.848414],[25.979039,43.849587],[25.979247,43.849787],[25.979271,43.849817]]},"properties":{"name":"Чипровци"}},{"type":"Feature","geometry":{"type":"LineString","coordinates":[[25.97031,43.844122],[25.97024,43.844108],[25.970085,43.844077],[25.969852,43.844028],[25.969671,43.843982]]},"properties":{"name":"Чипровци"}},{"type":"Feature","geometry":{"type":"LineString","coordinates":[[25.968484,43.841498],[25.968397,43.841343],[25.968266,43.841097],[25.968246,43.841053],[25.968184,43.84098],[25.968144,43.840937],[25.968106,43.840902],[25.968067,43.840875]]},"properties":{"name":"Чипровци"}},{"type":"Feature","geometry":{"type":"LineString","coordinates":[[25.979127,43.853062],[25.978981,43.8529],[25.978929,43.85277],[25.978916,43.852657],[25.978917,43.852545],[25.978919,43.852366],[25.978957,43.852215],[25.978979,43.852122],[25.979129,43.851395],[25.97928,43.850687],[25.979299,43.850597],[25.97933,43.850464],[25.979346,43.850376],[25.979357,43.850323],[25.979363,43.850292],[25.979381,43.850203],[25.979434,43.849981],[25.979395,43.849919],[25.979376,43.849898],[25.979347,43.84987],[25.979271,43.849817],[25.979298,43.849866],[25.9793,43.849902],[25.979296,43.849955],[25.979229,43.850231],[25.97922,43.850284],[25.979207,43.850359],[25.979189,43.850445],[25.979162,43.850579],[25.979143,43.85067],[25.979126,43.850749],[25.97899,43.851378],[25.978826,43.852204],[25.978758,43.852636],[25.978642,43.853145]]},"properties":{"name":"Никола Петков"}},{"type":"Feature","geometry":{"type":"LineString","coordinates":[[25.978999,43.853459],[25.978813,43.853618],[25.978481,43.854005],[25.976355,43.856306],[25.976302,43.856363],[25.976268,43.856402],[25.975592,43.856956],[25.975286,43.857259],[25.975229,43.857315],[25.97518,43.857364],[25.975094,43.857453],[25.974017,43.858568],[25.973957,43.85863],[25.9739,43.85869],[25.973811,43.858781],[25.973175,43.859436]]},"properties":{"name":"Тулча"}},{"type":"Feature","geometry":{"type":"LineString","coordinates":[[25.978614,43.853234],[25.978585,43.853371],[25.978549,43.853506],[25.978483,43.853707],[25.978352,43.853968],[25.978138,43.854219],[25.978014,43.854363],[25.977977,43.854402],[25.977955,43.854427],[25.977747,43.854652],[25.976591,43.855912],[25.976208,43.856278],[25.976182,43.856304],[25.97609,43.856391],[25.975721,43.856721],[25.975499,43.856895],[25.975118,43.857262],[25.975066,43.857311],[25.974983,43.8574],[25.974935,43.857452],[25.973879,43.858582],[25.973814,43.858652],[25.973728,43.858741],[25.973703,43.858767],[25.973094,43.859395]]},"properties":{"name":"Тулча"}},{"type":"Feature","geometry":{"type":"LineString","coordinates":[[25.981211,43.862756],[25.980878,43.862445],[25.980475,43.862093],[25.979946,43.861691],[25.979697,43.861537],[25.979139,43.861277],[25.978716,43.861061],[25.976771,43.860124],[25.974819,43.859156],[25.973965,43.858723],[25.9739,43.85869],[25.973814,43.858652],[25.973726,43.85861],[25.973692,43.858593],[25.972854,43.858185],[25.972713,43.858116],[25.972627,43.858075],[25.971321,43.857451],[25.97123,43.857402],[25.970663,43.857122],[25.969567,43.856599],[25.96869,43.856181],[25.968596,43.856135],[25.967646,43.855677],[25.966648,43.855196],[25.965711,43.85474],[25.965134,43.854459],[25.964759,43.854276],[25.964686,43.854246],[25.964655,43.854233],[25.964547,43.854203]]},"properties":{"name":"Плиска"}},{"type":"Feature","geometry":{"type":"LineString","coordinates":[[25.981211,43.862756],[25.981594,43.863126],[25.981816,43.863339],[25.98202,43.863515],[25.982172,43.863629],[25.982329,43.863732],[25.982513,43.863839],[25.983961,43.864622],[25.984174,43.864739],[25.984928,43.865127],[25.985882,43.865653],[25.987126,43.866286],[25.987354,43.866394],[25.987595,43.866507],[25.988119,43.866723],[25.990054,43.867474],[25.990187,43.867529],[25.991322,43.868005],[25.99201,43.868293],[25.99222,43.868379],[25.992599,43.868533],[25.993244,43.8688],[25.994054,43.869131],[25.99468,43.869387],[25.995395,43.869687],[25.996317,43.8701],[25.99653,43.870203],[25.996596,43.870234],[25.996658,43.870262],[25.996727,43.870292],[25.99679,43.870313],[25.996861,43.870328],[25.996931,43.870329],[25.997006,43.870331],[25.9971,43.870325],[25.997174,43.870314],[25.99725,43.870307],[25.99733,43.870312],[25.997411,43.870334],[25.997482,43.87037],[25.998,43.870606],[25.998048,43.870639],[25.998088,43.870681],[25.998111,43.870736],[25.998131,43.870808],[25.998161,43.870868],[25.998199,43.870918],[25.998242,43.870965],[25.998278,43.870999],[25.998331,43.871036],[25.998407,43.871078],[25.999256,43.871462],[25.999402,43.871517],[25.999505,43.871553],[25.999831,43.871638],[26.000119,43.871693],[26.000332,43.871731],[26.001161,43.871879],[26.007786,43.873062],[26.008422,43.873181]]},"properties":{"name":"бул. Тутракан"}},{"type":"Feature","geometry":{"type":"LineString","coordinates":[[25.981101,43.862818],[25.981544,43.863235],[25.981739,43.863409],[25.982066,43.86368],[25.982161,43.86375],[25.982299,43.863839],[25.983861,43.864702],[25.984921,43.865282],[25.985778,43.865752],[25.98702,43.866401],[25.987226,43.866497],[25.987438,43.866588],[25.988026,43.866832],[25.98996,43.867601],[25.990091,43.867655],[25.991275,43.868139],[25.992137,43.868487],[25.992515,43.86864],[25.993167,43.868902],[25.994144,43.869294],[25.994368,43.869384],[25.994823,43.869587],[25.996426,43.870328],[25.99657,43.870392],[25.997064,43.87061],[25.997389,43.870759],[25.997867,43.870981],[25.998308,43.871189],[25.999179,43.871579],[25.999329,43.871639],[25.999485,43.871689],[25.999682,43.871746],[25.999947,43.871799],[26.007736,43.873173],[26.007928,43.87321],[26.008086,43.873246],[26.008241,43.873304],[26.008356,43.873346]]},"properties":{"name":"бул. Тутракан"}},{"type":"Feature","geometry":{"type":"LineString","coordinates":[[26.008822,43.873233],[26.008994,43.873301],[26.009064,43.873343],[26.009143,43.873385],[26.009217,43.873412],[26.009293,43.873433],[26.009577,43.873484],[26.010483,43.873645],[26.010991,43.873735],[26.012583,43.874034],[26.013065,43.874127],[26.01318,43.874156],[26.013298,43.874191],[26.013429,43.874232],[26.013551,43.874273],[26.013675,43.874318],[26.013778,43.874355],[26.013896,43.874407],[26.014025,43.874469],[26.014148,43.874529],[26.015248,43.875135],[26.015565,43.875308],[26.015717,43.875394],[26.015842,43.875462],[26.016004,43.87554],[26.01608,43.87557],[26.016153,43.87559]]},"properties":{"name":"бул. Тутракан"}},{"type":"Feature","geometry":{"type":"LineString","coordinates":[[26.01609,43.87586],[26.015993,43.875801],[26.015851,43.875705],[26.015788,43.875656],[26.015672,43.875553],[26.015572,43.875458],[26.015466,43.875394],[26.015123,43.875213],[26.014139,43.874677],[26.013972,43.874587],[26.013826,43.874521],[26.01369,43.874464],[26.013564,43.874414],[26.013383,43.874351],[26.013169,43.874289],[26.01298,43.874238],[26.012781,43.874195],[26.012555,43.874153],[26.01081,43.873839],[26.009257,43.873553],[26.008755,43.873443]]},"properties":{"name":"бул. Тутракан"}},{"type":"Feature","geometry":{"type":"LineString","coordinates":[[25.981101,43.862818],[25.980993,43.862745],[25.980877,43.862691],[25.980772,43.862668],[25.980644,43.862662],[25.980327,43.862678],[25.980087,43.862691],[25.979942,43.862682],[25.97984,43.862661],[25.97803,43.861782],[25.976136,43.860867],[25.975013,43.860325],[25.973655,43.859654],[25.973175,43.859436],[25.973094,43.859395],[25.973041,43.859369],[25.971815,43.858752],[25.971062,43.858394],[25.970361,43.858055],[25.969967,43.857862],[25.96907,43.857437],[25.968884,43.857348],[25.968042,43.856945],[25.967994,43.856922],[25.967875,43.856865],[25.965961,43.855961],[25.964389,43.855196],[25.964123,43.85506],[25.964085,43.855046],[25.964031,43.855035],[25.96397,43.855028],[25.963898,43.855031],[25.963784,43.855046],[25.963273,43.855233],[25.963185,43.855265],[25.963053,43.855316],[25.963016,43.855327],[25.962994,43.855333],[25.962969,43.855338],[25.962949,43.85534],[25.962925,43.855339],[25.962899,43.855332],[25.962875,43.855322],[25.962837,43.855304]]},"properties":{"name":"Доростол"}},{"type":"Feature","geometry":{"type":"LineString","coordinates":[[25.950616,43.84361],[25.950582,43.843592],[25.949504,43.843082],[25.949425,43.843042],[25.949313,43.842983],[25.949262,43.842955],[25.949113,43.842872],[25.94885,43.842702],[25.948529,43.842457],[25.94786,43.841891],[25.947801,43.841841],[25.947805,43.841939],[25.947834,43.842001],[25.947836,43.842003],[25.947851,43.84202],[25.947895,43.842068],[25.948491,43.842568],[25.948846,43.842824],[25.949079,43.842972],[25.949258,43.843068],[25.949375,43.843128],[25.949449,43.84316],[25.949556,43.843206],[25.950213,43.84349],[25.950485,43.843615],[25.95054,43.84364],[25.951515,43.844114],[25.951686,43.844196],[25.951897,43.844309],[25.951926,43.844324],[25.952134,43.844428],[25.95287,43.844734],[25.952984,43.844767],[25.953346,43.84484],[25.953705,43.844868],[25.953897,43.844876],[25.954066,43.844884],[25.954207,43.844892],[25.954256,43.844894],[25.954534,43.844905],[25.954803,43.844909],[25.955394,43.844893],[25.95568,43.844886],[25.955802,43.844898],[25.956139,43.844949],[25.956411,43.845008],[25.95658,43.845062],[25.956858,43.845164],[25.957117,43.845256],[25.957193,43.845285],[25.957219,43.845294],[25.957847,43.845516],[25.957904,43.845537],[25.957988,43.845561],[25.958015,43.845568],[25.958128,43.845597],[25.958206,43.845616],[25.959013,43.845806],[25.959281,43.84586],[25.959472,43.845897],[25.959578,43.845934],[25.959672,43.845997],[25.959738,43.846072]]},"properties":{"name":"бул. Генерал Скобелев"}},{"type":"Feature","geometry":{"type":"LineString","coordinates":[[25.951826,43.844206],[25.952077,43.844329],[25.952179,43.84438],[25.952907,43.84467],[25.953017,43.844701],[25.953356,43.84477],[25.953803,43.844801],[25.953905,43.844809],[25.954078,43.844818],[25.95422,43.844826],[25.954511,43.844842],[25.954804,43.844846],[25.955059,43.844836],[25.955384,43.844827],[25.955691,43.844822],[25.955907,43.844842],[25.956091,43.844871],[25.956291,43.844909],[25.956458,43.84495],[25.956781,43.845051],[25.957091,43.845165],[25.957675,43.845386],[25.957737,43.84541],[25.957807,43.845435],[25.957862,43.845453],[25.957937,43.845476],[25.958029,43.845503],[25.95813,43.845528],[25.958187,43.845543],[25.958255,43.845559],[25.958404,43.845594],[25.958899,43.845666],[25.959312,43.845757],[25.959541,43.845798],[25.959627,43.845805],[25.959679,43.845798],[25.959786,43.845778]]},"properties":{"name":"бул. Генерал Скобелев"}},{"type":"Feature","geometry":{"type":"LineString","coordinates":[[25.960646,43.84586],[25.960752,43.845952],[25.960833,43.845989],[25.960932,43.84602],[25.961686,43.846157],[25.962585,43.846311],[25.962799,43.846348],[25.96291,43.846368],[25.963405,43.846428],[25.963937,43.846474],[25.964259,43.8465],[25.964473,43.846524],[25.964705,43.846553],[25.964806,43.846571],[25.965078,43.846631],[25.965209,43.846666],[25.965401,43.846726],[25.965507,43.846759],[25.966117,43.846948],[25.966159,43.846961],[25.966321,43.847012],[25.966479,43.847056],[25.967295,43.84733],[25.968551,43.84765],[25.969234,43.84783],[25.970946,43.848266],[25.971538,43.848423],[25.973184,43.848956],[25.976427,43.850054],[25.976518,43.850082],[25.976826,43.850158],[25.977245,43.850216],[25.97897,43.850449],[25.979004,43.850451],[25.979189,43.850445],[25.97933,43.850464],[25.979522,43.850488],[25.982132,43.850824],[25.982349,43.850859],[25.98239,43.850864],[25.983015,43.850946],[25.985104,43.851222],[25.985281,43.851245],[25.985406,43.851261],[25.988539,43.851665],[25.99097,43.851975],[25.991016,43.851981],[25.991203,43.852004],[25.99133,43.852025],[25.991406,43.852034],[25.99284,43.852213],[25.996158,43.852637],[25.997624,43.852825],[25.997903,43.852861],[25.998109,43.852888],[26.000221,43.853169],[26.001477,43.853335],[26.00204,43.85341],[26.002448,43.853458],[26.004484,43.853696],[26.004667,43.85371],[26.004901,43.85373],[26.005019,43.853742],[26.005334,43.853767],[26.005582,43.853777],[26.00574,43.853763],[26.00585,43.853736],[26.006086,43.85365]]},"properties":{"name":"бул. Липник"}},{"type":"Feature","geometry":{"type":"LineString","coordinates":[[25.960613,43.846122],[25.960716,43.846102],[25.960793,43.8461],[25.960867,43.846109],[25.961041,43.846152],[25.962525,43.846406],[25.963352,43.846496],[25.964245,43.846584],[25.964743,43.846662],[25.96513,43.846743],[25.966101,43.847054],[25.96627,43.847108],[25.966422,43.847148],[25.966475,43.847164],[25.966719,43.847233],[25.967024,43.847319],[25.96746,43.847443],[25.969481,43.847969],[25.97143,43.848478],[25.973137,43.849012],[25.974795,43.849603],[25.974952,43.849664],[25.975412,43.849845],[25.976297,43.850139],[25.976385,43.850164],[25.976673,43.850251],[25.977188,43.85033],[25.978979,43.850556],[25.979162,43.850579],[25.979299,43.850597],[25.979484,43.85062],[25.979511,43.850623],[25.981214,43.850835],[25.982355,43.850987],[25.983566,43.851152],[25.984405,43.851255],[25.985053,43.851337],[25.985232,43.85136],[25.985383,43.85138],[25.987137,43.851605],[25.987478,43.851645],[25.987518,43.85165],[25.988117,43.85173],[25.988478,43.851778],[25.988582,43.851791],[25.989616,43.851919],[25.990044,43.851974],[25.99099,43.852094],[25.991182,43.852117],[25.991309,43.852136],[25.99138,43.852145],[25.991404,43.852148],[25.992153,43.852245],[25.992309,43.852266],[25.992925,43.852348],[25.993383,43.852406],[25.996105,43.85276],[25.99759,43.852953],[25.997865,43.85299],[25.998074,43.853016],[25.999796,43.853247],[26.000426,43.853328],[26.000906,43.853388],[26.001706,43.853496],[26.002007,43.853535],[26.002354,43.85358]]},"properties":{"name":"бул. Липник"}},{"type":"Feature","geometry":{"type":"LineString","coordinates":[[26.006738,43.85381],[26.006816,43.853889],[26.006847,43.853917],[26.006881,43.853937],[26.006924,43.853953],[26.006979,43.853967],[26.007035,43.853979],[26.009434,43.854357],[26.009586,43.85438],[26.009738,43.854397],[26.009898,43.854413],[26.010047,43.854427],[26.01017,43.854437],[26.010285,43.854442],[26.010379,43.85444],[26.010462,43.854433],[26.010528,43.854422],[26.010593,43.854409],[26.010667,43.854389],[26.010755,43.85436],[26.010826,43.854328],[26.010898,43.854285],[26.010958,43.854242],[26.011012,43.854199],[26.011073,43.854141],[26.011123,43.854084],[26.011163,43.854022],[26.011194,43.853963],[26.011217,43.853908],[26.01123,43.853848],[26.011236,43.85379],[26.01124,43.853736],[26.011237,43.853679],[26.011229,43.853636]]},"properties":{"name":"бул. Липник"}},{"type":"Feature","geometry":{"type":"LineString","coordinates":[[25.982132,43.850824],[25.982271,43.850728],[25.982332,43.85048],[25.982338,43.850453],[25.982494,43.849762],[25.982539,43.849533],[25.982562,43.849454],[25.982568,43.849425],[25.982606,43.849226],[25.982743,43.8485],[25.982875,43.8478],[25.982947,43.847559],[25.983018,43.847386],[25.983091,43.847244],[25.98332,43.846996],[25.983561,43.846693],[25.983988,43.8461],[25.984205,43.845816]]},"properties":{"name":"Юндола"}},{"type":"Feature","geometry":{"type":"LineString","coordinates":[[25.992397,43.849463],[25.99217,43.849783],[25.992094,43.849888],[25.991837,43.850246],[25.991626,43.850597],[25.991503,43.851064],[25.991431,43.851362],[25.991311,43.851854],[25.991305,43.851876],[25.991302,43.851907]]},"properties":{"name":"Братислава"}},{"type":"Feature","geometry":{"type":"LineString","coordinates":[[25.984205,43.845816],[25.985335,43.846425],[25.985739,43.846645],[25.98595,43.84676],[25.986152,43.846862],[25.986337,43.846947],[25.987198,43.847303],[25.987726,43.847586],[25.988614,43.848064],[25.988748,43.848127],[25.989932,43.848568],[25.990388,43.848725],[25.992397,43.849463],[25.993253,43.849779],[25.99377,43.84997],[25.995827,43.85073],[25.995944,43.850773],[25.996093,43.850825]]},"properties":{"name":"Рига"}},{"type":"Feature","geometry":{"type":"LineString","coordinates":[[25.984205,43.845816],[25.983193,43.845389],[25.982096,43.844958],[25.981731,43.844836],[25.981048,43.84464],[25.980614,43.844533],[25.979818,43.844351],[25.978757,43.844119],[25.978429,43.844047],[25.978289,43.844015],[25.978075,43.843959],[25.977502,43.843798],[25.976547,43.843502],[25.976476,43.843482],[25.976416,43.843462],[25.975807,43.843267],[25.975101,43.842964],[25.974873,43.842851],[25.974389,43.842633],[25.973665,43.842316],[25.97293,43.842043],[25.972087,43.841785],[25.971391,43.84157],[25.970972,43.841469],[25.970701,43.841422],[25.970402,43.841365],[25.97006,43.841293],[25.969659,43.841243],[25.969436,43.841227],[25.969366,43.841226],[25.969302,43.841232],[25.969207,43.841258],[25.96906,43.841305],[25.968905,43.841354],[25.96857,43.841472],[25.968484,43.841498]]},"properties":{"name":"Петрохан"}},{"type":"Feature","geometry":{"type":"LineString","coordinates":[[25.971461,43.844412],[25.97178,43.8439],[25.972084,43.843403],[25.972136,43.843316],[25.97293,43.842043],[25.973306,43.841546]]},"properties":{"name":"Сърнена гора"}},{"type":"Feature","geometry":{"type":"LineString","coordinates":[[25.973306,43.841546],[25.974072,43.841854],[25.974349,43.841961],[25.975263,43.842316],[25.975706,43.842492],[25.976824,43.842903],[25.976826,43.842945],[25.976559,43.843351],[25.9765,43.843444],[25.976476,43.843482]]},"properties":{"name":"Згориград"}},{"type":"Feature","geometry":{"type":"LineString","coordinates":[[25.962837,43.855304],[25.962791,43.855248],[25.962389,43.854725],[25.962142,43.854401],[25.961797,43.853946],[25.961699,43.853828],[25.96166,43.853777],[25.96163,43.853737],[25.961551,43.853612],[25.961538,43.853592],[25.961181,43.853051],[25.961044,43.852882],[25.95998,43.851374],[25.959745,43.851022],[25.959648,43.850897],[25.959579,43.850821],[25.959487,43.850738],[25.959398,43.850655],[25.959234,43.850511],[25.959142,43.850437],[25.959067,43.850388],[25.958958,43.850323],[25.958849,43.850277],[25.95883,43.850272],[25.958744,43.850251],[25.95865,43.850223],[25.958497,43.850182],[25.95826,43.850117]]},"properties":{"name":"бул. Съединение"}},{"type":"Feature","geometry":{"type":"LineString","coordinates":[[25.961425,43.853231],[25.961544,43.853319],[25.961709,43.853435],[25.961783,43.853484],[25.961795,43.853492],[25.961913,43.853569],[25.961993,43.853619],[25.962064,43.853672],[25.962099,43.853704],[25.962126,43.853744],[25.962146,43.853773],[25.962479,43.854266],[25.962596,43.854427],[25.963103,43.855148],[25.963141,43.855202],[25.963185,43.855265]]},"properties":{"name":"бул. Съединение"}},{"type":"Feature","geometry":{"type":"LineString","coordinates":[[25.95826,43.850117],[25.958377,43.849977],[25.959031,43.849056],[25.959083,43.848982],[25.959309,43.848622],[25.95944,43.848249],[25.959447,43.848229],[25.959473,43.848141],[25.959517,43.847958],[25.959559,43.847812],[25.95977,43.847045],[25.9599,43.846592],[25.959931,43.846502],[25.959939,43.846397],[25.959931,43.846307],[25.959899,43.846235]]},"properties":{"name":"бул. Цар Освободител"}},{"type":"Feature","geometry":{"type":"LineString","coordinates":[[25.960444,43.846254],[25.96042,43.846294],[25.960396,43.846357],[25.960268,43.846811],[25.959926,43.847927],[25.959905,43.847996],[25.959808,43.848282],[25.95965,43.848702],[25.959352,43.849176],[25.958831,43.849965],[25.958799,43.850007],[25.958747,43.850076],[25.95865,43.850223],[25.95858,43.85031],[25.958173,43.850812],[25.95798,43.851037],[25.95766,43.851413],[25.95733,43.851791],[25.957117,43.852006],[25.957054,43.852057],[25.956982,43.852112],[25.956333,43.852618],[25.956318,43.85263]]},"properties":{"name":"бул. Цар Освободител"}},{"type":"Feature","geometry":{"type":"LineString","coordinates":[[25.959994,43.845649],[25.960074,43.845559],[25.960094,43.8455],[25.960107,43.845418],[25.960191,43.845015],[25.960199,43.844641],[25.960208,43.844108],[25.960208,43.844075],[25.960241,43.842984],[25.960241,43.842948],[25.96024,43.842194],[25.960237,43.841843],[25.960232,43.841721],[25.960209,43.841631],[25.960206,43.841623],[25.959757,43.840245],[25.959741,43.840201],[25.959651,43.839907],[25.959629,43.839837],[25.959579,43.839693],[25.95953,43.839562],[25.959495,43.839433],[25.959117,43.838402],[25.959077,43.838292],[25.958996,43.838057],[25.958882,43.837746],[25.958753,43.837393],[25.958418,43.836419],[25.958396,43.836362],[25.958141,43.835741],[25.958086,43.835636],[25.958019,43.835531],[25.957941,43.835434],[25.957863,43.835348],[25.957786,43.835275],[25.957689,43.835199],[25.957443,43.835049],[25.956785,43.834683],[25.9567,43.834643],[25.956601,43.834613],[25.956507,43.834594],[25.956207,43.834553],[25.956033,43.834528],[25.955884,43.8345],[25.955821,43.834477],[25.955765,43.834454],[25.955707,43.83442],[25.95552,43.834305],[25.955176,43.83411],[25.954982,43.833997]]},"properties":{"name":"бул. Цар Освободител"}},{"type":"Feature","geometry":{"type":"LineString","coordinates":[[25.960526,43.845718],[25.960494,43.845587],[25.960494,43.84552],[25.960543,43.844953],[25.960571,43.844139],[25.960592,43.843513],[25.960594,43.843475],[25.96062,43.842657],[25.960621,43.842581],[25.960633,43.841832],[25.960625,43.841742],[25.96059,43.841593],[25.9602,43.840406],[25.960125,43.840181],[25.960014,43.839866],[25.959984,43.83978],[25.959947,43.839649],[25.959894,43.839478],[25.959857,43.839397],[25.959843,43.839357],[25.959824,43.83931],[25.959752,43.839127],[25.959565,43.838654],[25.959456,43.838367],[25.959404,43.838247],[25.959135,43.837692],[25.958846,43.837065],[25.958573,43.836391],[25.958436,43.836074],[25.958322,43.835769],[25.95825,43.835608],[25.958163,43.835486],[25.958096,43.835404],[25.958016,43.835322],[25.957953,43.835274],[25.95787,43.835215],[25.957495,43.834994],[25.955974,43.834152],[25.955868,43.834092],[25.955461,43.833875]]},"properties":{"name":"бул. Цар Освободител"}},{"type":"Feature","geometry":{"type":"LineString","coordinates":[[25.956045,43.852491],[25.956075,43.852471]]},"properties":{"name":"бул. Цар Освободител"}},{"type":"Feature","geometry":{"type":"LineString","coordinates":[[25.918016,43.796064],[25.918262,43.795941],[25.918506,43.795863],[25.918664,43.795815],[25.919008,43.795738],[25.919637,43.795619],[25.919962,43.795579],[25.920171,43.795542],[25.920468,43.795488],[25.920809,43.795392],[25.92097,43.795331],[25.921406,43.795138],[25.921723,43.794972],[25.922176,43.794747],[25.922555,43.794558],[25.923005,43.794362],[25.92345,43.794225],[25.923794,43.794106],[25.924021,43.794061],[25.924417,43.793992],[25.924714,43.793957],[25.92513,43.793961],[25.925541,43.793995],[25.92601,43.794065],[25.926352,43.794083],[25.926541,43.794177],[25.926721,43.794256],[25.927162,43.794465],[25.927489,43.794643],[25.928106,43.795002],[25.928909,43.795442],[25.929285,43.795631],[25.929644,43.795814],[25.929876,43.795933],[25.929933,43.795973],[25.93028,43.796234],[25.930631,43.79649],[25.930929,43.796689],[25.931268,43.796955],[25.931351,43.797046],[25.931562,43.797373],[25.931741,43.797633],[25.93177,43.797672],[25.932094,43.798169]]},"properties":{"name":"Стремление"}},{"type":"Feature","geometry":{"type":"LineString","coordinates":[[25.932094,43.798169],[25.932052,43.798221],[25.93196,43.798274],[25.93184,43.798307],[25.931433,43.798361],[25.931136,43.798394],[25.930973,43.798412],[25.930711,43.798481]]},"properties":{"name":"Свиленград"}},{"type":"Feature","geometry":{"type":"LineString","coordinates":[[25.930711,43.798481],[25.93049,43.798629],[25.93017,43.798837],[25.929984,43.798961],[25.929577,43.799209],[25.92937,43.79936],[25.929125,43.79957],[25.928771,43.79994],[25.928388,43.800379],[25.928325,43.800449]]},"properties":{"name":"Хан Кардам"}},{"type":"Feature","geometry":{"type":"LineString","coordinates":[[25.928048,43.800827],[25.92752,43.801673],[25.927363,43.801924],[25.927312,43.801991],[25.927268,43.802049],[25.927209,43.802153],[25.927156,43.80232],[25.927127,43.802443],[25.927124,43.802573],[25.927137,43.802745],[25.927187,43.802932],[25.927566,43.803871],[25.927824,43.804421],[25.927923,43.804663],[25.928188,43.804954],[25.928589,43.805187],[25.930116,43.805832],[25.930696,43.806068],[25.931735,43.806502],[25.931922,43.806549],[25.93243,43.806615],[25.932727,43.806635],[25.934333,43.80671],[25.936197,43.806677],[25.937184,43.806653],[25.937302,43.806651],[25.937385,43.80665],[25.939445,43.806622],[25.939589,43.806619],[25.94162,43.806576],[25.94171,43.806582],[25.941774,43.80659],[25.941853,43.806614],[25.941946,43.806653],[25.942031,43.806698]]},"properties":{"name":"Йордан Йовков"}},{"type":"Feature","geometry":{"type":"LineString","coordinates":[[25.946295,43.803685],[25.946188,43.803883],[25.946038,43.804108],[25.945913,43.80427],[25.945637,43.804628],[25.945351,43.804999],[25.944858,43.805665],[25.944724,43.805837],[25.944571,43.806001],[25.944434,43.8061],[25.944235,43.806231],[25.943803,43.806452],[25.943712,43.806498],[25.943283,43.806723],[25.942749,43.807],[25.942612,43.807072],[25.942568,43.807105],[25.942526,43.80714],[25.94249,43.80718],[25.942462,43.807229],[25.94244,43.807283],[25.942422,43.807339],[25.942407,43.807391],[25.942402,43.80743],[25.942402,43.807471],[25.942407,43.80753],[25.942418,43.807578],[25.942434,43.80765],[25.94251,43.807842],[25.942639,43.808071],[25.942965,43.808542],[25.943309,43.809074],[25.943453,43.809339],[25.943557,43.809595],[25.943621,43.809833],[25.943647,43.810152],[25.943643,43.810499],[25.943572,43.810783],[25.943493,43.811034],[25.943438,43.811164],[25.943304,43.811418],[25.943106,43.811685],[25.94284,43.811983],[25.942368,43.812436],[25.941901,43.812958],[25.941525,43.813384],[25.941451,43.81347],[25.941168,43.813815],[25.940862,43.814209],[25.940652,43.81461],[25.940171,43.815673],[25.939973,43.816161],[25.939906,43.816485],[25.939839,43.816689],[25.939708,43.817046],[25.939506,43.817439],[25.939317,43.817786],[25.939211,43.817996],[25.93915,43.818065],[25.939111,43.818101],[25.939065,43.81814],[25.938995,43.818179]]},"properties":{"name":"Басарбовска"}},{"type":"Feature","geometry":{"type":"LineString","coordinates":[[25.946295,43.803685],[25.946309,43.803623],[25.946235,43.803539],[25.945928,43.80329],[25.94578,43.803188],[25.945609,43.80307],[25.945483,43.802982],[25.945385,43.802877],[25.945366,43.802773],[25.945387,43.802599],[25.94559,43.80184],[25.945642,43.801694],[25.945679,43.801583],[25.945739,43.80128],[25.945787,43.800896],[25.945819,43.800427],[25.945865,43.79999],[25.945979,43.798286]]},"properties":{"name":"501"}},{"type":"Feature","geometry":{"type":"LineString","coordinates":[[25.939351,43.822645],[25.939204,43.82252],[25.939137,43.822462],[25.938812,43.822221]]},"properties":{"name":"501"}},{"type":"Feature","geometry":{"type":"LineString","coordinates":[[25.938995,43.818179],[25.938726,43.818478],[25.938365,43.818811],[25.938218,43.818944],[25.937995,43.819145],[25.93777,43.819352],[25.937487,43.819658],[25.937367,43.819805],[25.937283,43.819984],[25.937263,43.820178],[25.937291,43.82031],[25.937343,43.820415],[25.937626,43.820774],[25.937944,43.821189],[25.938371,43.821713],[25.938545,43.821965],[25.938676,43.822105],[25.938812,43.822221],[25.939093,43.822379],[25.939266,43.822484],[25.939544,43.822647],[25.94032,43.823099],[25.940874,43.823429],[25.941244,43.823682],[25.94159,43.82394],[25.941859,43.824157],[25.942159,43.824392],[25.942309,43.82451],[25.942391,43.824588],[25.94246,43.824664],[25.942519,43.824731],[25.942571,43.824798],[25.942602,43.824825],[25.942649,43.824859],[25.942689,43.824872],[25.942735,43.824869],[25.942781,43.824862],[25.94281,43.824852],[25.942861,43.824839],[25.942888,43.824843],[25.94291,43.824852],[25.942945,43.824866],[25.943029,43.824908]]},"properties":{"name":"501"}},{"type":"Feature","geometry":{"type":"LineString","coordinates":[[25.95953,43.839562],[25.959709,43.839529],[25.959894,43.839478]]},"properties":{"name":"бул. Неофит Бозвели"}},{"type":"Feature","geometry":{"type":"LineString","coordinates":[[25.959947,43.839649],[25.959754,43.83968],[25.959579,43.839693],[25.959439,43.839696],[25.959199,43.839706],[25.959033,43.839706],[25.958832,43.839691],[25.958607,43.839661],[25.957415,43.839427],[25.957302,43.83941],[25.957225,43.839399],[25.956769,43.839341],[25.95639,43.839294],[25.956,43.839245],[25.955219,43.83914],[25.955062,43.839119]]},"properties":{"name":"бул. Неофит Бозвели"}},{"type":"Feature","geometry":{"type":"LineString","coordinates":[[25.95494,43.839062],[25.955078,43.839046]]},"properties":{"name":"бул. Неофит Бозвели"}},{"type":"Feature","geometry":{"type":"LineString","coordinates":[[25.967063,43.832746],[25.96811,43.833549],[25.96815,43.83358],[25.968212,43.833628]]},"properties":{"name":"Студен кладенец"}},{"type":"Feature","geometry":{"type":"LineString","coordinates":[[25.967343,43.831762],[25.967323,43.831793],[25.967296,43.831842],[25.967264,43.831895],[25.967245,43.831961],[25.967197,43.832174],[25.967142,43.832411],[25.967063,43.832746]]},"properties":{"name":"Еленин връх"}},{"type":"Feature","geometry":{"type":"LineString","coordinates":[[25.967447,43.831776],[25.96783,43.831489],[25.968086,43.831275],[25.96835,43.831053],[25.969104,43.830398],[25.969199,43.830309],[25.969295,43.830215],[25.969504,43.830006],[25.969571,43.829938],[25.969783,43.829743],[25.969876,43.829682]]},"properties":{"name":"Еленин връх"}},{"type":"Feature","geometry":{"type":"LineString","coordinates":[[25.967343,43.831762],[25.967402,43.831776],[25.967447,43.831776]]},"properties":{"name":"Гео Милев"}},{"type":"Feature","geometry":{"type":"LineString","coordinates":[[25.955868,43.834092],[25.955902,43.834191],[25.955918,43.834256],[25.955916,43.834307],[25.955909,43.83437],[25.955884,43.8345],[25.955819,43.83474],[25.955548,43.836117],[25.955378,43.837085],[25.955331,43.837402],[25.955231,43.838058],[25.955096,43.838928],[25.955078,43.839046],[25.955062,43.839119],[25.955025,43.839323],[25.955011,43.839415],[25.954994,43.839497],[25.954978,43.839576],[25.954863,43.840245],[25.954856,43.840284],[25.954809,43.840616],[25.954774,43.840825],[25.954711,43.84126],[25.954569,43.842088],[25.954453,43.842783],[25.954404,43.843065],[25.954386,43.843169],[25.954269,43.843801],[25.954105,43.844671],[25.954095,43.844724],[25.954078,43.844818],[25.954066,43.844884],[25.954053,43.844975],[25.954048,43.845006],[25.953931,43.845835],[25.953907,43.846009],[25.953845,43.846372],[25.953835,43.846453]]},"properties":{"name":"Борисова"}},{"type":"Feature","geometry":{"type":"LineString","coordinates":[[25.951546,43.840593],[25.952298,43.840331],[25.952846,43.84014],[25.953778,43.839865],[25.954034,43.839792],[25.954994,43.839497]]},"properties":{"name":"Давид"}},{"type":"Feature","geometry":{"type":"LineString","coordinates":[[25.955778,43.840906],[25.954774,43.840825]]},"properties":{"name":"Мария Луиза"}},{"type":"Feature","geometry":{"type":"LineString","coordinates":[[25.951546,43.840593],[25.950236,43.8403],[25.950095,43.840269]]},"properties":{"name":"Мария Луиза"}},{"type":"Feature","geometry":{"type":"LineString","coordinates":[[25.950095,43.840269],[25.950462,43.839546],[25.95069,43.839069],[25.950825,43.838773],[25.950854,43.838718],[25.950884,43.83867]]},"properties":{"name":"Цар Шишман"}},{"type":"Feature","geometry":{"type":"LineString","coordinates":[[25.950334,43.838424],[25.950391,43.838437],[25.950531,43.838492],[25.950654,43.838558],[25.950801,43.838636],[25.950884,43.83867],[25.950977,43.838694],[25.951094,43.838709],[25.952174,43.838809],[25.953012,43.838884],[25.954121,43.838981],[25.95494,43.839062]]},"properties":{"name":"Неофит Бозвели"}},{"type":"Feature","geometry":{"type":"LineString","coordinates":[[25.947427,43.836354],[25.947454,43.836309],[25.94747,43.836267],[25.947479,43.836204],[25.947468,43.836142],[25.947449,43.836098],[25.947414,43.836048],[25.947345,43.835994],[25.947277,43.835957],[25.94718,43.835925],[25.947064,43.835902],[25.946951,43.835893],[25.946822,43.835895]]},"properties":{"name":"Пристанищна"}},{"type":"Feature","geometry":{"type":"LineString","coordinates":[[25.945751,43.847568],[25.945767,43.847682],[25.945813,43.847834],[25.945859,43.847968],[25.9459,43.848072],[25.945939,43.848143],[25.945959,43.84817],[25.946073,43.848293],[25.946164,43.848384],[25.946283,43.848481],[25.946435,43.848601],[25.946664,43.848766],[25.94681,43.848876],[25.946925,43.848952],[25.947248,43.849181],[25.947567,43.849394],[25.947698,43.849476],[25.947827,43.849565],[25.947866,43.849599],[25.948006,43.849719]]},"properties":{"name":"Пристанищна"}},{"type":"Feature","geometry":{"type":"LineString","coordinates":[[25.945348,43.835415],[25.945392,43.835235],[25.945445,43.835076],[25.945471,43.835],[25.945529,43.834863],[25.945595,43.834616],[25.945792,43.833948],[25.946046,43.833211],[25.946236,43.83266],[25.946438,43.832114],[25.946545,43.831719],[25.946597,43.831515],[25.946604,43.831414],[25.946562,43.831224],[25.946459,43.831004],[25.946297,43.830741],[25.945984,43.830285],[25.945899,43.830178],[25.945672,43.829917],[25.945518,43.82976],[25.945014,43.829266],[25.944721,43.828978],[25.943813,43.828091],[25.943058,43.827365],[25.942999,43.827312],[25.942792,43.827064],[25.942564,43.826784],[25.94233,43.826653],[25.942201,43.826605],[25.942099,43.826561],[25.941928,43.826444],[25.94179,43.826184],[25.941696,43.825961],[25.941593,43.825763],[25.941481,43.825595],[25.941361,43.825453],[25.941162,43.825229],[25.940696,43.824817],[25.939578,43.824014],[25.939012,43.823575],[25.938466,43.823129],[25.938338,43.823023],[25.93774,43.822462],[25.937491,43.822187],[25.937259,43.821936],[25.937143,43.821692],[25.937125,43.821655],[25.936796,43.820982],[25.936641,43.820693],[25.936533,43.820504],[25.936448,43.820308],[25.936404,43.820096],[25.936393,43.820017]]},"properties":{"name":"Свети Димитър Басарбовски"}},{"type":"Feature","geometry":{"type":"LineString","coordinates":[[25.938995,43.818179],[25.938619,43.818359],[25.938307,43.818487],[25.937771,43.818715],[25.937399,43.818896],[25.937153,43.819084],[25.937118,43.819133],[25.937074,43.819193]]},"properties":{"name":"Свети Димитър Басарбовски"}},{"type":"Feature","geometry":{"type":"LineString","coordinates":[[25.936393,43.820017],[25.93639,43.819934],[25.936406,43.81985],[25.93643,43.819783],[25.936477,43.819719],[25.936613,43.819574],[25.93673,43.819473],[25.936884,43.819344],[25.937012,43.819234],[25.937074,43.819193],[25.937026,43.819297],[25.936967,43.819404],[25.936895,43.819511],[25.936845,43.819582],[25.936786,43.819649],[25.936492,43.819874],[25.936462,43.819904],[25.936437,43.819937],[25.936393,43.820017]]},"properties":{"name":"Свети Димитър Басарбовски"}},{"type":"Feature","geometry":{"type":"LineString","coordinates":[[25.956372,43.842468],[25.955778,43.840906]]},"properties":{"name":"Цариград"}},{"type":"Feature","geometry":{"type":"LineString","coordinates":[[25.960232,43.841721],[25.960183,43.841725],[25.959159,43.841859],[25.958181,43.842011],[25.957833,43.842094],[25.957256,43.842231],[25.956372,43.842468]]},"properties":{"name":"Панайот Хитов"}},{"type":"Feature","geometry":{"type":"LineString","coordinates":[[25.95343,43.827033],[25.953881,43.827185],[25.954867,43.827442],[25.955645,43.827643],[25.955843,43.827695],[25.956126,43.827774],[25.958638,43.828683],[25.95878,43.828734]]},"properties":{"name":"Мальовица"}},{"type":"Feature","geometry":{"type":"LineString","coordinates":[[25.962337,43.853733],[25.962645,43.853798],[25.963398,43.853959],[25.964188,43.854127],[25.964547,43.854203]]},"properties":{"name":"Св. Наум"}},{"type":"Feature","geometry":{"type":"LineString","coordinates":[[25.926352,43.794083],[25.926137,43.793974],[25.925935,43.793869],[25.925676,43.793748],[25.92544,43.793672],[25.925217,43.793615],[25.925017,43.793594],[25.924693,43.793565],[25.924397,43.793556],[25.924234,43.793547],[25.924012,43.79349],[25.923946,43.793446],[25.923911,43.793403],[25.923873,43.7933],[25.923889,43.793169],[25.923906,43.793119],[25.924018,43.792716],[25.924031,43.792542],[25.924021,43.792369],[25.924018,43.79232],[25.924004,43.79223],[25.923995,43.792124],[25.923989,43.792051],[25.923975,43.791849],[25.923956,43.791621],[25.923913,43.791187],[25.923881,43.790523],[25.923875,43.790314],[25.92383,43.790169],[25.923493,43.789856],[25.922596,43.789044],[25.922348,43.788795],[25.922326,43.788626],[25.922326,43.788471],[25.922388,43.788384],[25.922629,43.78831],[25.923225,43.78812],[25.923299,43.7881],[25.923297,43.787804],[25.923275,43.787179],[25.923218,43.786773]]},"properties":{"name":"Несебър"}},{"type":"Feature","geometry":{"type":"LineString","coordinates":[[25.997369,43.857445],[25.996986,43.85672],[25.996982,43.856655],[25.996984,43.856594],[25.996992,43.856526],[25.997004,43.856459],[25.99707,43.856152],[25.997081,43.856107],[25.997228,43.855522],[25.997247,43.855448],[25.997273,43.855345],[25.99728,43.855318],[25.997357,43.85501],[25.997401,43.854835],[25.99741,43.854797],[25.997415,43.854778],[25.997571,43.85416],[25.997621,43.853962],[25.997664,43.853788],[25.997711,43.853602],[25.997842,43.853081],[25.997865,43.85299]]},"properties":{"name":"Иван Ведър"}},{"type":"Feature","geometry":{"type":"LineString","coordinates":[[25.915175,43.791871],[25.915062,43.791659],[25.91486,43.791221],[25.914759,43.791002],[25.914609,43.790598],[25.91444,43.790132],[25.914375,43.789977],[25.914324,43.789824],[25.914315,43.789798],[25.914163,43.789317],[25.914113,43.789122],[25.914012,43.788759],[25.913857,43.788342],[25.913782,43.788116],[25.913637,43.787793],[25.913428,43.787458],[25.913251,43.787226],[25.913092,43.787042],[25.912846,43.786804],[25.912416,43.78636],[25.912097,43.786039],[25.911217,43.785069],[25.910877,43.784723],[25.910358,43.784234],[25.909068,43.782931],[25.906937,43.780747],[25.906765,43.780605],[25.906581,43.78044],[25.906278,43.780221],[25.905887,43.78],[25.905368,43.779771],[25.904768,43.779548],[25.899266,43.777626],[25.898944,43.777481],[25.898693,43.777345],[25.898488,43.77721],[25.898284,43.777014],[25.897978,43.776677],[25.897786,43.776312],[25.897668,43.775916],[25.897517,43.77477],[25.897474,43.774413],[25.897305,43.773232],[25.897228,43.772525],[25.897254,43.772054],[25.897382,43.77148],[25.897614,43.770999],[25.897926,43.770541],[25.898303,43.770166],[25.898869,43.769727],[25.89931,43.769338],[25.899969,43.768846],[25.900386,43.768437],[25.900795,43.767908],[25.901435,43.766518],[25.902135,43.765069],[25.902468,43.764387],[25.902638,43.76394],[25.902663,43.763823],[25.902702,43.763547],[25.90271,43.763379]]},"properties":{"name":"5"}},{"type":"Feature","geometry":{"type":"LineString","coordinates":[[25.95977,43.847045],[25.959558,43.84701],[25.959474,43.846997],[25.95934,43.846977],[25.95914,43.846948],[25.958515,43.846852],[25.958183,43.846812],[25.957853,43.846786],[25.957819,43.846785],[25.95716,43.846759],[25.956565,43.846719],[25.955958,43.846663],[25.955321,43.846595],[25.953954,43.846463],[25.953835,43.846453]]},"properties":{"name":"Хан Крум"}},{"type":"Feature","geometry":{"type":"LineString","coordinates":[[25.953835,43.846453],[25.953697,43.846447],[25.952197,43.846409],[25.950578,43.846367],[25.950122,43.846361],[25.950009,43.84636],[25.949935,43.84636],[25.9499,43.846363],[25.949869,43.846368]]},"properties":{"name":"Константин Иречек"}},{"type":"Feature","geometry":{"type":"LineString","coordinates":[[25.9499,43.846363],[25.949793,43.846184],[25.949387,43.845593],[25.949229,43.845373],[25.949195,43.845322],[25.949151,43.845266],[25.949115,43.845219],[25.949049,43.84517],[25.94894,43.845089],[25.948578,43.844879],[25.948463,43.844826],[25.948405,43.844799],[25.948293,43.844757],[25.947777,43.844578],[25.947743,43.844566]]},"properties":{"name":"Александровска"}},{"type":"Feature","geometry":{"type":"LineString","coordinates":[[25.947648,43.840967],[25.947956,43.840711]]},"properties":{"name":"19-ти февруари"}},{"type":"Feature","geometry":{"type":"LineString","coordinates":[[25.986337,43.846947],[25.986092,43.847921],[25.986042,43.848121],[25.985863,43.848836],[25.985855,43.84887],[25.985847,43.848905],[25.985812,43.849052],[25.985702,43.849524],[25.985485,43.850448],[25.985365,43.850941],[25.98532,43.851123],[25.985313,43.851148],[25.985281,43.851245],[25.985232,43.85136]]},"properties":{"name":"Котовск"}},{"type":"Feature","geometry":{"type":"LineString","coordinates":[[25.949869,43.846368],[25.949734,43.8464],[25.949513,43.846458],[25.949469,43.84647],[25.949409,43.846486],[25.948614,43.84671],[25.948533,43.846739],[25.948495,43.846757],[25.948472,43.846773],[25.948457,43.846787],[25.948432,43.846805],[25.948406,43.846821],[25.948376,43.846834],[25.948338,43.846845],[25.947337,43.847137],[25.946503,43.847363],[25.946383,43.847396],[25.946238,43.847435],[25.94615,43.847459],[25.945751,43.847568]]},"properties":{"name":"бул. Славянски"}},{"type":"Feature","geometry":{"type":"LineString","coordinates":[[25.952679,43.852578],[25.952615,43.852539],[25.952539,43.852521],[25.952404,43.852516],[25.9518,43.852516],[25.951467,43.852512],[25.951203,43.852492],[25.950916,43.852401],[25.950699,43.852303],[25.950461,43.852165],[25.950307,43.852064],[25.950164,43.851956],[25.950106,43.851912],[25.950096,43.851902],[25.950068,43.851869],[25.95006,43.85186],[25.95003,43.851827],[25.949841,43.851628],[25.949176,43.850903],[25.949005,43.850738],[25.948499,43.850242],[25.948308,43.850056],[25.94819,43.849919],[25.948006,43.849719]]},"properties":{"name":"бул. Придунавски"}},{"type":"Feature","geometry":{"type":"LineString","coordinates":[[25.952921,43.852553],[25.953036,43.852545],[25.953594,43.852531],[25.955342,43.852523],[25.955847,43.852528],[25.955922,43.852523],[25.955994,43.85251],[25.956045,43.852491]]},"properties":{"name":"бул. Цар Фердинанд"}},{"type":"Feature","geometry":{"type":"LineString","coordinates":[[25.956318,43.85263],[25.956185,43.852695],[25.956037,43.852735],[25.95585,43.852745],[25.954916,43.852757],[25.954596,43.85276],[25.95324,43.852769],[25.953025,43.852775],[25.952984,43.852759],[25.952919,43.852727]]},"properties":{"name":"бул. Цар Фердинанд"}},{"type":"Feature","geometry":{"type":"LineString","coordinates":[[25.956318,43.85263],[25.956379,43.852669],[25.956442,43.85272],[25.95673,43.852936],[25.95717,43.853233],[25.957911,43.853745],[25.957976,43.85379],[25.958015,43.853817],[25.958341,43.854044],[25.958647,43.854258],[25.959571,43.854862],[25.959856,43.855054]]},"properties":{"name":"Богдан войвода"}},{"type":"Feature","geometry":{"type":"LineString","coordinates":[[25.959856,43.855054],[25.959647,43.855245]]},"properties":{"name":"Майор Атанас Узунов"}},{"type":"Feature","geometry":{"type":"LineString","coordinates":[[25.962318,43.856074],[25.962223,43.856134],[25.962164,43.856172],[25.961727,43.856483],[25.961656,43.856531],[25.961578,43.856588],[25.961514,43.856628],[25.961453,43.856668],[25.961098,43.856918],[25.96108,43.856932],[25.96087,43.857086],[25.960712,43.857196],[25.960675,43.857223],[25.960553,43.857299],[25.960416,43.857391],[25.959945,43.857695]]},"properties":{"name":"Независимост"}},{"type":"Feature","geometry":{"type":"LineString","coordinates":[[26.023394,43.880045],[26.023981,43.879973],[26.024529,43.879868],[26.025305,43.8797],[26.025891,43.879451],[26.026252,43.879219],[26.026442,43.879104],[26.027085,43.878705],[26.028426,43.877885],[26.028714,43.877711],[26.030099,43.876805],[26.031152,43.876098],[26.033729,43.874376],[26.033828,43.874313],[26.034144,43.874096],[26.034458,43.873878],[26.0347,43.873698],[26.034745,43.873668],[26.035584,43.873097],[26.035663,43.873051],[26.035712,43.873023],[26.036203,43.872673],[26.036333,43.872577],[26.036591,43.872387],[26.037488,43.871427],[26.038063,43.870746],[26.038483,43.870291]]},"properties":{"name":"Индустриален парк"}},{"type":"Feature","geometry":{"type":"LineString","coordinates":[[26.022509,43.88039],[26.0224,43.880304],[26.019694,43.878386],[26.019237,43.878089],[26.018908,43.877865],[26.018495,43.877605],[26.01815,43.877391],[26.018012,43.877306]]},"properties":{"name":"21"}},{"type":"Feature","geometry":{"type":"LineString","coordinates":[[26.016797,43.875694],[26.016927,43.875831],[26.017018,43.875932],[26.017213,43.876211],[26.017374,43.876474],[26.0175,43.876658],[26.017579,43.876749],[26.017664,43.87683],[26.017746,43.876897],[26.017871,43.876985],[26.018046,43.877106],[26.018193,43.87721],[26.018446,43.877368],[26.018824,43.877628],[26.019266,43.877923],[26.019789,43.878281],[26.022508,43.880145],[26.022631,43.880214],[26.022727,43.880255]]},"properties":{"name":"21"}},{"type":"Feature","geometry":{"type":"LineString","coordinates":[[26.018012,43.877306],[26.017901,43.877226],[26.017776,43.877128],[26.017595,43.876963],[26.017477,43.876832],[26.017388,43.876705],[26.017216,43.87641],[26.0171,43.876227],[26.016984,43.876072],[26.016908,43.876015],[26.016843,43.875986],[26.016775,43.875974],[26.016662,43.875977]]},"properties":{"name":"2"}},{"type":"Feature","geometry":{"type":"LineString","coordinates":[[25.986806,43.804014],[25.987002,43.803854],[25.987363,43.803571],[25.988411,43.802728],[25.988802,43.802412],[25.989881,43.80155],[25.992595,43.799331],[25.993402,43.798659],[25.999705,43.793412],[26.003523,43.790078],[26.007033,43.787108],[26.012176,43.782929],[26.013409,43.781898]]},"properties":{"name":"2"}},{"type":"Feature","geometry":{"type":"LineString","coordinates":[[25.982096,43.844958],[25.981294,43.846207],[25.981125,43.84647],[25.98067,43.8472],[25.980368,43.847876],[25.980119,43.848418],[25.979848,43.849033],[25.979557,43.849731],[25.979512,43.849823],[25.979434,43.849981]]},"properties":{"name":"Захари Стоянов"}},{"type":"Feature","geometry":{"type":"LineString","coordinates":[[25.95766,43.851413],[25.95828,43.851721],[25.958697,43.851928],[25.959472,43.852259],[25.959982,43.8525],[25.960723,43.852811],[25.961044,43.852882]]},"properties":{"name":"Болярска"}},{"type":"Feature","geometry":{"type":"LineString","coordinates":[[25.985549,43.805351],[25.985422,43.805322]]},"properties":{"name":"23"}},{"type":"Feature","geometry":{"type":"LineString","coordinates":[[25.958181,43.842011],[25.958245,43.842877],[25.958247,43.842977],[25.958264,43.843448],[25.958265,43.844117],[25.958262,43.84418],[25.958251,43.84431],[25.958221,43.844456],[25.958204,43.844562],[25.95816,43.844803],[25.958058,43.845346],[25.958047,43.845424],[25.958029,43.845503]]},"properties":{"name":"Муткурова"}}]}